sansan_organization_code,sansan_location_code,corporate_number,data_source,company_name,base_name,zip_code,address,phone_number,crawled_at
8848028667281,1573244478823,4430001024158,ZC_IRYO,株式会社日本ケミカル,プラム薬局　北１０条店,0010010,札幌市北区北10条西4丁目1-13,011-738-6001,2023-10-23 15:00:00 UTC
1243447618525,4786229821163,7430005011777,ZC_IRYO,医療法人ライブフォレスト,北大通こころのクリニック,0010010,札幌市北区北10条西4丁目1番13クレドメディカルビル3階,011-738-7171,2023-10-23 15:00:00 UTC
7736174419484,6014721686795,1430001010672,ZC_IRYO,株式会社ツルハ,調剤薬局ツルハドラッグ北１０条西店,００１００１０,札幌市北区北10条西3丁目9-2THE PLACE SAPPORO 1F,011-214-0259,2023-10-23 15:00:00 UTC
7164753020541,3092703312624,8430005001901,ZC_IRYO,医療法人社団　太黒胃腸内科病院,医療法人社団　太黒胃腸内科病院,0010011,札幌市北区北11条西3丁目1番15号,011⁃716⁃9161,2023-10-23 15:00:00 UTC
6784725784855,4751027702111,1430001005219,ZC_IRYO,株式会社なの花北海道,なの花薬局　北１１条店,0010011,札幌市北区北11条西4丁目1番1号, 011-738-0888 ,2023-10-23 15:00:00 UTC
6230461304115,2110373576369,7430005001753,ZC_IRYO,医療法人社団　佐藤診療所,医療法人社団　佐藤診療所,0010012,札幌市北区北12条西2丁目1番地,011-716-1637,2023-10-23 15:00:00 UTC
1780444203886,8369345683128,7430001045291,ZC_IRYO,株式会社　あさみ,あさみ薬局,0010013,札幌市北区北13条西4丁目2-16,011-716-7350,2023-10-23 15:00:00 UTC
6784725784855,3256881739311,1430001005219,ZC_IRYO,株式会社なの花北海道,なの花薬局　北大前店,0010013,札幌市北区北13条西4丁目2-17,011-757-1193,2023-10-23 15:00:00 UTC
6467387484032,7991360490488,7430001069398,ZC_IRYO,株式会社アインファーマシーズ,アール薬局　北大前店,0010013,札幌市北区北13条西4丁目2-14,011-726-5070,2023-10-23 15:00:00 UTC
7377382473247,3089177876586,5430005010855,ZC_IRYO,一般財団法人　協済会,北大協済会薬局,0010013,札幌市北区北13条西4丁目2番21号,011-756-2221,2023-10-23 15:00:00 UTC
9436126793115,5293640773023,7430001033172,ZC_IRYO,株式会社サンクール,あしたば薬局北大前店,0010013,札幌市北区北13条西4丁目2-15,０１１－７００－４１９３,2023-10-23 15:00:00 UTC
8100171959897,3954247082474,2430005012383,ZC_IRYO,医療法人社団ライフパートナー,ここハートクリニック,００１００１３,札幌市北区北13条西3丁目2番1号アルファスクエア北13 2階-F号室,011-788-7897,2023-10-23 15:00:00 UTC
8836049424138,1368626211286,6430005012917,ZC_IRYO,医療法人　さっぽろ脊椎外科クリニック,さっぽろ脊椎外科クリニック,0010013,札幌市北区北13条西2丁目2番1号, 011-729-1154 ,2023-10-23 15:00:00 UTC
3807372628938,6742165071858,9430005001438,ZC_IRYO,医療法人　明日葉会,札幌マタニティ・ウィメンズホスピタル,0010013,札幌市北区北13条西4丁目2番23号,０１１－７４６－５５０５,2023-10-23 15:00:00 UTC
3915987985233,5351475194111,1430001012306,ZC_IRYO,株式会社　難波薬局,株式会社　難波薬局,0010014,札幌市北区北14条西4丁目1番15号,011-716-3030,2023-10-23 15:00:00 UTC
6071322783546,3912698473813,9010001064753,ZC_IRYO,日本調剤株式会社,日本調剤北大前薬局,0010014,札幌市北区北14条西4丁目1番14号,011-757-2212,2023-10-23 15:00:00 UTC
7015184973727,7932909761899,7430001027983,ZC_IRYO,株式会社ナカジマ薬局,ナカジマ薬局　北大前店,0010014,札幌市北区北14条西4丁目1番16号,011-756-1193,2023-10-23 15:00:00 UTC
7008603878624,6532722875782,5430001041581,ZC_IRYO,株式会社マックス,ハート薬局北１４条店,0010014,札幌市北区北14条西2丁目1-5メルバN14 1F,011-747-1000,2023-10-23 15:00:00 UTC
7736174419484,9394097256555,1430001010672,ZC_IRYO,株式会社　ツルハ,調剤薬局クスリのツルハ　北大前店,0010014,札幌市北区北14条西4丁目1番17号,011-700-5397,2023-10-23 15:00:00 UTC
2927677728282,3718411811264,,ZC_IRYO,有限会社あけぼの,えるむ薬局,0010016,札幌市北区北16条西4丁目1番19,011-737-7951,2023-10-23 15:00:00 UTC
5785389357522,1293113401290,9430005001792,ZC_IRYO,社会医療法人　秀眸会　大塚眼科病院,社会医療法人　秀眸会　大塚眼科病院,0010016,札幌市北区北16条西4丁目2番17号,011-747-5211,2023-10-23 15:00:00 UTC
6049774402521,2661985656026,1040005000998,ZC_IRYO,医療法人社団郁栄会,医療法人社団郁栄会　札幌ピースデンタルクリニック,0010017,札幌市北区北17条西4丁目2番32号クレスト18 2階,011-788-2494,2023-10-23 15:00:00 UTC
8816600292589,3760874624925,2430005010528,ZC_IRYO,医療法人社団　菊池皮膚科クリニック,医療法人社団　菊池皮膚科クリニック,0010017,札幌市北区北17条西3丁目21プロスTJビル 1F,０１１－７３６－４１１２,2023-10-23 15:00:00 UTC
6784725784855,8619203913439,1430001005219,ZC_IRYO,株式会社なの花北海道,なの花薬局　北１７条店,0010017,札幌市北区北17条西3丁目2番1号,011⁃717⁃1193,2023-10-23 15:00:00 UTC
3743626132200,3663740843160,5430005001887,ZC_IRYO,医療法人社団康仁会,医療法人社団　康仁会　たかさき歯科医院,0010017,札幌市北区北17条西2丁目2-16,０１１－７１６－２０３６,2023-10-23 15:00:00 UTC
4238272731941,8017856465720,9430005006362,MODIFICATION,医療法人社団　東桑会,医療法人社団東桑会　札幌北クリニック,００１００１８,札幌市北区北18条西2丁目1番10号,011-747-7157,2023-10-23 15:00:00 UTC
7688639459809,7393120399758,4430005001533,ZC_IRYO,社会医療法人　松田整形外科記念病院,松田整形外科記念病院,0010018,札幌市北区北18条西4丁目1-35,011-746-3666,2023-10-23 15:00:00 UTC
7944216516507,8271942895567,9430001053656,ZC_IRYO,北海道ファーマライズ株式会社,Ｎ１８調剤薬局,0010018,札幌市北区北18条西6丁目3-8,011-738-7720,2023-10-23 15:00:00 UTC
6784725784855,1167252460678,1430001005219,MODIFICATION,株式会社なの花北海道,なの花薬局　札幌北１８条店,0010018,札幌市北区北18条西4丁目2-17,０１１－７０８－７８５１,2023-10-23 15:00:00 UTC
7059005303727,9306280897574,5430005004163,ZC_IRYO,医療法人社団　北２０条内科クリニック,医療法人社団　北２０条内科クリニック,0010020,札幌市北区北20条西6丁目2番10号,011-758-8080,2023-10-23 15:00:00 UTC
3174673934981,8315943891712,5430005010302,ZC_IRYO,医療法人社団　札幌皮膚病理診断科,札幌皮膚病理診断科,0010021,札幌市北区北21条西4丁目2-25セゾン･ドゥ･ブランシェ北21条 1階, 011-756-4810 ,2023-10-23 15:00:00 UTC
7041846534224,7751340071430,4430005001608,ZC_IRYO,医療法人社団　心優会,医療法人社団　心優会　中江病院,0010022,札幌市北区北22条西7丁目2番1号,011-716-7181,2023-10-23 15:00:00 UTC
7420661034458,9648396921088,5430005014666,ZC_IRYO,医療法人社団成嶺会,北２４条かやの歯科クリニック,0010022,札幌市北区北22条西4丁目2-12コモド22 1F,011-708-6480,2023-10-23 15:00:00 UTC
8292113884620,9525235914748,3430005004875,ZC_IRYO,医療法人社団　リズミック産婦人科クリニック,リズミック産婦人科クリニック,００１００２２,札幌市北区北22条西5丁目1番32号,011-700-0505,2023-10-23 15:00:00 UTC
3638653495142,9073548409952,4430005013933,ZC_IRYO,医療法人社団　さっぽろＡＲＴクリニック　ｎ２４,さっぽろＡＲＴクリニック　ｎ２４,0010023,札幌市北区北23条西3丁目2番37号第2北進建鉄ビル 2階,011-792-6691,2023-10-23 15:00:00 UTC
5044574721541,9496908757957,4430005004288,ZC_IRYO,医療法人社団　えんどう小児歯科・矯正歯科医院,医療法人社団　えんどう小児歯科・矯正歯科医院,0010023,札幌市北区北23条西3丁目2番28号第一高瀬ビル3階,011⁃727⁃6480,2023-10-23 15:00:00 UTC
5585658980852,2937209194700,4030001012657,ZC_IRYO,株式会社アール,北２４条レイル薬局,0010023,札幌市北区北23条西5丁目2-31Jビル1階, 011-708-0360 ,2023-10-23 15:00:00 UTC
9037323139576,2222764056967,4430005001665,ZC_IRYO,医療法人社団　小谷内科医院,医療法人社団　小谷内科医院,0010023,札幌市北区北23条西4丁目2-33,011-736-2588,2023-10-23 15:00:00 UTC
5839529798942,9895702650509,1430005003284,MODIFICATION,医療法人社団　律英会,北２４条ターミナル歯科,0010023,札幌市北区北23条西4丁目2番1ターミナルハイツ24-313,011-727-4182,2023-10-23 15:00:00 UTC
9436126793115,6124631107134,7430001033172,ZC_IRYO,株式会社　サンクール,あしたば薬局　もえぎ店,００１００２３,札幌市北区北23条西3丁目2-28第一高瀬ビル, 011-708-1193 ,2023-10-23 15:00:00 UTC
2931958214539,6059549603215,9430001006886,ZC_IRYO,株式会社　佐野薬局,株式会社　佐野薬局　さの薬局,0010023,札幌市北区北23条西4丁目2番13号,011-756-7788,2023-10-23 15:00:00 UTC
8366612284961,9503075499864,6430001011030,ZC_IRYO,有限会社フォーサイト,りんご調剤薬局　北２３条店,0010023,札幌市北区北23条西7丁目1番15号,011-776-7170,2023-10-23 15:00:00 UTC
5060182386095,4511204171085,6021005003294,ZC_IRYO,医療法人社団　立靖会,ラビット歯科,0010024,札幌市北区北24条西4丁目1-21モンレーブ24 4F,011-708-1080,2023-10-23 15:00:00 UTC
9402858008971,9499672434063,3430005004974,MODIFICATION,医療法人社団　おがさわら耳鼻咽喉科クリニック,医療法人社団　おがさわら耳鼻咽喉科クリニック,0010024,札幌市北区北24条西14丁目3-8北24条通メディカルプレイス3階,011-747-3387,2023-10-23 15:00:00 UTC
1503255697722,8213074286622,9430001007117,ZC_IRYO,ジェイ・メディックス株式会社,ペンギン保険薬局新川店,0010024,札幌市北区北24条西14丁目3番5号,011-708-8550,2023-10-23 15:00:00 UTC
4928513060606,9623097443295,6430005003726,ZC_IRYO,医療法人社団白水会,医療法人社団白水会　はくすい歯カ,0010024,札幌市北区北24条西14丁目3-8北24条通メディカルプレイス1F,011-717-8211,2023-10-23 15:00:00 UTC
7811369884673,1204334794143,8430005003220,ZC_IRYO,医療法人社団　和仁会,医療法人社団　和仁会　平田内科クリニック,0010024,札幌市北区北24条西14丁目3番15号,011-756-2220,2023-10-23 15:00:00 UTC
4182265614797,5235627885303,9430005010315,ZC_IRYO,医療法人社団　くすのきこどもクリニック,くすのきこどもクリニック,0010024,札幌市北区北24条西14丁目3番8号北24条通メディカルプレイスビル2階,011-717-0415,2023-10-23 15:00:00 UTC
5947223602909,1754595186398,2430005002046,ZC_IRYO,医療法人社団メモリアル会,医療法人社団メモリアル会　メモリアル歯科,0010024,札幌市北区北24条西2丁目3番26,011-746-2311,2023-10-23 15:00:00 UTC
5839529798942,2915678804724,1430005003284,ZC_IRYO,医療法人社団律英会,医療法人社団律英会　鈴木歯科クリニック,0010024,札幌市北区北24条西4丁目1-6鈴木ビル2F,011-758-4182,2023-10-23 15:00:00 UTC
9341872011798,9837637395442,5430005003990,ZC_IRYO,医療法人社団　眞明会　今医院,医療法人社団　眞明会　今医院,0010025,札幌市北区北25条西8丁目2番3号,011-716-9255,2023-10-23 15:00:00 UTC
9436126793115,5975179954194,7430001033172,ZC_IRYO,株式会社　サンクール,あしたば薬局北２５条店,0010025,札幌市北区北25条西8丁目2番24号,011⁃707⁃4193,2023-10-23 15:00:00 UTC
7967210336506,3249925812702,1430001074362,ZC_IRYO,ポポヤクコーポレーション株式会社,ピリカ北２５条薬局,0010025,札幌市北区北25条西8丁目1-3,011-708-8515,2023-10-23 15:00:00 UTC
1921451461792,4728242528033,2430001002710,ZC_IRYO,株式会社メディプラン,みらくる薬局　北２５条アトム店,0010025,札幌市北区北25条西5丁目1番3号リーブル25 1階,011-756-5553,2023-10-23 15:00:00 UTC
2810250700852,1837354678079,5430005001697,ZC_IRYO,医療法人社団クローバー歯科,医療法人社団　クローバー歯科,0010025,札幌市北区北25条西5丁目1番18号,011-758-5580,2023-10-23 15:00:00 UTC
7020973913392,3138838089354,3430005001872,MODIFICATION,医療法人社団　さとう小児科医院,医療法人社団　さとう小児科医院,0010025,札幌市北区北25条西5丁目1番1号, 011-756-5007 ,2023-10-23 15:00:00 UTC
6186396906205,2785392890870,1460105000385,ZC_IRYO,医療法人社団　北馬会　たくまファミリー歯科,医療法人社団　北馬会　たくまファミリー歯科,0010025,札幌市北区北25条西4丁目2番5号マックスバリュ北店2F,０１１－７０８－１０００,2023-10-23 15:00:00 UTC
9809550372953,4311979471247,6430005014137,ZC_IRYO,医療法人社団　あいさに,北２５条メンタルクリニックあいさに,0010025,札幌市北区北25条西5丁目1番3号リーブル25 1階,011-756-2505,2023-10-23 15:00:00 UTC
3766576701244,4376855882088,3430002015413,ZC_IRYO,有限会社　野津商店,ケミスト・イン相談薬局,0010025,札幌市北区北25条西8丁目1番17号,011-700-6711,2023-10-23 15:00:00 UTC
2765371095767,1264815445414,1430002044835,ZC_IRYO,有限会社　メディカルライフ,あおい調剤薬局,0010027,札幌市北区北27条西5丁目1-28,011-708-1755,2023-10-23 15:00:00 UTC
8668125349633,6590968810453,4430005006210,ZC_IRYO,医療法人社団　ちはる神経内科クリニック,医療法人社団　ちはる神経内科クリニック,0010027,札幌市北区北27条西5丁目1-28エフテービル4F,011-737-8080,2023-10-23 15:00:00 UTC
5485964685010,2606130346346,9430005004886,ZC_IRYO,医療法人社団　中野整形北クリニック,医療法人社団　中野整形北クリニック,0010027,札幌市北区北27条西5丁目1番28号,011-736-4002,2023-10-23 15:00:00 UTC
1302446948778,5049965247240,9430005011296,MODIFICATION,医療法人社団　緑友会,わたなべ歯科クリニック,0010027,札幌市北区北27条西5丁目1番28号エフテービル5F,011-757-4618,2023-10-23 15:00:00 UTC
3090186072767,8780551204837,2430002006859,ZC_IRYO,有限会社　クリニカル調剤薬局,北２８条調剤薬局,0010028,札幌市北区北28条西5丁目1-14,011-738-2110,2023-10-23 15:00:00 UTC
7145240423025,7672897725503,5430005001680,ZC_IRYO,医療法人社団　小林内科小児科医院,医療法人社団　小林内科小児科医院,００１００２８,札幌市北区北28条西5丁目2番16号,011-716-8531,2023-10-23 15:00:00 UTC
9137293009182,6598801504916,5430005001813,ZC_IRYO,医療法人社団　新川眼科,医療法人社団　北孔会　新川眼科,0010028,札幌市北区北28条西15丁目2番地17号,011-726-1010,2023-10-23 15:00:00 UTC
8681223633840,6292119912361,8120001082605,ZC_IRYO,株式会社ココカラファインヘルスケア,ココカラファイン薬局北２８条店,００１００２８,札幌市北区北28条西13丁目1番35号,011-214-0745,2023-10-23 15:00:00 UTC
7000231042017,3842221427699,3430005004149,ZC_IRYO,医療法人社団　昇英会,医療法人社団昇英会整形外科新川駅いとがクリニック,0010029,札幌市北区北29条西15丁目3番8号,011⁃716⁃1117,2023-10-23 15:00:00 UTC
9557642935822,7062474513322,8430005002024,ZC_IRYO,医療法人社団　北昂会　ファミール内科,総合診療クリニック,0010029,札幌市北区北29条西4丁目2番1-158,011-746-3988,2023-10-23 15:00:00 UTC
5636475877384,8114015423846,7430001023669,ZC_IRYO,株式会社そえる,北日本調剤　北２９条薬局,0010029,札幌市北区北29条西15丁目844-7,011-708-8820,2023-10-23 15:00:00 UTC
9557642935822,8810692205720,8430005002024,ZC_IRYO,医療法人社団北昂会ファミール内科,小石川クリニック,００１００２９,札幌市北区北29条西4丁目2番1-116,011-398-3947,2023-10-23 15:00:00 UTC
1732163894342,5739421921389,8440001005186,ZC_IRYO,シャンティメディカル株式会社,あおぞら薬局　新川店,００１００２９,札幌市北区北29条西15丁目3-14,011-792-1972,2023-10-23 15:00:00 UTC
7566868519775,7362495062234,3430005002020,MODIFICATION,社会医療法人　北腎会,社会医療法人北腎会　脳神経・放射線科クリニック,0010030,札幌市北区北30条西14丁目2番地11号,011-709-1717,2023-10-23 15:00:00 UTC
7566868519775,1156456424137,3430005002020,ZC_IRYO,社会医療法人　北腎会,社会医療法人　北腎会　坂泌尿器科新川クリニック,0010030,札幌市北区北30条西14丁目3番1号,011-790-8002,2023-10-23 15:00:00 UTC
9656587923302,9329152297804,4430005011870,ZC_IRYO,医療法人社団　かむかむ歯科,医療法人社団　かむかむ歯科,0010032,札幌市北区北32条西13丁目1番1号 マックスバリュ北32条店2F,011-706-0900,2023-10-23 15:00:00 UTC
1980011822735,7218708621728,6430005002050,ZC_IRYO,医療法人社団明雄会,医療法人社団明雄会　ロピア歯科,0010032,札幌市北区北32条西10丁目1番1号,011-726-6480,2023-10-23 15:00:00 UTC
9507201504084,3197405516368,3430005001526,MODIFICATION,社会医療法人　北楡会,社会医療法人　北楡会　開成病院,0010033,札幌市北区北33条西6丁目2番35号,011-757-2201,2023-10-23 15:00:00 UTC
9360435141437,2459203535975,2430005005247,ZC_IRYO,医療法人社団　こうじ歯科クリニック,医療法人社団　こうじ歯科クリニック,0010033,札幌市北区北33条西4丁目279番地1北34条ターミナルハイツ1階,011⁃756⁃4618,2023-10-23 15:00:00 UTC
9318608318842,2999097813288,4430005014139,ZC_IRYO,医療法人社団　にじいろ会,南麻生にじいろ歯科クリニック,0010034,札幌市北区北34条西5丁目2番1号ST34 2階,011-736-5530,2023-10-23 15:00:00 UTC
8379875540775,4108840699499,3430005013257,ZC_IRYO,医療法人幸輪会,医療法人　幸輪会　麻生ハピネス歯科クリニック,0010037,札幌市北区北37条西8丁目3番13号前田ビル1階,０１１－７５６－６３２２,2023-10-23 15:00:00 UTC
7015184973727,3036098635486,7430001027983,ZC_IRYO,株式会社ナカジマ薬局,ナカジマ薬局　北３７条店,0010037,札幌市北区北37条西3丁目3-8,011-594-8750,2023-10-23 15:00:00 UTC
6455693973674,8642751630450,6430005014129,ZC_IRYO,医療法人新楓和会,あさぶハート・心リハクリニック,0010037,札幌市北区北37条西3丁目3番12号, 011-792-0222 ,2023-10-23 15:00:00 UTC
4028989722064,4690768088184,1430005005347,ZC_IRYO,医療法人　訪友会,医療法人　訪友会　さっぽろ在宅医療クリニック,0010037,札幌市北区北37条西4丁目2-6マンションブリッジ麻生橋元ビル1階,011-708-3330,2023-10-23 15:00:00 UTC
6455693973674,8642751630450,6430005014129,ZC_IRYO,医療法人新楓和会,あさぶハート・デンタルクリニック,0010037,札幌市北区北37条西3丁目3番12号,011-792-1530,2023-10-23 15:00:00 UTC
8832215420961,3068204672299,9430005004861,ZC_IRYO,医療法人社団　慈生会,小林内科クリニック,0010038,札幌市北区北38条西2丁目2番17号,０１１－７０９－５８８５,2023-10-23 15:00:00 UTC
8038820013270,7713547855696,,ZC_IRYO,医療法人社団　北つむぎ会　さっぽろ麻生乳腺甲状腺クリニック,医療法人社団北つむぎ会　さっぽろ麻生乳腺甲状腺クリニック,0010038,札幌市北区北38条西8丁目2-3,０１１－７０９－３７００,2023-10-23 15:00:00 UTC
4137909947970,6126327732927,7430001020476,ZC_IRYO,札幌臨床検査センター株式会社,ノルデン薬局　麻生店,0010038,札幌市北区北38条西8丁目2番1号,011-706-1211,2023-10-23 15:00:00 UTC
6505677288923,1171285539668,9430005003228,MODIFICATION,医療法人社団　さっぽろ麻生メンタルクリニック,医療法人社団　さっぽろ麻生メンタルクリニック,0010039,札幌市北区北39条西5丁目1番15号北電商販サトウビル4階,011⁃737⁃8676,2023-10-23 15:00:00 UTC
1370777600205,5357607473146,2430005001601,MODIFICATION,医療法人社団　麻生内科クリニック,医療法人社団　麻生内科クリニック,0010039,札幌市北区北39条西5丁目1番15号北電商販サトウビル3階,011-756-5733,2023-10-23 15:00:00 UTC
3614697067547,2774482079576,3430001028663,ZC_IRYO,コアファルマ株式会社,コア薬局　麻生店,0010039,札幌市北区北39条西5丁目1番15号北電商販サトウビル1階,011-756-1665,2023-10-23 15:00:00 UTC
5953086898609,6329084102943,5430005003900,ZC_IRYO,医療法人社団　ささもと眼科クリニック,医療法人社団　ささもと眼科クリニック,0010039,札幌市北区北39条西5丁目1番15号北電商販サトウビル2F,011-700-6661,2023-10-23 15:00:00 UTC
1961166727298,2448250724059,5430005010665,ZC_IRYO,医療法人社団　麻生形成外科クリニック,医療法人社団　麻生形成外科クリニック,0010040,札幌市北区北40条西4丁目2番1号麻生メディカルビル 5階,011-700-3636,2023-10-23 15:00:00 UTC
3845218175899,7073233545705,7430005006224,ZC_IRYO,医療法人社団麻生矯正歯科,医療法人社団　麻生矯正歯科,0010040,札幌市北区北40条西4丁目2番10号麻生パステルセトビル3階,011-726-7377,2023-10-23 15:00:00 UTC
6467387484032,3974965458933,7430001069398,ZC_IRYO,株式会社アインファーマシーズ,アイン薬局麻生店,0010040,札幌市北区北40条西4丁目2番15号東光ストア麻生店内1階,011-717-7180,2023-10-23 15:00:00 UTC
6455693973674,7850777431001,6430005014129,ZC_IRYO,医療法人新楓和会,あさぶハート・内科クリニック,0010040,札幌市北区北40条西4丁目1番1号ASABULAND 1階,011-374-7667,2023-10-23 15:00:00 UTC
1568104066679,8153741656011,8430005001703,ZC_IRYO,医療法人社団　恒仁会,医療法人社団恒仁会　あさぶ小児科,0010040,札幌市北区北40条西4丁目2番15号東光ストア麻生店2階,011-717-3111,2023-10-23 15:00:00 UTC
7816286784310,6215480472171,8430005001554,ZC_IRYO,医療法人社団　及川皮膚科医院,医療法人社団　及川皮膚科医院,0010040,札幌市北区北40条西4丁目325番8号麻生メディカルビル3階,011-746-2566,2023-10-23 15:00:00 UTC
6071322783546,2556534007401,9010001064753,ZC_IRYO,日本調剤　株式会社,日本調剤　麻生薬局,0010040,札幌市北区北40条西4丁目2番1号,011-746-2241,2023-10-23 15:00:00 UTC
1921451461792,8574212528015,2430001002710,ZC_IRYO,株式会社メディプラン,みらくる薬局　麻生駅前店,0010040,札幌市北区北40条西4丁目1-1ASABU LAND 1階,011-768-8444,2023-10-23 15:00:00 UTC
6764311720514,5836683455415,4430005006359,ZC_IRYO,医療法人社団　ちぇりこ会,医療法人社団ちぇりこ会　麻生レディースクリニック,0010040,札幌市北区北40条西4丁目2番20号麻生むらもとビル2階,011-747-8688,2023-10-23 15:00:00 UTC
5574216522185,7234417500624,5430005004535,ZC_IRYO,医療法人社団　よこやま矯正歯科,医療法人社団　よこやま矯正歯科,0010045,札幌市北区麻生町4丁目12番8号アルファ麻生ビル7F,011-707-8020,2023-10-23 15:00:00 UTC
7785048948385,6378425433723,3430001033985,MODIFICATION,株式会社　Ｙ＆Ａ,麻生ポプラ薬局,0010045,札幌市北区麻生町6丁目14-5,０１１－７３７－７１０１,2023-10-23 15:00:00 UTC
7189153469426,8455532999935,4430005001566,ZC_IRYO,医療法人社団　岩寺小児歯科医院,医療法人社団　岩寺小児歯科医院,0010045,札幌市北区麻生町2丁目4番5号,011-758-7736,2023-10-23 15:00:00 UTC
4691696268891,1706831959525,7430005004723,ZC_IRYO,医療法人社団　エナ麻生ＡＲＴクリニック,医療法人社団　エナ麻生ＡＲＴクリニック,0010045,札幌市北区麻生町2丁目2番7号中川ビル2階,011-792-8850,2023-10-23 15:00:00 UTC
7736174419484,8445483215370,1430001010672,MODIFICATION,株式会社ツルハ,調剤薬局ツルハドラッグ新琴似１条店,0010901,札幌市北区新琴似1条7丁目9番35号,011-769-7268,2023-10-23 15:00:00 UTC
6790670309482,3162984856516,1430005004877,ZC_IRYO,医療法人　スポキチ,スポキチクリニック,００１０９０１,札幌市北区新琴似1条12丁目6番3号,011⁃788⁃3210,2023-10-23 15:00:00 UTC
2966629495563,5881405573022,3430005011715,ZC_IRYO,医療法人社団どい内科クリニック,どい内科クリニック,００１０９０１,札幌市北区新琴似1条3丁目3番13号,011-769-1200,2023-10-23 15:00:00 UTC
2957960451874,6089318759764,6430005001639,ZC_IRYO,医療法人社団憲仁会　牧田病院,医療法人社団憲仁会　牧田病院,0010901,札幌市北区新琴似1条2丁目6番25号,011-761-4835,2023-10-23 15:00:00 UTC
2116965908116,8178063331739,2430005014561,ZC_IRYO,医療法人芳正会,新琴似もとやま眼科,0010901,札幌市北区新琴似1条12丁目6番1号,011-769-0363,2023-10-23 15:00:00 UTC
9679828467454,3807720185930,5430005001573,ZC_IRYO,医療法人社団　池田内科,医療法人社団　池田内科,0010901,札幌市北区新琴似1条13丁目1番7号,011-764-8833,2023-10-23 15:00:00 UTC
6905034931801,6051358997731,7430005004459,ZC_IRYO,医療法人緑風会　新琴似皮膚科スキンケアクリニック,医療法人緑風会　新琴似皮膚科スキンケアクリニック,0010901,札幌市北区新琴似1条12丁目6番38号, 011-766-4512 ,2023-10-23 15:00:00 UTC
7296379277292,6957492645931,6430002016136,MODIFICATION,有限会社　はるにれ企画,はるにれ薬局,0010901,札幌市北区新琴似1条2丁目10番15号,011-765-4693,2023-10-23 15:00:00 UTC
6784725784855,8859605280480,1430001005219,ZC_IRYO,株式会社なの花北海道,なの花薬局　新琴似１番通店,0010901,札幌市北区新琴似1条12丁目6番37号,011-764-1193,2023-10-23 15:00:00 UTC
4126638590785,8656644656892,1430001027196,ZC_IRYO,有限会社　キタ調剤薬局,キタ調剤薬局　新琴似店,0010901,札幌市北区新琴似1条3丁目3-13,011-765-1700,2023-10-23 15:00:00 UTC
9553129813632,1136244232793,,ZC_IRYO,医療法人社団　千仁会,医療法人社団千仁会　北海道大志歯科クリニック,0010901,札幌市北区新琴似1条7丁目9番64号,011-766-6551,2023-10-23 15:00:00 UTC
6784725784855,7599998216297,1430001005219,MODIFICATION,株式会社なの花北海道,なの花薬局　新琴似店,0010902,札幌市北区新琴似2条11丁目7-5,011-768-5103,2023-10-23 15:00:00 UTC
7015184973727,9992067494557,7430001027983,ZC_IRYO,株式会社ナカジマ薬局,ナカジマ薬局　新琴似店,0010902,札幌市北区新琴似2条1丁目1-51,011-374-6771,2023-10-23 15:00:00 UTC
4348522985061,9994262651286,1430005011097,ZC_IRYO,医療法人社団　真幸会,医療法人社団真幸会　ユアデンタルオフィス,0010902,札幌市北区新琴似2条10丁目1-10,011⁃761⁃3000,2023-10-23 15:00:00 UTC
3399184512456,2400323067804,2430005014660,ZC_IRYO,医療法人社団千陽,医療法人社団千陽　こんの内科・消化器内科クリニック,0010902,札幌市北区新琴似2条1丁目1番52号,011-299-4107,2023-10-23 15:00:00 UTC
2531176561086,4195367201927,8430005011074,MODIFICATION,医療法人社団望悠会,新川耳鼻咽喉科,0010902,札幌市北区新琴似2条11丁目7-1,011-765-3387,2023-10-23 15:00:00 UTC
6094326086974,7223528657409,3430005001451,ZC_IRYO,医療法人　研成会,医療法人　研成会　札幌鈴木病院,0010903,札幌市北区新琴似3条1丁目1番27号,011-709-5511,2023-10-23 15:00:00 UTC
8950673655601,6679177219654,2430005001576,ZC_IRYO,医療法人社団　阿部内科医院,医療法人社団　阿部内科医院,0010903,札幌市北区新琴似3条11丁目7番24号,011-761-2395,2023-10-23 15:00:00 UTC
4875128486073,4771693157175,1430001027964,ZC_IRYO,株式会社オストジャパングループ,ききょう調剤薬局,0010904,札幌市北区新琴似4条1丁目1番43号ユー･エフ･ティビル1階,011⁃708⁃7799,2023-10-23 15:00:00 UTC
6612500567214,8663929547335,9460105002044,ZC_IRYO,医療法人社団　航慎会,北区しんた歯科,0010905,札幌市北区新琴似5条7丁目1-13シャルムあをき新琴似1階,011-766-1818,2023-10-23 15:00:00 UTC
4137909947970,8142196661426,7430001020476,ZC_IRYO,札幌臨床検査センター株式会社,ノルデン薬局　新琴似店,0010906,札幌市北区新琴似6条17丁目7-18,011-769-5411,2023-10-23 15:00:00 UTC
6784725784855,5587284064975,1430001005219,ZC_IRYO,株式会社なの花北海道,なの花薬局　新琴似６条店,0010906,札幌市北区新琴似6条14丁目1番19号,011-769-5180,2023-10-23 15:00:00 UTC
2922417776135,4751228892761,1430005004951,ZC_IRYO,医療法人社団北匠会,医療法人社団北匠会　札幌北脳神経外科,0010906,札幌市北区新琴似6条17丁目7番10号,011-766-1212,2023-10-23 15:00:00 UTC
3090186072767,8303914023136,2430002006859,ZC_IRYO,有限会社　クリニカル調剤薬局,新琴似四番通調剤薬局,0010907,札幌市北区新琴似7条9丁目6-24恵ハイム1F,011-765-2110,2023-10-23 15:00:00 UTC
7736174419484,5973771949563,1430001010672,ZC_IRYO,株式会社ツルハ,調剤薬局ツルハドラッグ新琴似７条店,0010907,札幌市北区新琴似7条6丁目2番1号,011-769-3268,2023-10-23 15:00:00 UTC
1503255697722,7221967126490,9430001007117,MODIFICATION,ジェイ・メディックス株式会社,ペンギン保険薬局　７条店,0010907,札幌市北区新琴似7条14丁目4番20号フロンティア714 1階,０１１－７６５－５５５１,2023-10-23 15:00:00 UTC
8412454197398,7703807072513,8430005004945,ZC_IRYO,医療法人社団　おおさき内科,医療法人社団　おおさき内科,0010907,札幌市北区新琴似7条9丁目6番21号,011⁃766⁃0666,2023-10-23 15:00:00 UTC
7707301242135,5414576349804,6430005001738,ZC_IRYO,医療法人社団　杉山歯科医院,医療法人社団　杉山歯科医院,0010907,札幌市北区新琴似7条6丁目5番21号,011-761-0195,2023-10-23 15:00:00 UTC
5733680186675,4642844474772,4430005001987,ZC_IRYO,医療法人社団　布施川内科医院,医療法人社団　布施川内科医院,0010907,札幌市北区新琴似7条14丁目4番23号,011-764-2411,2023-10-23 15:00:00 UTC
5230223128722,7660769819116,3430005001435,ZC_IRYO,医療法人　麻生整形外科病院,医療法人　麻生整形外科病院,0010908,札幌市北区新琴似8条2丁目2番5号,011-764-3311,2023-10-23 15:00:00 UTC
4187239357400,2316134465625,9430002034036,ZC_IRYO,有限会社　つかさ,ペンギン保険薬局,0010908,札幌市北区新琴似8条6丁目1番3号新琴似横井ビル1F,011-765-3550,2023-10-23 15:00:00 UTC
5454337238682,3310136627957,8430005001802,ZC_IRYO,医療法人社団秀英会,医療法人社団秀英会　こばやし歯科医院,0010908,札幌市北区新琴似8条9丁目2番1号,011-764-6000,2023-10-23 15:00:00 UTC
9079580702215,3188685790395,,MODIFICATION,ジェイ・メディックス株式会社,ペンギン保険薬局　麻生店,0010908,札幌市北区新琴似8条3丁目1番2号沢田ビル1階, 011-765-6300 ,2023-10-23 15:00:00 UTC
9678833003010,4428901146176,8430005001810,ZC_IRYO,医療法人社団　佐野耳鼻咽喉科,医療法人社団　佐野耳鼻咽喉科,0010908,札幌市北区新琴似8条6丁目5番10号竹内メディカルビル 2階,011⁃763⁃3387,2023-10-23 15:00:00 UTC
6943528497228,4868761818319,9430005001867,ZC_IRYO,医療法人社団　天祐会,医療法人社団　天祐会　新琴似四番通り歯科,0010908,札幌市北区新琴似8条13丁目2番9号,011-765-4618,2023-10-23 15:00:00 UTC
6437832720252,9558642635556,6430002001947,ZC_IRYO,有限会社　イチミヤ薬局,イチミヤ薬局,0010908,札幌市北区新琴似8条1丁目1番38号,011-716-4660,2023-10-23 15:00:00 UTC
7647648266385,9047553285550,6430005004939,ZC_IRYO,医療法人社団　横山医院,医療法人社団　横山医院,００１０９０８,札幌市北区新琴似8条13丁目1番4号,011-761-2484,2023-10-23 15:00:00 UTC
6709525684799,8913152518161,6430005001746,ZC_IRYO,医療法人社団　清水歯科クリニック,医療法人社団　清水歯科クリニック,0010908,札幌市北区新琴似8条2丁目1番13号,０１１－７６１－７２１１,2023-10-23 15:00:00 UTC
3012935685979,2731105053652,4430005001574,ZC_IRYO,医療法人社団　小野眼科医院,医療法人社団　小野眼科医院,0010908,札幌市北区新琴似8条11丁目2番7号,011-764-1818,2023-10-23 15:00:00 UTC
6467387484032,1427894586567,7430001069398,ZC_IRYO,株式会社アインファーマシーズ,アイン薬局　新琴似店,００１０９０８,札幌市北区新琴似8条13丁目1番7号,011-763-5151,2023-10-23 15:00:00 UTC
1629750426852,6606761652460,2430002000283,ZC_IRYO,有限会社　アート調剤薬局,アート調剤薬局,0010908,札幌市北区新琴似8条6丁目5番10号,０１１－７６４－７６４１,2023-10-23 15:00:00 UTC
9853003999603,9088381750647,3430005001823,ZC_IRYO,医療法人社団　新琴似内科クリニック,医療法人社団　新琴似内科クリニック,0010908,札幌市北区新琴似8条6丁目1番1号,011-761-1076,2023-10-23 15:00:00 UTC
2673603342751,3611144819725,9430005001677,ZC_IRYO,医療法人社団　北札幌病院,医療法人社団　北札幌病院,0010909,札幌市北区新琴似9条1丁目1番1号,011-756-1111,2023-10-23 15:00:00 UTC
2675162447317,6442827571298,5430005001945,MODIFICATION,医療法人社団　中條歯科医院,医療法人社団　中條歯科医院,0010909,札幌市北区新琴似9条11丁目11番15号,011-761-2115,2023-10-23 15:00:00 UTC
7424579951348,5331146235917,2430001022428,MODIFICATION,株式会社　北海道保健企画,北区ひまわり薬局,0010910,札幌市北区新琴似10条2丁目1番10号, 011-768-2301 ,2023-10-23 15:00:00 UTC
1949914410986,5348022490042,3430005010758,ZC_IRYO,公益社団法人　北海道勤労者医療協会,勤医協札幌北区ぽぷらクリニック,0010910,札幌市北区新琴似10,011-762-8811,2023-10-23 15:00:00 UTC
8551122887773,5497988351893,4430005004453,ZC_IRYO,医療法人　北海道勤労者歯科医療協会,勤医協きたく歯科診療所,００１０９１０,札幌市北区新琴似10条2丁目4番9号,011-762-8211,2023-10-23 15:00:00 UTC
6072833385201,6596279205433,3430005014131,ZC_IRYO,医療法人　地域包括歯科医療センター,ふれあいの杜歯科・こども歯科,0010910,札幌市北区新琴似10条14丁目12番15号,011-764-8366,2023-10-23 15:00:00 UTC
8802189478393,9349408144851,5430001035740,ZC_IRYO,株式会社　久保ファーマシー,えくぼ調剤薬局,0010910,札幌市北区新琴似10条8丁目2番11号,011-765-7235,2023-10-23 15:00:00 UTC
4482500922038,9363266311766,2430005001477,ZC_IRYO,医療法人　杉歯科医院,医療法人杉歯科医院　新琴似歯科クリニック,0010910,札幌市北区新琴似10条2丁目1番10号, 011-766-6480 ,2023-10-23 15:00:00 UTC
5495256771974,2172571686866,8430005002008,ZC_IRYO,医療法人社団　早川整形外科医院,医療法人社団　早川整形外科医院,0010911,札幌市北区新琴似11条13丁目6番6号,011-765-5660,2023-10-23 15:00:00 UTC
8959189149561,7385371711189,1120005005403,ZC_IRYO,医療法人徳洲会,医療法人徳洲会　べテル泌尿器科クリニック,0010911,札幌市北区新琴似11条17丁目1-33,011-769-8801,2023-10-23 15:00:00 UTC
8438675520788,2387238053749,6430005001762,ZC_IRYO,医療法人社団さとう歯科クリニック,医療法人社団　さとう歯科クリニック,0010912,札幌市北区新琴似12条10丁目2番1号, 011-761-1213 ,2023-10-23 15:00:00 UTC
1921451461792,2693310269780,2430001002710,ZC_IRYO,株式会社メディプラン,みらくる薬局　新川２条店,0010922,札幌市北区新川2条1丁目1番22号,０１１－７００－３９１１,2023-10-23 15:00:00 UTC
5359462907848,7641214290692,2430005012235,ZC_IRYO,医療法人社団　ＳＣＭ,新川中央眼科,0010923,札幌市北区新川3条7丁目1番64号,011-769-1010,2023-10-23 15:00:00 UTC
6547338900707,9203708183063,4430005012613,ZC_IRYO,医療法人社団　建志会,おひげの先生歯科クリニック,0010923,札幌市北区新川3条4丁目1番3号,011-761-4618,2023-10-23 15:00:00 UTC
6096990947319,7242614137310,7430005004153,ZC_IRYO,医療法人アパンド,医療法人アパンド　みみ・はな・のど横浜クリニック,0010923,札幌市北区新川3条7丁目1番3号,011-765-4580,2023-10-23 15:00:00 UTC
1417854174890,2457422219653,2430005006204,ZC_IRYO,医療法人社団　新川ファミリエ内科,医療法人社団　新川ファミリエ内科,００１０９２３,札幌市北区新川3条7丁目1-10-1,011-763-8118,2023-10-23 15:00:00 UTC
9442945652061,8454722702114,6430002055720,MODIFICATION,メディカルファイブ株式会社,クローバー薬局新川店,0010923,札幌市北区新川3条10丁目2-6,011-788-7725,2023-10-23 15:00:00 UTC
1491358272121,9104959762237,9430002039217,ZC_IRYO,株式会社ヒロム,新川中央薬局,0010923,札幌市北区新川3条7丁目1-65DAICHOメディカル･プラザ1階, 011-299-3806 ,2023-10-23 15:00:00 UTC
6571237259913,3118340614244,6430002039938,ZC_IRYO,有限会社　ＬＩＦＥーＬＩＮＫ,しろくま調剤薬局,0010923,札幌市北区新川3条7丁目1番1号,011-769-8711,2023-10-23 15:00:00 UTC
6784725784855,8170254981140,1430001005219,MODIFICATION,株式会社なの花北海道,なの花薬局　札幌新川店,0010924,札幌市北区新川4条10丁目6番8号,011-764-2223,2023-10-23 15:00:00 UTC
1921451461792,7676903501079,2430001002710,ZC_IRYO,株式会社メディプラン,みらくる薬局　新川駅前店,００１０９２４,札幌市北区新川4条1丁目3番3号ecoa新川クリニックモール1階, 011-729-8000 ,2023-10-23 15:00:00 UTC
6016615793717,9918746806729,7430005004533,ZC_IRYO,医療法人新産健会,医療法人新産健会　きた在宅クリニック,0010924,札幌市北区新川4条11丁目1番27号,011-763-1111,2023-10-23 15:00:00 UTC
7627381133371,8747798432523,1430005001577,ZC_IRYO,医療法人社団英山会,医療法人社団英山会　さわだ歯科,0010924,札幌市北区新川4条11丁目8番16,011-764-2323,2023-10-23 15:00:00 UTC
5560796196956,5292350370038,5430005014121,ZC_IRYO,医療法人祥仁会,新川まえだ眼科,0010924,札幌市北区新川4条1丁目3番3号ecoa新川クリニックモール2階,011-700-2233,2023-10-23 15:00:00 UTC
6590691700331,1530287715107,3430005001889,ZC_IRYO,医療法人社団　中鉢小児クリニック,医療法人社団　中鉢小児クリニック,００１０９２４,札幌市北区新川4条10丁目7番13号,０１１－７６４－１１１８,2023-10-23 15:00:00 UTC
4137909947970,8081699406666,7430001020476,ZC_IRYO,札幌臨床検査センター株式会社,ノルデン薬局　新川店,0010925,札幌市北区新川5条1丁目471-18,011-738-9511,2023-10-23 15:00:00 UTC
6970590452073,5460135460111,4430005004874,ZC_IRYO,医療法人社団　札幌新川駅前内科,医療法人社団　札幌新川駅前内科,0010925,札幌市北区新川5条1丁目1番22号,011-708-1234,2023-10-23 15:00:00 UTC
4366404455806,5694334586457,8430005001513,ZC_IRYO,医療法人　新川新道整形外科病院,医療法人　新川新道整形外科病院,0010925,札幌市北区新川5条4丁目2番8号,011-763-0110,2023-10-23 15:00:00 UTC
2135846273133,3430015725793,3430005013752,ZC_IRYO,医療法人　暖和会,新川駅前みんなの耳鼻咽喉科,0010925,札幌市北区新川5条1丁目1番1号,011-700-3070,2023-10-23 15:00:00 UTC
9542535301594,3604843461394,,ZC_IRYO,医療法人社団千仁会,医療法人社団千仁会　新川駅前歯科クリニック,0010925,札幌市北区新川5条1丁目1番22号新川駅前メディカルビル3F,011-726-6551,2023-10-23 15:00:00 UTC
3767651620533,2814097471996,5430005004080,ZC_IRYO,医療法人社団　遼風会,医療法人社団　遼風会　札幌新川整形外科,0010926,札幌市北区新川6条14丁目7番1号,011-761-1187,2023-10-23 15:00:00 UTC
8759874917644,1945202536362,6010401088941,ZC_IRYO,クオール株式会社,だいまる薬局新川店,0010928,札幌市北区新川8条17丁目769番地8,011-768-5323,2023-10-23 15:00:00 UTC
8157856510205,4878790170446,9430005001958,ZC_IRYO,特定医療法人　朋友会,特定医療法人　朋友会　石金病院,0010930,札幌市北区新川714番地2,011-762-4111,2023-10-23 15:00:00 UTC
9932237346296,1188704271560,9430001020202,ZC_IRYO,株式会社　サッポロドラッグストアー,サツドラ薬局　新川店,0010930,札幌市北区新川743-1,011-768-3361,2023-10-23 15:00:00 UTC
6072930441414,1269367403243,5430005001540,MODIFICATION,社会医療法人延山会,社会医療法人延山会北成病院,0010933,札幌市北区新川西3条2丁目10番1号,011-764-3021,2023-10-23 15:00:00 UTC
5842987899647,6932121248661,3430005001658,ZC_IRYO,医療法人社団　こすげ内科医院,医療法人社団　こすげ内科医院,0020852,札幌市北区屯田2条3丁目8番10号,011⁃771⁃6101,2023-10-23 15:00:00 UTC
1057007060414,3815630087119,7430005001877,MODIFICATION,医療法人社団　たちばなこどもクリニック,医療法人社団　たちばなこどもクリニック,0020854,札幌市北区屯田4条1丁目7-10,011-773-7377,2023-10-23 15:00:00 UTC
5692832848084,5656646175113,4430005001995,ZC_IRYO,医療法人社団　ふるや内科,医療法人社団　ふるや内科,0020854,札幌市北区屯田4条3丁目2番10号,011-771-2211,2023-10-23 15:00:00 UTC
2779578024128,3278041553350,3430005001864,ZC_IRYO,医療法人社団高瀬歯科医院,医療法人社団　高瀬歯科医院,0020854,札幌市北区屯田4条4丁目6番17号,011-772-1181,2023-10-23 15:00:00 UTC
6104295863872,9497276105697,,ZC_IRYO,有限会社　パルトナ,フォーラム薬局,0020855,札幌市北区屯田5条2丁目2番1号,011-773-9300,2023-10-23 15:00:00 UTC
5522549682231,2645380167175,8430005014135,ZC_IRYO,医療法人社団　厚寿会　大浦歯科クリニック,医療法人社団　厚寿会　大浦歯科クリニック,0020855,札幌市北区屯田5条7丁目1番71号,011-374-8828,2023-10-23 15:00:00 UTC
2521370789595,1621085331722,5430005003561,ZC_IRYO,医療法人社団　千仁会,医療法人社団千仁会　ちだ歯科クリニック,0020855,札幌市北区屯田5条10丁目8番1号,011-774-6551,2023-10-23 15:00:00 UTC
1921451461792,4484871943737,2430001002710,ZC_IRYO,株式会社メディプラン,みらくる薬局　とんでん店,0020855,札幌市北区屯田5条7丁目1番50号,011-775-8008,2023-10-23 15:00:00 UTC
2277749182839,4982203311770,6430001028735,ZC_IRYO,株式会社ビートル・イード,ビートル調剤薬局,0020856,札幌市北区屯田6条9丁目6-23FITビル1階,０１１－７８８－７７８５,2023-10-23 15:00:00 UTC
7296379277292,2413791065690,6430002016136,ZC_IRYO,有限会社　はるにれ企画,はるにれ薬局　屯田店,0020856,札幌市北区屯田6条2丁目9-12,011⁃770⁃2560,2023-10-23 15:00:00 UTC
5333470544264,1074306395319,5430005011077,ZC_IRYO,医療法人社団かわむら歯科クリニック,かわむら歯科クリニック,0020856,札幌市北区屯田6条2丁目9-11,011-774-1182,2023-10-23 15:00:00 UTC
6462033616251,5030663326142,2430002040494,ZC_IRYO,有限会社　シャクティ,ラスカル調剤薬局,0020856,札幌市北区屯田6条6丁目5番33号,011-771-7201,2023-10-23 15:00:00 UTC
5306984583304,9392793214279,1430005002022,ZC_IRYO,医療法人社団朋佑会　札幌産科婦人科,医療法人社団　朋佑会　札幌産科婦人科,0020856,札幌市北区屯田6条2丁目11番1号,011-774-0303,2023-10-23 15:00:00 UTC
7566737733040,5984041673906,5430005004865,ZC_IRYO,医療法人社団　屯田横山眼科,医療法人社団　屯田横山眼科,0020856,札幌市北区屯田6条8丁目9番20号,011-774-9811,2023-10-23 15:00:00 UTC
2994843433329,7984170539461,3430001075128,ZC_IRYO,株式会社　光薬堂,モモセ薬局　屯田店,００２０８５６,札幌市北区屯田6条10丁目7番25号メディカル旭豊1階,011⁃299⁃7861,2023-10-23 15:00:00 UTC
1733977339758,4044931666356,2430005003812,ZC_IRYO,医療法人社団　浜岡皮膚科クリニック,医療法人社団　浜岡皮膚科クリニック,0020857,札幌市北区屯田7条4丁目7番34号,011-775-0411,2023-10-23 15:00:00 UTC
6450633599896,1445695652411,6430005005111,ZC_IRYO,医療法人社団　エルム北杜会,メディック北札幌,0020857,札幌市北区屯田7条3丁目10番15号,011-775-5000,2023-10-23 15:00:00 UTC
9833467985727,2196785572305,7430005001893,ZC_IRYO,医療法人社団　寺島整形外科,医療法人社団　寺島整形外科,0020857,札幌市北区屯田7条8丁目1番1号,０１１－７７４－００１１,2023-10-23 15:00:00 UTC
5259847707471,5282870770800,2430001045239,MODIFICATION,株式会社メディカルマネッジ・ケン,屯田七条薬局,0020857,札幌市北区屯田7条8丁目1-1ドウ･ミズキビル1F,011-770-2070,2023-10-23 15:00:00 UTC
1365144287610,7361301163385,5430002019387,ZC_IRYO,有限会社　ミッテル,エール薬局,0020857,札幌市北区屯田7条4丁目7-35,011-775-0111,2023-10-23 15:00:00 UTC
4295031579135,8934575448250,5430001028991,ZC_IRYO,株式会社　あおば調剤薬局,あおば薬局　屯田店,0020857,札幌市北区屯田7条3丁目10番16号,011-776-1111,2023-10-23 15:00:00 UTC
3837402595592,1140718073141,6430005011290,MODIFICATION,医療法人　桃実会　にわ糖尿病・内科クリニック,医療法人　桃実会　にわ糖尿病・内科クリニック,0020859,札幌市北区屯田9条3丁目1番20号屯田メディカルモール1階, 011-790-7900 ,2023-10-23 15:00:00 UTC
5208780676082,8167273811926,4430005001797,ZC_IRYO,医療法人社団栄杜会　小原病院,医療法人社団　栄杜会　小原病院,0020859,札幌市北区屯田9条12丁目5番1号,０１１－７７１－０８８１,2023-10-23 15:00:00 UTC
9932237346296,5285491413667,9430001020202,ZC_IRYO,株式会社サッポロドラッグストアー,サツドラ薬局　屯田店,0020859,札幌市北区屯田9条3丁目1番20号屯田メディカルモール1F,011⁃774⁃6844,2023-10-23 15:00:00 UTC
8284076183400,3875433824892,8430005001496,ZC_IRYO,社会医療法人耳鼻咽喉科麻生,社会医療法人耳鼻咽喉科麻生　耳鼻咽喉科麻生北クリニック,0020859,札幌市北区屯田9条3丁目1番20号屯田メディカルモール2階,011-773-4133,2023-10-23 15:00:00 UTC
9280386547303,3787476934457,4430005010674,ZC_IRYO,医療法人社団　リラ整形外科クリニック,医療法人社団　リラ整形外科クリニック,0020859,札幌市北区屯田9条3丁目1番20号屯田メディカルモール1階,０１１－７７６－５５７７,2023-10-23 15:00:00 UTC
2397410404309,8636261646867,9430005001578,ZC_IRYO,医療法人社団　江口整形外科,医療法人社団　江口整形外科　創成川通整形外科,0028004,札幌市北区太平4条3丁目2番1号,011-773-1570,2023-10-23 15:00:00 UTC
9129973469584,9059611999448,7430005001654,ZC_IRYO,医療法人社団　杏英会　安達内科医院,医療法人社団　杏英会　安達内科医院,0028006,札幌市北区太平6条5丁目1番17号,011-772-7120,2023-10-23 15:00:00 UTC
4336202932935,9923486574154,5430005001953,ZC_IRYO,医療法人社団　澪和会,医療法人社団　澪和会　百合が原ながの総合歯科,0028009,札幌市北区太平9条7丁目1番2号, 011-770-2355 ,2023-10-23 15:00:00 UTC
2587580638871,1298925736180,3430005011871,ZC_IRYO,医療法人社団　太平眼科,医療法人社団　太平眼科,0028010,札幌市北区太平10条1丁目2番1号,011-771-2200,2023-10-23 15:00:00 UTC
9542155781787,8967291637538,2430005001857,ZC_IRYO,医療法人社団萌水会,医療法人社団　萌水会　ＭＯＥ内科循環器クリニック,0028022,札幌市北区篠路2条4丁目6番30号,011-771-6162,2023-10-23 15:00:00 UTC
4295031579135,8702643844949,5430001028991,ZC_IRYO,株式会社　あおば調剤薬局,あおば薬局　しのろ店,0028022,札幌市北区篠路2条10丁目12番5号,011-776-4114,2023-10-23 15:00:00 UTC
3614697067547,5299516554145,3430001028663,ZC_IRYO,コアファルマ株式会社,コア薬局　篠路店,0028022,札幌市北区篠路2条4丁目5番11号メディコアしのろ1階,011-773-3330,2023-10-23 15:00:00 UTC
2267517558631,7363488905567,9430005001776,MODIFICATION,医療法人社団　しのろ眼科医院,医療法人社団　しのろ眼科医院,0028022,札幌市北区篠路2条4丁目5番11号メディコアしのろ1階,011-773-3455,2023-10-23 15:00:00 UTC
8145679874892,3523253690777,8430005001562,ZC_IRYO,医療法人社団　しのろ耳鼻咽喉科クリニック,医療法人社団　しのろ耳鼻咽喉科クリニック,0028022,札幌市北区篠路2条4丁目5番11号メディコアしのろ2階,０１１－７７３－３３８７,2023-10-23 15:00:00 UTC
3373264636940,2449191037046,5430002030261,ZC_IRYO,有限会社札幌ファルマーティー・ワイ,フォーラム薬局しのろ店,0028022,札幌市北区篠路2条7丁目5番24号,011-775-0660,2023-10-23 15:00:00 UTC
6262410302803,8668246084896,8430005001645,ZC_IRYO,医療法人社団賢裕会,医療法人社団賢裕会　篠路平川歯科医院,0028022,札幌市北区篠路2条6丁目4-26,０１１－７７２－８０８１,2023-10-23 15:00:00 UTC
4608861919796,4226671647393,9430005005249,MODIFICATION,医療法人　しのろファミリークリニック,医療法人　しのろファミリークリニック,0028022,札幌市北区篠路2条10丁目12-1,011-771-2800,2023-10-23 15:00:00 UTC
1975179947586,1459167224040,5430005003231,ZC_IRYO,医療法人社団　荒木病院,医療法人社団　荒木病院,0028023,札幌市北区篠路3条2丁目1番92号,011-771-5731,2023-10-23 15:00:00 UTC
4816537633860,7156503532886,9430005012278,ZC_IRYO,医療法人社団　篠路こどもクリニック,医療法人社団　篠路こどもクリニック,0028023,札幌市北区篠路3条6丁目4番32号UURコート札幌壱番館1F,011⁃776⁃0776,2023-10-23 15:00:00 UTC
7000231042017,5260057156802,3430005004149,ZC_IRYO,医療法人社団　昇英会,医療法人社団昇英会　いとが整形外科,0028023,札幌市北区篠路3条10丁目158番30,011-770-7688,2023-10-23 15:00:00 UTC
3332040612375,9721224949015,5430005001978,ZC_IRYO,医療法人社団　箱木歯科,医療法人社団　箱木歯科,0028023,札幌市北区篠路3条5丁目1番20号,011-772-8586,2023-10-23 15:00:00 UTC
9442945652061,9973995861643,6430002055720,ZC_IRYO,メディカルファイブ株式会社,アイリス調剤薬局,0028023,札幌市北区篠路3条10丁目5-16, 011-299-6177 ,2023-10-23 15:00:00 UTC
4126638590785,1727817565384,1430001027196,ZC_IRYO,株式会社　キタ調剤薬局,キタ調剤薬局　篠路店,0028023,札幌市北区篠路3条6丁目4-32,011-774-0930,2023-10-23 15:00:00 UTC
9775529330250,7890211138539,5430005004725,ZC_IRYO,医療法人　はまなす,医療法人　はまなす　篠路はまなすクリニック,0028024,札幌市北区篠路4条9丁目12番45号,011-776-3030,2023-10-23 15:00:00 UTC
4966500665164,1995552061343,6430005001804,ZC_IRYO,医療法人社団　篠路整形外科,医療法人社団　篠路整形外科,0028024,札幌市北区篠路4条5丁目3番9号,011-772-7255,2023-10-23 15:00:00 UTC
5022392871637,8165587633742,1430002039793,ZC_IRYO,有限会社札幌エムワイファーマシー,篠路調剤薬局,0028024,札幌市北区篠路4条9丁目162番地23,011-374-1832,2023-10-23 15:00:00 UTC
7404100707496,3577498829327,6430005001622,ZC_IRYO,医療法人社団　池田ファミリー歯科,医療法人社団　池田ファミリー歯科,0028024,札幌市北区篠路4条8丁目1番18号,011-775-0555,2023-10-23 15:00:00 UTC
1565128826229,2680065600248,3430005003621,MODIFICATION,医療法人社団　健志会,医療法人社団健志会　フラワーデンタルオフィス,0028024,札幌市北区篠路4条6丁目11番18号,011-776-6499,2023-10-23 15:00:00 UTC
9932237346296,8129850216186,9430001020202,ZC_IRYO,株式会社　サッポロドラッグストアー,サツドラ薬局　篠路店,００２８０２５,札幌市北区篠路5条5丁目1番地5,011-774-2337,2023-10-23 15:00:00 UTC
5412299321685,8858442151054,1430002010168,ZC_IRYO,有限会社しらかば薬局,有限会社しらかば薬局　篠路店,0028025,札幌市北区篠路5条8丁目2番5号,011-772-5200,2023-10-23 15:00:00 UTC
2428638290523,4941181529726,,ZC_IRYO,医療法人社団　大黒会　吉田医院,医療法人社団　大黒会　吉田医院,0028025,札幌市北区篠路5条5丁目7番1号,011-771-2020,2023-10-23 15:00:00 UTC
7300099120592,7495742098376,1430005001718,ZC_IRYO,社会医療法人　康和会,社会医療法人　康和会　札幌しらかば台篠路病院　,0028025,札幌市北区篠路5条8丁目2番1号,011-773-0711,2023-10-23 15:00:00 UTC
8864161610020,1901966417137,5430005001648,ZC_IRYO,医療法人社団健生会,医療法人社団健生会　篠路山田歯科,００２８０２６,札幌市北区篠路6条5丁目158番104,011-771-0300,2023-10-23 15:00:00 UTC
2153818345278,2692054105970,9430005001719,ZC_IRYO,医療法人社団　五稜会病院,医療法人社団　五稜会病院,００２８０２９,札幌市北区篠路9条6丁目2番3号,011-771-5660,2023-10-23 15:00:00 UTC
6505178277837,7837142228544,7430005001472,ZC_IRYO,医療法人社団　翔嶺館,医療法人社団　翔嶺館　札幌優翔館病院,0028042,札幌市北区東茨戸2条2丁目8番25号,011-772-9211,2023-10-23 15:00:00 UTC
6784725784855,2500796415578,1430001005219,MODIFICATION,株式会社なの花北海道,なの花薬局　篠路店,0028053,札幌市北区篠路町篠路288番地1,011-770-2233,2023-10-23 15:00:00 UTC
7736174419484,3369806499294,1430001010672,ZC_IRYO,株式会社ツルハ,調剤薬局ツルハドラッグ　拓北６条店,0028066,札幌市北区拓北6条5丁目2番34号,０１１－７７８－８２６８,2023-10-23 15:00:00 UTC
6401366872397,7528894109060,6430005013873,ZC_IRYO,医療法人社団　藍葉会,あいの里耳鼻咽喉科,0028066,札幌市北区拓北6条5丁目2番1号,011-374-6670,2023-10-23 15:00:00 UTC
8600718321956,4116679366555,6430005003271,ZC_IRYO,医療法人社団　めばえこどもクリニック,医療法人社団　めばえこどもクリニック,0028071,札幌市北区あいの里1条3丁目4番8号,011-770-5160,2023-10-23 15:00:00 UTC
8923900460398,7666034931211,7430002029616,ZC_IRYO,有限会社　ウィッシュ,はまなす調剤薬局,0028071,札幌市北区あいの里1条6丁目2番1号,０１１－７７０－５３６６,2023-10-23 15:00:00 UTC
5506854803368,7443739316913,2430005001948,ZC_IRYO,医療法人社団　にいで歯科医院,医療法人社団　にいで歯科医院,0028071,札幌市北区あいの里1条4丁目9番17号,011-778-6000,2023-10-23 15:00:00 UTC
9391439454425,7646233790421,8430005001629,ZC_IRYO,医療法人社団　あさつま会,医療法人社団　あさつま会　あいの里整形外科,0028071,札幌市北区あいの里1条4丁目22番20号,011-778-7855,2023-10-23 15:00:00 UTC
8075400889905,4150782517332,3430005001609,MODIFICATION,医療法人社団　あいの里内科消化器科クリニック,医療法人社団　あいの里内科消化器科クリニック,0028071,札幌市北区あいの里1条6丁目2番2号,011-778-7111,2023-10-23 15:00:00 UTC
5720338487745,2845677590643,8430005005729,ZC_IRYO,学校法人　東日本学園,北海道医療大学在宅歯科診療所,0028072,札幌市北区あいの里2条6丁目2番1,011⁃788⁃2761,2023-10-23 15:00:00 UTC
4575003891677,8174586757759,6430005001531,ZC_IRYO,医療法人　本間皮ふ科クリニック,医療法人　本間皮ふ科クリニック,0028072,札幌市北区あいの里2条8丁目4番1号, 011-778-2950 ,2023-10-23 15:00:00 UTC
2607445783337,9734704343163,6430001044889,ZC_IRYO,株式会社三育,アイエム薬局,0028072,札幌市北区あいの里2条5丁目1番45号,011⁃770⁃5533,2023-10-23 15:00:00 UTC
9412307176995,7553360983246,8430001010583,ZC_IRYO,ツカサ薬品株式会社,サンチェーンあいの里保険薬局,0028072,札幌市北区あいの里2条3丁目16-6,011-768-8868,2023-10-23 15:00:00 UTC
5720338487745,5636480925804,8430005005729,ZC_IRYO,学校法人東日本学園,北海道医療大学病院,００２８０７２,札幌市北区あいの里2条5, 011-778-7575 ,2023-10-23 15:00:00 UTC
7224404823509,6521141367083,8430005001612,ZC_IRYO,医療法人社団　いけだクリニック,医療法人社団　いけだクリニック,００２８０７２,札幌市北区あいの里2条8丁目4番5号,011-778-2721,2023-10-23 15:00:00 UTC
4295031579135,6123524583615,5430001028991,ZC_IRYO,株式会社　あおば調剤薬局,あいの里調剤薬局,0028072,札幌市北区あいの里2条8丁目4-2, 011-778-2989 ,2023-10-23 15:00:00 UTC
9569546436973,6549644150043,5430005001788,ZC_IRYO,医療法人社団　札幌百合の会病院,医療法人社団　札幌百合の会病院,0028081,札幌市北区百合が原11丁目186番地,011-771-1501,2023-10-23 15:00:00 UTC
1065273223798,6658163844043,4430005003265,ZC_IRYO,医療法人社団　ゆりがはら内科ケア＆クリニック,医療法人社団　ゆりがはら内科ケア＆クリニック,0028081,札幌市北区百合が原7丁目4番25号,011-770-7111,2023-10-23 15:00:00 UTC
9442945652061,9932865919393,6430002055720,ZC_IRYO,メディカルファイブ株式会社,クローバー薬局　百合が原店,0028081,札幌市北区百合が原6丁目1番38号,011-214-0216,2023-10-23 15:00:00 UTC
8501515013990,6177622085992,2430005012243,ZC_IRYO,医療法人社団　真誠会,医療法人社団　真誠会　どう歯科クリニック,００２８０８１,札幌市北区百合が原9丁目1番1号,011-775-4183,2023-10-23 15:00:00 UTC
5544482201737,5966336021783,6430005014780,ZC_IRYO,医療法人　奏,あいの里アットホームクリニック,0028091,札幌市北区南あいの里5丁目6番10号グランディール303号,011-299-9542,2023-10-23 15:00:00 UTC
6619320050138,3593204886317,5430005000609,ZC_IRYO,社会福祉法人　美松善隣会,社会福祉法人　美松善隣会　特別養護老人ホーム白石ハイツ医務室,００３００００,札幌市白石区本通16丁目北4番30号,０１１－８６４－６３４１,2023-10-23 15:00:00 UTC
4875128486073,4566583856923,1430001027964,ZC_IRYO,株式会社オストジャパングループ,オスト薬局環状通美園店,0030001,札幌市白石区東札幌1条6丁目1-13,011-850-9860,2023-10-23 15:00:00 UTC
9436126793115,1563525718340,7430001033172,ZC_IRYO,株式会社　サンクール,あしたば薬局　東札幌店,００３０００１,札幌市白石区東札幌1条2丁目1-3,011-814-4193,2023-10-23 15:00:00 UTC
5582249314789,1539704822706,9010405009255,MODIFICATION,医療法人社団平郁会,医療法人社団平郁会札幌在宅クリニックそよ風・白石,0030001,札幌市白石区東札幌1条2丁目3番11号メディカルライフ札幌クリニックプラザ2階, 011-799-0611 ,2023-10-23 15:00:00 UTC
7736174419484,5019973468245,1430001010672,ZC_IRYO,株式会社ツルハ,調剤薬局ツルハドラッグ東札幌店,0030001,札幌市白石区東札幌1条1丁目7番1号,011-827-7707,2023-10-23 15:00:00 UTC
1672336779353,9194650885079,7010905001647,MODIFICATION,医療法人社団　長伸会,医療法人社団　長伸会　札幌あかしあクリニック,0030001,札幌市白石区東札幌1条2丁目3番11号札幌クリニックプラザ2階,001-820-1031,2023-10-23 15:00:00 UTC
6220458562154,2092065259663,3430005002029,ZC_IRYO,社会医療法人三樹会　三樹会泌尿器科病院,社会医療法人三樹会　三樹会泌尿器科病院,0030002,札幌市白石区東札幌2条3丁目6-10,011-824-3131,2023-10-23 15:00:00 UTC
8276561744971,3331124026024,,ZC_IRYO,医療法人社団　一心会,白石プライム歯科,0030002,札幌市白石区東札幌2条6丁目6番14号渡会ビル1階,011⁃817⁃4184,2023-10-23 15:00:00 UTC
8689504597919,1287592462259,,ZC_IRYO,医療法人社団　アイリス内科クリニック,医療法人社団　アイリス内科クリニック,0030002,札幌市白石区東札幌2条3丁目7番53号ホシ2番舘2F,011⁃826⁃6255,2023-10-23 15:00:00 UTC
7070807239940,7241351875625,2290001019694,ZC_IRYO,株式会社ニック,ニック札幌センター薬局,0030002,札幌市白石区東札幌2条5丁目9-15コーポラス丸亀1F 10号,011-827-1235,2023-10-23 15:00:00 UTC
9298540118365,5045630406979,7430005011892,ZC_IRYO,医療法人社団　東札幌おおやま整形外科,医療法人社団　東札幌おおやま整形外科,0030002,札幌市白石区東札幌2条4丁目11番14号メディカル･コート東札幌2階,011-817-0080,2023-10-23 15:00:00 UTC
9798000708555,7934126328387,7430005004764,ZC_IRYO,医療法人社団　優駿会,医療法人社団　優駿会　白石ファミリー歯科,0030002,札幌市白石区東札幌2条5丁目7番5号エコビル白石 2F,011-817-4614,2023-10-23 15:00:00 UTC
4482500922038,2671424500965,2430005001477,ZC_IRYO,医療法人　杉歯科医院,医療法人　杉歯科医院,0030003,札幌市白石区東札幌3条6丁目1番1号,011-862-5051,2023-10-23 15:00:00 UTC
1656178199363,3573180075486,4430005010682,ZC_IRYO,医療法人明泉会東札幌脳神経クリニック,東札幌脳神経クリニック,0030003,札幌市白石区東札幌3条3丁目13番1号シヴァビル3F,011-817-2271,2023-10-23 15:00:00 UTC
2002774551131,1318629440522,7430001076601,ZC_IRYO,北海道投資株式会社,すいか薬局　白石店,0030003,札幌市白石区東札幌3条6丁目1番1号第二小竹ビル 1階, 011-600-6363 ,2023-10-23 15:00:00 UTC
8012880999594,9153988927874,5430001079473,ZC_IRYO,株式会社かささぎ,かささぎ薬局,0030003,札幌市白石区東札幌3条5丁目3-30,011-826-3950,2023-10-23 15:00:00 UTC
6141837527004,3853558176746,6430005001985,ZC_IRYO,医療法人社団　博和会,医療法人社団博和会　デリック歯科,0030003,札幌市白石区東札幌3条2丁目1番地, 011-821-5677 ,2023-10-23 15:00:00 UTC
4910815162879,7915657162905,5430005013486,ZC_IRYO,医療法人　東札幌三輪デンタルクリニック,医療法人　東札幌三輪デンタルクリニック,0030003,札幌市白石区東札幌3条1丁目1番1号ラソラ札幌Bタウン2F,011-811-4618,2023-10-23 15:00:00 UTC
4341837091696,8494423728315,4013301018771,ZC_IRYO,アポクリート株式会社,アイランド薬局東札幌店,0030003,札幌市白石区東札幌3条3丁目6-24,011-598-7577,2023-10-23 15:00:00 UTC
3083976517352,6202869631712,1430005010322,ZC_IRYO,医療法人　さくら耳鼻咽喉科,さくら耳鼻咽喉科,0030003,札幌市白石区東札幌3条3丁目13番1シヴァビル2階,011-811-0390,2023-10-23 15:00:00 UTC
6784725784855,9581793555042,1430001005219,ZC_IRYO,株式会社なの花北海道,なの花薬局・東札幌店,0030003,札幌市白石区東札幌3条3丁目7番25号,011⁃820⁃3320,2023-10-23 15:00:00 UTC
9765478679916,6504054557430,2430005003993,ZC_IRYO,医療法人社団　きよみず公園クリニック,医療法人社団　きよみず公園クリニック,0030004,札幌市白石区東札幌4条3丁目6番1号, 011-813-6311 ,2023-10-23 15:00:00 UTC
4362915110845,2039454991896,7430005006216,MODIFICATION,医療法人社団　毬会,医療法人社団　毬会　内科丹田クリニック,0030004,札幌市白石区東札幌4条1丁目1番1号ラソラ札幌 Bタウン2F,011⁃817⁃1188,2023-10-23 15:00:00 UTC
3352214823845,6861629743380,1430001016133,ZC_IRYO,株式会社　まどか,まどか薬局ラソラ札幌店,0030004,札幌市白石区東札幌4条1丁目1番1号,011-816-3339,2023-10-23 15:00:00 UTC
3265840249338,5698995077311,2430005004587,ZC_IRYO,医療法人社団　響,医療法人社団　響　さくら内科クリニック,0030004,札幌市白石区東札幌4条4丁目1番18号,011-817-2171,2023-10-23 15:00:00 UTC
3265840249338,5698995077311,2430005004587,ZC_IRYO,医療法人社団　響,医療法人社団　響　さくら歯科クリニック,0030004,札幌市白石区東札幌4条4丁目1番18号,011-817-8077,2023-10-23 15:00:00 UTC
8242545797003,5031820844957,9430005004382,ZC_IRYO,医療法人　えがみ歯科医院,医療法人　えがみ歯科医院,0030005,札幌市白石区東札幌5条2丁目6番12号,011-815-8241,2023-10-23 15:00:00 UTC
5505863763764,8957194844403,1430005001734,ZC_IRYO,医療法人社団明日佳,医療法人社団明日佳　白石明日佳病院,0030005,札幌市白石区東札幌5条5丁目2番5号,011-823-5151,2023-10-23 15:00:00 UTC
4088119203097,2853400105721,9430002015894,ZC_IRYO,有限会社　八扇堂,東札幌調剤薬局,0030005,札幌市白石区東札幌5条6丁目6-33理想ビル1階,011⁃865⁃8801,2023-10-23 15:00:00 UTC
7860014511268,5581825502863,3430001067281,MODIFICATION,株式会社Ｊ・サイプレス,しろいし薬局,0030005,札幌市白石区東札幌5条5丁目2番1号,011-824-3600,2023-10-23 15:00:00 UTC
6302854461422,4171675831468,3430005002061,ZC_IRYO,医療法人社団　明珠会,医療法人社団明珠会　札幌白石産科婦人科病院,0030005,札幌市白石区東札幌5条6丁目6番28号,011-862-7211,2023-10-23 15:00:00 UTC
9507201504084,2338693927672,3430005001526,ZC_IRYO,社会医療法人　北楡会,社会医療法人　北楡会　札幌北楡病院,0030006,札幌市白石区東札幌6条6丁目5番1号, 011-865-0111 ,2023-10-23 15:00:00 UTC
4341837091696,1654028143629,4013301018771,ZC_IRYO,アポクリート株式会社,アイランド薬局にれ店,0030006,札幌市白石区東札幌6条6丁目5-24, 011-867-5755 ,2023-10-23 15:00:00 UTC
6071322783546,9778821130467,9010001064753,ZC_IRYO,日本調剤　株式会社,日本調剤　白石薬局,0030006,札幌市白石区東札幌6条6丁目5番35号, 011-863-4554 ,2023-10-23 15:00:00 UTC
6227563983607,4463018772972,1430005001750,ZC_IRYO,医療法人社団星和会　大内歯科小児歯科クリニック,医療法人社団星和会　大内歯科小児歯科クリニック,0030011,札幌市白石区中央1条7丁目 白央ビル,011-863-6061,2023-10-23 15:00:00 UTC
1028748246991,6165108951034,8430005001851,ZC_IRYO,医療法人社団　慈昂会,医療法人社団慈昂会　白石内科クリニック,0030011,札幌市白石区中央1条7丁目10番30号,011-868-2711,2023-10-23 15:00:00 UTC
3570454769176,7527362984764,3430001032665,ZC_IRYO,株式会社メディエイト,ドリーム薬局　白石店,0030011,札幌市白石区中央1条7丁目10-30白石中央メディカルビル1階,011-868-8681,2023-10-23 15:00:00 UTC
7288180557266,9457969075670,8430005001819,ZC_IRYO,医療法人社団　仁秀会　白石整形外科,医療法人社団　仁秀会　白石整形外科,００３００１２,札幌市白石区中央2条4丁目1番2号,011-831-5799,2023-10-23 15:00:00 UTC
3082274551374,2664172764410,8430005012246,ZC_IRYO,医療法人社団　北桜会,クリアー歯科,0030013,札幌市白石区中央3条5丁目1番1号,011-864-5524,2023-10-23 15:00:00 UTC
7151189663277,7069117329613,8430005009861,ZC_IRYO,医療法人社団積信会,長野病院,0030013,札幌市白石区中央3条5丁目4番30号,011-861-1037,2023-10-23 15:00:00 UTC
1938846667096,1974178162515,3430005003506,ZC_IRYO,医療法人社団　飛翔会,医療法人社団　飛翔会　やまうち整形外科,００３００２１,札幌市白石区栄通19丁目1番20号,011-857-3300,2023-10-23 15:00:00 UTC
4848885360728,6137027536057,1430005001800,ZC_IRYO,医療法人社団　小路内科消化器クリニック,医療法人社団　小路内科消化器クリニック,0030021,札幌市白石区栄通15丁目9番35号,011-853-1331,2023-10-23 15:00:00 UTC
8378158677750,4556456239894,4012805000079,MODIFICATION,医療法人社団　弘樹会,医療法人社団弘樹会　ルーシー歯科医院,0030021,札幌市白石区栄通18丁目5-35コープさっぽろルーシー3F,011-859-5858,2023-10-23 15:00:00 UTC
3232147746903,5269970952890,8430005001455,ZC_IRYO,医療法人　杏医会　札幌呼吸器科病院,医療法人杏医会　札幌呼吸器科病院,００３００２１,札幌市白石区栄通3丁目3番35号,011-853-5311,2023-10-23 15:00:00 UTC
5982792524183,3056082029132,1430005004002,ZC_IRYO,医療法人社団　豊仁会,医療法人社団　豊仁会　やまうち内科クリニック,0030021,札幌市白石区栄通19丁目1番1号,011⁃851⁃5600,2023-10-23 15:00:00 UTC
3622795466204,2730641779537,8430001039466,ZC_IRYO,株式会社　メディカル・エイド北海道,アイル薬局栄通店,００３００２１,札幌市白石区栄通15丁目9番34号,011-858-5500,2023-10-23 15:00:00 UTC
8651350980536,9340923308306,,ZC_IRYO,有限会社　シー・エム・エス,有限会社シー・エム・エス　にしい薬局,0030021,札幌市白石区栄通19丁目13-1,011-856-2410,2023-10-23 15:00:00 UTC
7736174419484,9866695584502,1430001010672,ZC_IRYO,株式会社ツルハ,調剤薬局ツルハドラッグ栄通店,0030021,札幌市白石区栄通14丁目2番1号,011-876-8685,2023-10-23 15:00:00 UTC
7296379277292,4800343805610,6430002016136,ZC_IRYO,有限会社　はるにれ企画,はるにれ薬局栄通店,0030021,札幌市白石区栄通21丁目1番15号, 011-850-5010 ,2023-10-23 15:00:00 UTC
8746967119218,9337559485087,6430005004955,MODIFICATION,医療法人社団　栄仁会,栄通わたなべ内科・皮ふ科,0030021,札幌市白石区栄通8丁目2番1号,０１１－８５８－３３１１,2023-10-23 15:00:00 UTC
5253012059861,6927147517402,3430001005101,ZC_IRYO,株式会社グリーン調剤,栄通グリーン薬局,0030021,札幌市白石区栄通8丁目1-3,011-859-1610,2023-10-23 15:00:00 UTC
1270612981056,4157736827363,8430005012725,ZC_IRYO,医療法人　孝友会,ごう内科クリニック,0030021,札幌市白石区栄通21丁目1番16号,０１１－８５０－５０５０,2023-10-23 15:00:00 UTC
2962567524992,1307334088628,7430005013988,ZC_IRYO,医療法人社団　翠和会,かしわお歯科クリニック,0030022,札幌市白石区南郷通19丁目南3番25号マルシンビル南郷1階,０１１－８６７－６４８０,2023-10-23 15:00:00 UTC
6986457397714,5766258619331,7430005004079,ZC_IRYO,医療法人社団　旺仁会,医療法人社団　旺仁会　富士殖内科医院,0030022,札幌市白石区南郷通14丁目南3番11号,011-863-6851,2023-10-23 15:00:00 UTC
6016615793717,2018792649404,7430005004533,ZC_IRYO,医療法人　新産健会,医療法人新産健会　月寒東内科クリニック,００３００２２,札幌市白石区南郷通21丁目南5番39号,011-867-0876,2023-10-23 15:00:00 UTC
7866158987030,7129893487213,5430002029031,ZC_IRYO,有限会社　ライフネットワーク,フォルテ調剤薬局,0030022,札幌市白石区南郷通19丁目南3-11メディカル‘97 1F,011-860-5525,2023-10-23 15:00:00 UTC
9289738443373,6528295476677,4430005013495,ZC_IRYO,医療法人　イリス会,白石ガーデンプレイス皮膚科クリニック,0030022,札幌市白石区南郷通1丁目南8番10号白石ガーデンプレイス 3階,011⁃867⁃1112,2023-10-23 15:00:00 UTC
5205747800451,1269099000113,6430005010953,ZC_IRYO,医療法人社団　来仁会,医療法人社団来仁会　南郷１８丁目駅歯科クリニック,0030022,札幌市白石区南郷通18丁目南4番8号第2カンダビル1階,011-598-7997,2023-10-23 15:00:00 UTC
7725954650656,7352817674005,2430005006360,MODIFICATION,医療法人社団南郷メンタルクリニック,医療法人社団南郷メンタルクリニック,0030022,札幌市白石区南郷通19丁目南3-11メディカル97 4F,011-861-7518,2023-10-23 15:00:00 UTC
9706223734914,1782502608339,3430005013769,ZC_IRYO,医療法人社団　千結会,医療法人社団　千結会　さっぽろ白石内科消化器クリニック,0030022,札幌市白石区南郷通1丁目南8番10号白石ガーデンプレイス 3階,011-862-8878,2023-10-23 15:00:00 UTC
6496399010518,1503770413557,2430005003374,ZC_IRYO,医療法人社団蒼成会　クオーレメンタルクリニック,医療法人社団　蒼成会　クオーレメンタルクリニック,0030022,札幌市白石区南郷通14丁目南3番11号ラスコム13,011-862-0556,2023-10-23 15:00:00 UTC
2502602898874,5429801912681,9430001077705,ZC_IRYO,ｒｅｇｉｏｎ株式会社,リジョン薬局,0030022,札幌市白石区南郷通16丁目南1番16号南郷ビル1階,011-598-6713,2023-10-23 15:00:00 UTC
1460210142369,8354472088412,3430005002086,ZC_IRYO,医療法人社団　山中たつる小児科,医療法人社団　山中たつる小児科,0030022,札幌市白石区南郷通11丁目南3番9号,011-866-5555,2023-10-23 15:00:00 UTC
5714150437544,4301584012104,9430001027271,ZC_IRYO,株式会社　アクト調剤,メトロ調剤薬局,0030022,札幌市白石区南郷通14丁目南3番11号,０１１－８６３－５０５５,2023-10-23 15:00:00 UTC
8135834514858,8438268339241,6430005003379,ZC_IRYO,医療法人社団　えんどう皮膚科クリニック,医療法人社団　えんどう皮膚科クリニック,0030022,札幌市白石区南郷通19丁目南3番11号メディカル’97 2F,０１１－８６０－１２３２,2023-10-23 15:00:00 UTC
4548950884522,4563199885141,9430005013615,ZC_IRYO,医療法人　翔弘会,しろいし耳鼻咽喉科,0030022,札幌市白石区南郷通1丁目南8番10号白石ガーデンプレイス 3階,011-860-3387,2023-10-23 15:00:00 UTC
6467387484032,3208960830774,7430001069398,ZC_IRYO,株式会社アインファーマシーズ,アイン薬局白石南郷通店,0030022,札幌市白石区南郷通1丁目南8番10号白石ガーデンプレイス3階, 011-595-7382 ,2023-10-23 15:00:00 UTC
1026637632073,6302570779180,4430005012902,ZC_IRYO,医療法人社団　ＥＶＥウィミンズクリニック,医療法人社団　ＥＶＥウィミンズクリニック,0030022,札幌市白石区南郷通21丁目南5番41号,011-866-0808,2023-10-23 15:00:00 UTC
8467747168481,6230579631282,8430005006363,ZC_IRYO,医療法人社団　博栄会,あさひ歯科クリニック,0030022,札幌市白石区南郷通3丁目南8番25号N-3壱番館1階,011-868-4182,2023-10-23 15:00:00 UTC
7225651808993,3590474623251,6430005005301,ZC_IRYO,医療法人社団　南郷通り整形外科,南郷通り整形外科,0030023,札幌市白石区南郷通8丁目北1番33号,011-866-3555,2023-10-23 15:00:00 UTC
7378805000659,7949360397026,1430005001949,ZC_IRYO,医療法人社団　南郷医院,医療法人社団　南郷医院,0030023,札幌市白石区南郷通12丁目北1番25号,011-861-2768,2023-10-23 15:00:00 UTC
6540338710357,1981630232891,3430005013777,MODIFICATION,医療法人社団　南郷ファミリー歯科クリニック,南郷ファミリー歯科クリニック,0030023,札幌市白石区南郷通7丁目北5-25第3中澤ビル1F,011-868-4618,2023-10-23 15:00:00 UTC
7189153469426,2347841903007,4430005001566,ZC_IRYO,医療法人社団　岩寺小児歯科医院,医療法人社団　岩寺小児歯科医院　南郷通り子ども歯科,００３００２３,札幌市白石区南郷通2丁目北2番1号ル･ノール南郷街1階,０１１－８２７－５８１８,2023-10-23 15:00:00 UTC
8639285794262,6554029319529,6430005013493,ZC_IRYO,医療法人社団　リーサ矯正歯科,医療法人社団　リーサ矯正歯科,0030023,札幌市白石区南郷通14丁目北1番4号ニューフロンティアビル1F,011⁃866⁃2727,2023-10-23 15:00:00 UTC
7263356304368,2011280989732,4430001028695,ZC_IRYO,株式会社日本みらいファーマ,なんごう薬局,0030023,札幌市白石区南郷通8丁目北2-2,０１１－８６７－５１５５,2023-10-23 15:00:00 UTC
6784725784855,9407193951404,1430001005219,ZC_IRYO,株式会社なの花北海道,なの花薬局　南郷店,0030023,札幌市白石区南郷通7丁目北2番17号,011-862-1193,2023-10-23 15:00:00 UTC
4084344724239,3251151961327,4430001023408,MODIFICATION,株式会社　丸高三信堂,三信調剤薬局,0030023,札幌市白石区南郷通2丁目北2番1号 1階,011-863-1193,2023-10-23 15:00:00 UTC
3952184297097,4156575612575,6430001071124,ZC_IRYO,ＬＢＤリサーチ株式会社,あさなぎ薬局,0030023,札幌市白石区南郷通14丁目北3番8号,０１１－８６７－１０００,2023-10-23 15:00:00 UTC
8146793624090,3201145946949,7430005001778,ZC_IRYO,医療法人社団　白石こどもクリニック,医療法人社団　白石こどもクリニック,0030023,札幌市白石区南郷通2丁目北2番1号ルノール南郷街1F,011-865-7302,2023-10-23 15:00:00 UTC
3668221098045,6177430863223,7430005001497,ZC_IRYO,医療法人讃生会,医療法人　讃生会　緑愛クリニック,0030023,札幌市白石区南郷通6丁目北3番24号,011-868-8866,2023-10-23 15:00:00 UTC
9778875534179,4745051511241,6430005002100,ZC_IRYO,医療法人社団　智愛会,医療法人社団　智愛会　なかた小児科,0030023,札幌市白石区南郷通1丁目北1番地1号ST相馬ビル2階,011-864-8668,2023-10-23 15:00:00 UTC
6070491030005,9679208401251,5430001038776,ZC_IRYO,株式会社　あかしあ,あかしあ薬局,００３００２３,札幌市白石区南郷通12丁目北1番27号, 011-861-2800 ,2023-10-23 15:00:00 UTC
9917028953909,3326247601141,6430005013510,ZC_IRYO,医療法人社団　悠美会,医療法人社団悠美会　南郷中央整形外科,0030023,札幌市白石区南郷通14丁目北3番20号,011-864-0011,2023-10-23 15:00:00 UTC
6927469454866,9739283896013,9430005001933,ZC_IRYO,医療法人社団　西尾皮膚科医院,医療法人社団　西尾皮膚科医院,0030023,札幌市白石区南郷通1丁目北1番地1ST相馬ビル3階,011-865-0671,2023-10-23 15:00:00 UTC
6015923428045,5098504589657,5430005001821,ZC_IRYO,医療法人社団　清香会,医療法人社団　清香会　おおしま内科胃腸科クリニック,0030023,札幌市白石区南郷通18丁目北3番28号,011⁃866⁃5511,2023-10-23 15:00:00 UTC
3756052190132,9197624908513,8010001028040,ZC_IRYO,株式会社ユニスマイル,白石メディカル薬局,0030023,札幌市白石区南郷通1丁目北1-1ST相馬ビル1F,011⁃865⁃4322,2023-10-23 15:00:00 UTC
7586027678515,3083638105415,7430002014601,ZC_IRYO,有限会社　中村薬局,有限会社　中村薬局,0030023,札幌市白石区南郷通7丁目北5番1号,０１１－８６１－２８０８,2023-10-23 15:00:00 UTC
2571129465889,1888279473092,2430005005346,ZC_IRYO,医療法人社団　青木内科クリニック,医療法人社団　青木内科クリニック,0030023,札幌市白石区南郷通1丁目北1番1号 ST相馬ビル5F,011-860-6771,2023-10-23 15:00:00 UTC
6032975023341,1277638362698,9430005001842,ZC_IRYO,医療法人社団　札幌東クリニック,医療法人社団　札幌東クリニック,0030023,札幌市白石区南郷通1丁目北2番25号第2カネサビル,011-863-2131,2023-10-23 15:00:00 UTC
6105133523578,6855815245258,1430005013878,MODIFICATION,医療法人　きたざわ矯正歯科,きたざわ矯正歯科　はならび・かみあわせクリニック,0030023,札幌市白石区南郷通1丁目北1-1ST相馬ビル3F,011-864-1876,2023-10-23 15:00:00 UTC
2019702397959,8790875710452,2430005004942,ZC_IRYO,医療法人　永遠会,なかむら歯科,0030024,札幌市白石区本郷通13丁目南1番13号アピカル南郷1階,011-868-9889,2023-10-23 15:00:00 UTC
8681223633840,6028623190490,8120001082605,ZC_IRYO,株式会社ココカラファインヘルスケア,パシフィック薬局　南郷店,0030024,札幌市白石区本郷通13丁目南4番27号ムトウビル1階,011⁃862⁃4193,2023-10-23 15:00:00 UTC
8142708351784,5696322428125,3430005001427,ZC_IRYO,公益財団法人　北海道労働保健管理協会,公益財団法人　北海道労働保健管理協会　健診センター診療所,0030024,札幌市白石区本郷通3丁目南2番13号,011-862-5088,2023-10-23 15:00:00 UTC
6205764788504,4084761163366,7430001062295,ZC_IRYO,株式会社　エフアンドエス,本郷南調剤薬局,００３００２４,札幌市白石区本郷通10丁目南1-4,０１１－８６１－４３２０,2023-10-23 15:00:00 UTC
5424831796569,6451453479733,9430005002015,ZC_IRYO,医療法人社団　豊武会,医療法人社団　豊武会　幌東病院,0030024,札幌市白石区本郷通7丁目南4番30号,０１１－８６１－４１２１,2023-10-23 15:00:00 UTC
1904431162961,6140511233555,1430005002063,MODIFICATION,医療法人社団　みどり内科クリニック,医療法人社団　みどり内科クリニック,0030024,札幌市白石区本郷通13丁目南4-27ムトウビル2階,011-866-4563,2023-10-23 15:00:00 UTC
3763631846560,9020283263620,6430005011877,ZC_IRYO,医療法人社団萌クリニック,萌クリニック,0030024,札幌市白石区本郷通13丁目南4-27ムトウビル3階,011-862-0020,2023-10-23 15:00:00 UTC
1269796500708,9931730135171,3430005010717,ZC_IRYO,医療法人社団　佐分利内科医院,医療法人社団　佐分利内科医院,0030024,札幌市白石区本郷通10丁目南1番23号,011-864-1751,2023-10-23 15:00:00 UTC
1393700210324,8198671875396,7430005001803,ZC_IRYO,医療法人社団　佐藤歯科医院,医療法人社団　佐藤歯科医院,0030025,札幌市白石区本郷通2丁目北5番15号本郷ビル2階,011-863-1996,2023-10-23 15:00:00 UTC
8152721870402,1187717977683,5430002018439,ZC_IRYO,有限会社　本通調剤薬局,本通調剤薬局,0030026,札幌市白石区本通9丁目南5番5号,011-862-7885,2023-10-23 15:00:00 UTC
1336117424525,1286582737960,2430005001865,ZC_IRYO,医療法人社団フクロウ会,さっぽろ白石皮膚科クリニック,0030026,札幌市白石区本通9丁目南5番11号, 011-861-1212 ,2023-10-23 15:00:00 UTC
8786586285391,6045294513093,8430002041371,ZC_IRYO,有限会社あけぼの,南本通調剤薬局,0030026,札幌市白石区本通8丁目南1番34号,011-867-9011,2023-10-23 15:00:00 UTC
9338025836524,5595627928102,6430005001820,ZC_IRYO,医療法人信佑会　吉田記念病院,医療法人　信佑会　吉田記念病院,００３００２６,札幌市白石区本通2丁目南5番10号,０１１－８６４－２１２５,2023-10-23 15:00:00 UTC
4988760536144,9343892267959,9430005001462,ZC_IRYO,社会医療法人　医翔会,社会医療法人　医翔会　札幌白石記念病院,0030026,札幌市白石区本通8丁目南1番10号,011-863-5151,2023-10-23 15:00:00 UTC
6467387484032,5571053078617,7430001069398,ZC_IRYO,株式会社アインファーマシーズ,アイン薬局白石店,００３００２６,札幌市白石区本通8丁目南1番8号,011-860-8755,2023-10-23 15:00:00 UTC
9936677332976,5450377586987,9430002041577,ZC_IRYO,有限会社　クレイン薬局,有限会社　クレイン薬局,００３００２６,札幌市白石区本通11丁目南1番12号, 011-861-5210 ,2023-10-23 15:00:00 UTC
6951244793475,9675988086427,5430005010723,ZC_IRYO,公益財団法人北海道結核予防会,公益財団法人北海道結核予防会　札幌市職員共済組合健康管理センター健診所,0030026,札幌市白石区本通16丁目南4番26号,011-866-3802,2023-10-23 15:00:00 UTC
2866750329813,6197706500540,4430005006367,ZC_IRYO,医療法人社団　上,ふじた眼科クリニック,００３００２６,札幌市白石区本通1丁目南1番13号 雄健1階,011-868-6666,2023-10-23 15:00:00 UTC
1668456810429,1889149984050,1430002031296,ZC_IRYO,有限会社　エリム,エリム薬局　白石店,0030026,札幌市白石区本通1丁目南1番13号,011-868-3822,2023-10-23 15:00:00 UTC
8150197464693,2747339613083,4430005003380,ZC_IRYO,医療法人社団　渡辺一彦小児科医院,医療法人社団　渡辺一彦小児科医院,0030026,札幌市白石区本通1丁目南1番13号雄健2F,011-865-8688,2023-10-23 15:00:00 UTC
6555470588259,1834295445542,1430005001445,ZC_IRYO,社会医療法人恵佑会,社会医療法人恵佑会札幌病院,００３００２６,札幌市白石区本通9丁目南1番1号,011-863-2101,2023-10-23 15:00:00 UTC
8152721870402,4870458903615,5430002018439,MODIFICATION,有限会社　本通調剤薬局,カトレア薬局,0030026,札幌市白石区本通2丁目南4番20号,011⁃860⁃6711,2023-10-23 15:00:00 UTC
6980776867153,2156732777972,6430005013353,MODIFICATION,医療法人社団　白石本通り泌尿器科,医療法人社団　白石本通り泌尿器科,0030027,札幌市白石区本通6丁目北2番1号,011-868-1145,2023-10-23 15:00:00 UTC
9799924278123,9698307591862,7000020010006,ZC_IRYO,北海道,北海道立　精神保健福祉センター,0030027,札幌市白石区本通16丁目北6番34号,011⁃864⁃7121,2023-10-23 15:00:00 UTC
8444367346845,1833644037028,4430005012241,ZC_IRYO,一般社団法人　３９会,星野泌尿器科,0030027,札幌市白石区本通2丁目北3番8号, 011-864-3911 ,2023-10-23 15:00:00 UTC
2511516458146,8601488509561,4430005004370,ZC_IRYO,医療法人社団　小川医院,医療法人社団　小川医院,0030027,札幌市白石区本通16丁目北11-14, 011-864-7995 ,2023-10-23 15:00:00 UTC
6555470588259,3135966795566,1430005001445,ZC_IRYO,社会医療法人　恵佑会,社会医療法人　恵佑会第２病院,0030027,札幌市白石区本通13丁目北7番1号,011-863-2111,2023-10-23 15:00:00 UTC
5339710529407,1389986453968,7430002010113,ZC_IRYO,有限会社白石調剤薬局,有限会社白石調剤薬局ファーマシー本通り,0030027,札幌市白石区本通6丁目北2番1号SN6ビル1階,011-862-7915,2023-10-23 15:00:00 UTC
5231470236953,1505730751641,3430005001575,ZC_IRYO,医療法人社団　大橋眼科,医療法人社団　大橋眼科,0030027,札幌市白石区本通6丁目北1番1号,011-864-4656,2023-10-23 15:00:00 UTC
4137909947970,5862443767654,7430001020476,ZC_IRYO,札幌臨床検査センター株式会社,ノルデン薬局　白石店,0030027,札幌市白石区本通13丁目北1番11号,011-867-6511,2023-10-23 15:00:00 UTC
5599023834715,8996409810144,8430005013987,ZC_IRYO,医療法人聖桜会,医療法人　聖桜会　しろいし中央歯科,0030028,札幌市白石区平和通2丁目南2-2,011⁃865⁃4614,2023-10-23 15:00:00 UTC
1949914410986,3381597600513,3430005010758,ZC_IRYO,公益社団法人　北海道勤労者医療協会,勤医協平和通りクリニック,0030028,札幌市白石区平和通り7丁目南5-1,011-864-0912,2023-10-23 15:00:00 UTC
9140384859543,7003491860325,4430002027589,ZC_IRYO,有限会社　漢方寿福堂,つばさ薬局,0030028,札幌市白石区平和通9丁目南3番25号,011-862-1810,2023-10-23 15:00:00 UTC
9763547856811,8889214810761,4430005002003,ZC_IRYO,医療法人社団　平和通り歯科医院,医療法人社団　平和通り歯科医院,0030028,札幌市白石区平和通11丁目南3番5号,011-866-2288,2023-10-23 15:00:00 UTC
4875128486073,3343253456429,1430001027964,ZC_IRYO,株式会社オストジャパングループ,ドラッグセイムス平和通薬局,００３００２８,札幌市白石区平和通1丁目南2番3号, 011-867-4193 ,2023-10-23 15:00:00 UTC
4471623833218,3744544720894,6430005011893,ZC_IRYO,医療法人社団輝望会,いろは診療所,００３００２８,札幌市白石区平和通4丁目南1番7号ラベンダー白石701号,011-868-9100,2023-10-23 15:00:00 UTC
3746370655924,7972649173144,5430001065787,ZC_IRYO,株式会社　あお薬局,あお薬局　白石店,0030029,札幌市白石区平和通3丁目北3番1号,011-374-5774,2023-10-23 15:00:00 UTC
3984592203230,9942405535151,3430005003324,ZC_IRYO,医療法人社団　白優会　三好プリベント歯科,医療法人社団　白優会　三好プリベント歯科,0030029,札幌市白石区平和通3丁目北5番22号,011-863-1122,2023-10-23 15:00:00 UTC
4295031579135,9637960045077,5430001028991,ZC_IRYO,株式会社　あおば調剤薬局,あおば薬局　平和通店,0030029,札幌市白石区平和通5丁目北11番23号,011-866-3311,2023-10-23 15:00:00 UTC
2658936091734,6549066387013,5430005001516,ZC_IRYO,社会医療法人柏葉会,社会医療法人柏葉会　白石中央病院,0030029,札幌市白石区平和通3丁目北2番3号,011-861-8171,2023-10-23 15:00:00 UTC
2445175384857,9992220279404,2430001010259,ZC_IRYO,狸小路山県薬局　株式会社,平和通調剤薬局,0030029,札幌市白石区平和通2丁目北8番19号,011-866-6325,2023-10-23 15:00:00 UTC
9720046639523,5603506508219,6430005010516,ZC_IRYO,医療法人平和の森耳鼻咽喉科クリニック,医療法人平和の森耳鼻咽喉科クリニック,0030029,札幌市白石区平和通5丁目北11番20号,011-846-3387,2023-10-23 15:00:00 UTC
5193513579909,2223636481995,6430005010821,ZC_IRYO,公益財団法人　北海道精神保健推進協会,こころのリカバリー総合支援センター,0030029,札幌市白石区平和通17丁目北1番13号,011-861-6353,2023-10-23 15:00:00 UTC
6784725784855,2442353939360,1430001005219,MODIFICATION,株式会社なの花北海道,なの花薬局　菊水店,0030801,札幌市白石区菊水1条1丁目3-34,０１１－８１３－６３３０,2023-10-23 15:00:00 UTC
1889642737526,9110850930551,3430005001699,ZC_IRYO,医療法人社団　木村医院,医療法人社団　木村医院,0030801,札幌市白石区菊水1条1丁目3番33号,011-811-4403,2023-10-23 15:00:00 UTC
8276561744971,6651805771442,,ZC_IRYO,医療法人社団　一心会,菊水アロー歯科,0030802,札幌市白石区菊水2条1丁目8-18第3鈴興ハイム1階,011-812-6480,2023-10-23 15:00:00 UTC
8350717157286,1744979876384,4430005003991,ZC_IRYO,医療法人社団　醫王会,医療法人社団　醫王会　緑の街診療所菊水分院,0030802,札幌市白石区菊水2条1丁目7番7号,011-825-9912,2023-10-23 15:00:00 UTC
6020626747360,7705069878285,6420002001196,ZC_IRYO,有限会社ケイエスメディカル,ソラリス薬局菊水店,0030803,札幌市白石区菊水3条2丁目ニューギン札幌ビル1F,011-827-6622,2023-10-23 15:00:00 UTC
4839335664619,1456811432283,7380001007784,ZC_IRYO,株式会社コスモファーマ,コスモ調剤薬局　菊水店,0030803,札幌市白石区菊水3条2丁目5-20,011-816-1822,2023-10-23 15:00:00 UTC
3351171926446,3639430524450,7430005014672,ZC_IRYO,医療法人社団ｗａｌｌ４０２,ＨＯＭＥＣＡＲＥＣＬＩＮＩＣＮーＣＯＮＣＥＰＴ,0030803,札幌市白石区菊水3条1丁目2-14-B402,０８０－８０４９－０１７７,2023-10-23 15:00:00 UTC
5526435591142,4665165893577,8430005005290,ZC_IRYO,医療法人社団　菊水整形外科,医療法人社団　菊水整形外科,0030803,札幌市白石区菊水3条2丁目13番1号,011⁃816⁃1515,2023-10-23 15:00:00 UTC
6071322783546,7011655199055,9010001064753,ZC_IRYO,日本調剤株式会社,日本調剤　菊水三条薬局,0030803,札幌市白石区菊水3条2丁目3番16号, 011-814-3258 ,2023-10-23 15:00:00 UTC
5060182386095,7634459719129,6021005003294,ZC_IRYO,医療法人社団立靖会,しろくま歯科,0030803,札幌市白石区菊水3条4丁目2番7号樋口ビル2階,011-376-1150,2023-10-23 15:00:00 UTC
8551122887773,5804651890196,4430005004453,ZC_IRYO,医療法人　北海道勤労者歯科医療協会,勤医協札幌歯科診療所,0030804,札幌市白石区菊水4条1丁目7番25号,011-823-2596,2023-10-23 15:00:00 UTC
3050252622956,5380551592845,8010001129202,ZC_IRYO,クラフト株式会社,さくら薬局　札幌菊水店,0030804,札幌市白石区菊水4条2丁目1番3号, 011-821-2408 ,2023-10-23 15:00:00 UTC
4599697485565,5718159744359,1013205001281,ZC_IRYO,独立行政法人国立病院機構,独立行政法人国立病院機構　北海道がんセンター,0030804,札幌市白石区菊水4条2丁目3番54号,０１１－８１１－９１１１,2023-10-23 15:00:00 UTC
7424579951348,8314387746071,2430001022428,ZC_IRYO,株式会社　北海道保健企画,菊水ひまわり薬局,００３０８０４,札幌市白石区菊水4条1丁目8番17号,011-816-4193,2023-10-23 15:00:00 UTC
4155346855091,7499984131635,2430002005588,ZC_IRYO,有限会社　菊水六薬会,病院前調剤薬局,0030804,札幌市白石区菊水4条2丁目2番27号,０１１－８１２－９７５８,2023-10-23 15:00:00 UTC
6071322783546,3181542322328,9010001064753,ZC_IRYO,日本調剤株式会社,日本調剤　菊水四条薬局,0030804,札幌市白石区菊水4条2丁目2番21号,０１１－８１３－０５１０,2023-10-23 15:00:00 UTC
7030421446281,9940876471292,2430005001717,ZC_IRYO,医療法人社団健守会　札幌でむら小児クリニック,医療法人社団健守会　札幌でむら小児クリニック,0030805,札幌市白石区菊水5条2丁目2-5,011-826-5525,2023-10-23 15:00:00 UTC
4920313639730,2780183917848,8130001011298,ZC_IRYO,株式会社トラスト,ぺネシア調剤薬局,0030806,札幌市白石区菊水6条2丁目1番地34号,011-837-3773,2023-10-23 15:00:00 UTC
1551567920675,4609352386523,4430005003315,ZC_IRYO,医療法人社団弘智会　おおつぼ歯科クリニック,医療法人社団弘智会　おおつぼ歯科クリニック,0030811,札幌市白石区菊水上町1条2丁目100番50,011-823-8585,2023-10-23 15:00:00 UTC
2119334317783,3226539793432,1430005003276,ZC_IRYO,医療法人社団　にれの杜クリニック,医療法人社団　にれの杜クリニック,0030814,札幌市白石区菊水上町4条2丁目359番1,０１１－８３３－１１２０,2023-10-23 15:00:00 UTC
3887959014591,6727382605904,,ZC_IRYO,有限会社しらかば薬局,有限会社しらかば薬局白石店,0030814,札幌市白石区菊水上町4条2丁目359-7,011-799-1890,2023-10-23 15:00:00 UTC
4978754636558,2079452746937,4430005001459,ZC_IRYO,医療法人　菊郷会,医療法人菊郷会　札幌センチュリー病院,0030825,札幌市白石区菊水元町5条3丁目5番10号,011-871-1121,2023-10-23 15:00:00 UTC
9924075660009,2261495998620,4430005011879,ZC_IRYO,医療法人社団みんなのこどもクリニック,みんなのこどもクリニック,0030825,札幌市白石区菊水元町5条2丁目2番4号Ucラポール1階,011⁃876⁃1717,2023-10-23 15:00:00 UTC
1550201815869,1438487798080,5430005005483,ZC_IRYO,医療法人社団　薫風会青空たけうち内科クリニック,医療法人社団　薫風会青空たけうち内科クリニック,0030825,札幌市白石区菊水元町5条2丁目2番40号,011-872-3558,2023-10-23 15:00:00 UTC
6462033616251,6887987257134,2430002040494,ZC_IRYO,有限会社シャクティ,ラスカル調剤薬局　菊水元町店,0030825,札幌市白石区菊水元町5条2丁目8番3号,011-887-7875,2023-10-23 15:00:00 UTC
2927394880183,3210660878941,6430001058245,MODIFICATION,株式会社　多田メディカル・Ｆ,ただ薬局　菊水元町店,0030825,札幌市白石区菊水元町5条2丁目2番5号,011-876-1600,2023-10-23 15:00:00 UTC
5035306319747,4092741202271,4430005001707,ZC_IRYO,医療法人社団　弘恵会,医療法人社団　弘恵会　整形外科内科沢口医院,0030832,札幌市白石区北郷2条4丁目6番12号,011-872-2001,2023-10-23 15:00:00 UTC
1717950349635,1444264863132,1430005002047,ZC_IRYO,医療法人社団　まつもと小児科,医療法人社団　まつもと小児科,0030832,札幌市白石区北郷2条4丁目3番5号北郷メディカルビル2F,011-871-2277,2023-10-23 15:00:00 UTC
2695869660275,9370742279136,9430005001801,ZC_IRYO,医療法人社団世紀会　とくしま歯科医院,医療法人社団世紀会　とくしま歯科医院,0030832,札幌市白石区北郷2条5丁目6番10号,011-875-2333,2023-10-23 15:00:00 UTC
6361902757254,6051451780476,3430005001947,ZC_IRYO,医療法人社団　野村内科医院,医療法人社団　野村内科医院,００３０８３２,札幌市白石区北郷2条1丁目2-4,011-873-3476,2023-10-23 15:00:00 UTC
6071322783546,7153555258277,9010001064753,ZC_IRYO,日本調剤株式会社,日本調剤　北郷薬局,0030832,札幌市白石区北郷2条4丁目3番5号北郷メディカル1F, 011-871-0011 ,2023-10-23 15:00:00 UTC
5060984339204,4621455844381,1430002015514,ZC_IRYO,株式会社　バイタル,マロン薬局,００３０８３２,札幌市白石区北郷2条1丁目2番4号, 011-875-2161 ,2023-10-23 15:00:00 UTC
4461852989910,3520068218697,9430005003517,ZC_IRYO,医療法人社団　北郷眼科クリニック,医療法人社団　北郷眼科クリニック,0030832,札幌市白石区北郷2条4丁目3番5号北郷メディカルビル3階,011-879-4560,2023-10-23 15:00:00 UTC
3354899001674,7477165876606,2430005001683,ZC_IRYO,医療法人社団　北風歯科医院,医療法人社団　北風歯科医院,0030832,札幌市白石区北郷2条12丁目7-8,011-872-0311,2023-10-23 15:00:00 UTC
7967210336506,2689752536827,1430001074362,ZC_IRYO,ポポヤクコーポレーション株式会社,ピリカ北郷薬局,００３０８３２,札幌市白石区北郷2条4丁目6番7号,011-555-7544,2023-10-23 15:00:00 UTC
5339710529407,4517590704080,7430002010113,ZC_IRYO,有限会社　白石調剤薬局,北郷通調剤薬局,0030833,札幌市白石区北郷3条8丁目5番38号,011⁃873⁃8080,2023-10-23 15:00:00 UTC
4363652202904,5450379175280,1430002028565,ZC_IRYO,有限会社　イチフジ,イチフジ薬局　北郷店,0030833,札幌市白石区北郷3条5丁目1番20号, 011-873-3000 ,2023-10-23 15:00:00 UTC
2212161347057,4072446786245,5430005002010,ZC_IRYO,医療法人社団ふるげん内科・循環器クリニック,医療法人社団ふるげん内科・循環器クリニック,0030833,札幌市白石区北郷3条4丁目6番1号,011-872-0088,2023-10-23 15:00:00 UTC
4363652202904,4057965202147,1430002028565,ZC_IRYO,有限会社イチフジ,イチフジ薬局・北白石店,0030833,札幌市白石区北郷3条4丁目5番4号,０１１－８７６－１５００,2023-10-23 15:00:00 UTC
5148649098267,7338876157908,5430005003371,ZC_IRYO,医療法人社団宏仁会,医療法人社団宏仁会北郷皮膚科医院,0030833,札幌市白石区北郷3条8丁目5番28号,011-871-1123,2023-10-23 15:00:00 UTC
3635238664927,3567479607894,1430005001668,ZC_IRYO,医療法人社団　北郷整形外科医院,医療法人社団　北郷整形外科医院,0030833,札幌市白石区北郷3条8丁目5番33号,011-871-1011,2023-10-23 15:00:00 UTC
3614697067547,4858243674436,3430001028663,ZC_IRYO,コアファルマ株式会社,コア薬局　北郷店,0030833,札幌市白石区北郷3条8丁目5番27号, 011-873-1741 ,2023-10-23 15:00:00 UTC
4860834420211,1350251757706,8430005003690,ZC_IRYO,医療法人社団　北都眼科,医療法人社団　北都眼科,0030833,札幌市白石区北郷3条8丁目5番36号, 011-874-4011 ,2023-10-23 15:00:00 UTC
6824221068961,8615153973042,6430005013072,ZC_IRYO,医療法人社団ありがとうの風在宅療養支援診療所くまさんクリニック,医療法人社団ありがとうの風　在宅療養支援診療所くまさんクリニック,0030834,札幌市白石区北郷4条8丁目4番6号,011-873-0903,2023-10-23 15:00:00 UTC
6190276076589,1328036997096,,MODIFICATION,医療法人社団　北翔会,医療法人社団北翔会　北都歯科クリニック,0030834,札幌市白石区北郷4条12丁目24番5号,０１１－８７５－４６１８,2023-10-23 15:00:00 UTC
8702896982431,8372381619701,4430005011094,ZC_IRYO,医療法人社団　北白石総合歯科,北白石総合歯科,0030837,札幌市白石区北郷7条3丁目8番15号第10北海マンション1F,０１１－８７２－３９６６,2023-10-23 15:00:00 UTC
1844667241268,4619007907398,8430005003988,ZC_IRYO,医療法人社団　いわはら歯科,医療法人社団　いわはら歯科,0030837,札幌市白石区北郷7条7丁目4番15号,011-874-7171,2023-10-23 15:00:00 UTC
4363652202904,5124792911747,1430002028565,ZC_IRYO,有限会社　イチフジ,イチフジ薬局・川北店,００３０８５２,札幌市白石区川北2条3丁目2-1,011-879-3003,2023-10-23 15:00:00 UTC
6730443581900,4481447332434,8430005001678,ZC_IRYO,医療法人社団　川北内科循環器科医院,医療法人社団　川北内科循環器科医院,0030852,札幌市白石区川北2条3丁目2番25号,011-872-4533,2023-10-23 15:00:00 UTC
3642242476907,8418286958560,6430005000599,ZC_IRYO,社会福祉法人　北翔会,医療福祉センター札幌あゆみの園,0030859,札幌市白石区川北2254番地1,011-879-5555,2023-10-23 15:00:00 UTC
6089665021889,3896816964814,6430005001548,ZC_IRYO,医療法人社団大屋医院,医療法人社団　大屋医院,0030862,札幌市白石区川下2条7丁目2番5号,011⁃873⁃1123,2023-10-23 15:00:00 UTC
7209047749926,9425475402020,8430001031398,ZC_IRYO,株式会社クリオネ,クリオネ川下薬局,００３０８６２,札幌市白石区川下2条4丁目2番22号グラン市川1階,011-879-2633,2023-10-23 15:00:00 UTC
4512792161637,8818336244939,3430002030263,ZC_IRYO,有限会社　すばる調剤薬局,有限会社　すばる調剤薬局,0030862,札幌市白石区川下2条6丁目2番23号,011-873-4250,2023-10-23 15:00:00 UTC
2740987363585,2285738186274,5430005005186,ZC_IRYO,医療法人社団道修会,医療法人社団道修会カワシモ歯科診療所,００３０８６２,札幌市白石区川下2条4丁目2-7,011-874-6481,2023-10-23 15:00:00 UTC
4978754636558,4341134948933,4430005001459,ZC_IRYO,医療法人菊郷会,医療法人菊郷会　石橋胃腸病院,0030863,札幌市白石区川下3条4丁目2番1号, 011-872-5811 ,2023-10-23 15:00:00 UTC
7897711596100,5900749923761,4430002032110,ZC_IRYO,有限会社ツーエイ,クルミ薬局厚別通店,0030864,札幌市白石区川下4条5丁目4番13号,011⁃879⁃3655,2023-10-23 15:00:00 UTC
9932237346296,9782893581146,9430001020202,ZC_IRYO,株式会社サッポロドラッグストアー,サツドラ薬局　札幌中央調剤センター店,0030869,札幌市白石区川下2165番地1,011-799-4906,2023-10-23 15:00:00 UTC
9628429826183,1967186194228,6430005001795,ZC_IRYO,社会医療法人共栄会,社会医療法人共栄会　札幌トロイカ病院,0030869,札幌市白石区川下577番地8,011-873-1221,2023-10-23 15:00:00 UTC
7799971243861,6710229846860,5430005001706,ZC_IRYO,医療法人社団幸仁会　札幌ロイヤル病院,医療法人社団　幸仁会　札幌ロイヤル病院,0030875,札幌市白石区米里5条1丁目3番30号,011-872-0121,2023-10-23 15:00:00 UTC
1949914410986,3955033772834,3430005010758,ZC_IRYO,公益社団法人　北海道勤労者医療協会,勤医協札幌病院,0038510,札幌市白石区菊水4条1丁目9番22号,011-811-2246,2023-10-23 15:00:00 UTC
1893553185227,3685018064719,6430005001523,ZC_IRYO,医療法人　東札幌病院,医療法人　東札幌病院,0038585,札幌市白石区東札幌3条3丁目7番35号,011-812-2311,2023-10-23 15:00:00 UTC
4393502934880,5247530830700,,ZC_IRYO,株式会社ともゆきファルマシア,アルセ調剤薬局,００４０００１,札幌市厚別区厚別東1条5丁目18-15,011-809-5555,2023-10-23 15:00:00 UTC
7300924326161,7977012469667,6430005012446,ZC_IRYO,医療法人　亘史会,もみじ台クリニック,0040001,札幌市厚別区厚別東1条5丁目18番15号,011-807-0436,2023-10-23 15:00:00 UTC
3880883076796,3547936573611,7430005003270,ZC_IRYO,医療法人中山会,医療法人中山会　新札幌パウロ病院,0040002,札幌市厚別区厚別東2条6丁目4番1号,011⁃897⁃4111,2023-10-23 15:00:00 UTC
3614697067547,5221331840405,3430001028663,ZC_IRYO,コアファルマ株式会社,コア薬局　厚別店,0040004,札幌市厚別区厚別東4条2丁目1番33号, 011-809-7320 ,2023-10-23 15:00:00 UTC
6505178277837,5573904136385,7430005001472,MODIFICATION,医療法人社団　翔嶺館,医療法人社団　翔嶺館　新札幌聖陵ホスピタル,0040004,札幌市厚別区厚別東4条2丁目1番30号,011⁃898⁃2151,2023-10-23 15:00:00 UTC
5832086613960,8472329060400,4430005001673,ZC_IRYO,医療法人社団　小野幌医院,医療法人社団　小野幌医院,0040004,札幌市厚別区厚別東4条4丁目5番15号,011-897-8822,2023-10-23 15:00:00 UTC
8097703537961,1413827209985,4430005000584,ZC_IRYO,社会福祉法人　楡の会,社会福祉法人　楡の会　こどもクリニック,0040007,札幌市厚別区厚別町下野幌49番地,０１１－８９８－３９３４,2023-10-23 15:00:00 UTC
4044571142997,5764816884185,,ZC_IRYO,ｒｅｇｉｏｎ株式会社,リジョン薬局　厚別,0040011,札幌市厚別区もみじ台東4丁目2-6,０１１－８９７－１４４０,2023-10-23 15:00:00 UTC
3577548817047,9310357034146,3430005001773,ZC_IRYO,医療法人社団秀和会　ファミリークリニックこころ,医療法人社団秀和会　ファミリークリニックこころ,0040011,札幌市厚別区もみじ台東4丁目2番7号,011-897-0053,2023-10-23 15:00:00 UTC
8551122887773,6176847878140,4430005004453,ZC_IRYO,医療法人　北海道勤労者歯科医療協会,勤医協もみじ台歯科診療所,0040012,札幌市厚別区もみじ台南1丁目2番10号,011-897-9033,2023-10-23 15:00:00 UTC
1568104066679,5121236519201,8430005001703,ZC_IRYO,医療法人社団　恒仁会,医療法人社団　恒仁会　くまがい小児科,0040013,札幌市厚別区もみじ台西6丁目1番7号,011-897-1118,2023-10-23 15:00:00 UTC
1949914410986,1708697732859,3430005010758,ZC_IRYO,公益社団法人　北海道勤労者医療協会,勤医協　もみじ台内科診療所,0040013,札幌市厚別区もみじ台西6丁目1番4号,011-897-5051,2023-10-23 15:00:00 UTC
4875128486073,1422059176290,1430001027964,ZC_IRYO,株式会社オストジャパングループ,オスト薬局もみじ台店,0040014,札幌市厚別区もみじ台北6丁目1番30号,011-807-8830,2023-10-23 15:00:00 UTC
1951829622359,3197381113806,9430005003558,ZC_IRYO,医療法人社団悠仁会,医療法人社団悠仁会羊ヶ丘病院附属リハビリクリニック,0040021,札幌市厚別区青葉町11丁目4番1号,011⁃351⁃0880,2023-10-23 15:00:00 UTC
1951829622359,3843667704648,9430005003558,ZC_IRYO,医療法人社団悠仁会,医療法人社団　悠仁会　羊ヶ丘病院,0040021,札幌市厚別区青葉町3丁目1番10号,011-351-2211,2023-10-23 15:00:00 UTC
6696037893258,4924925778047,5430005001607,ZC_IRYO,医療法人社団　青葉産婦人科クリニック,医療法人社団　青葉産婦人科クリニック,0040021,札幌市厚別区青葉町6丁目1番9号,011-893-3207,2023-10-23 15:00:00 UTC
5211706896392,5501273939654,,ZC_IRYO,医療法人社団　北央病院,勇気会医療法人　北央病院,0040021,札幌市厚別区青葉町11丁目2番10号,０１１－８９２－８５３１,2023-10-23 15:00:00 UTC
2348121686989,2892954277783,8430005010530,ZC_IRYO,医療法人社団　凛未燿会,たいし歯科クリニック,0040021,札幌市厚別区青葉町8丁目5番29号,０１１－８０１－８１８１,2023-10-23 15:00:00 UTC
4476557248370,9454891722040,9430005011288,ZC_IRYO,医療法人　Ｃｉａｏ,しのぐちこども歯科きょうせい歯科,0040022,札幌市厚別区厚別南1丁目11番10号ガーデンハイツひばりが丘1F,011⁃896⁃2240,2023-10-23 15:00:00 UTC
7736174419484,6412019313214,1430001010672,ZC_IRYO,株式会社ツルハ,調剤薬局ツルハドラッグひばりが丘店,００４００２２,札幌市厚別区厚別南2丁目10番10号,011-801-2268,2023-10-23 15:00:00 UTC
3776212436400,3972870364252,6430005001481,ZC_IRYO,社会医療法人貞仁会,社会医療法人貞仁会　あおば内科クリニック,0040022,札幌市厚別区厚別南7丁目2番11号,011-891-1112,2023-10-23 15:00:00 UTC
1646204604653,1050195393556,8430005012923,ZC_IRYO,医療法人社団みらい会,ゆっかデンタルオフィス,0040031,札幌市厚別区上野幌1条1丁目16番3号,０１１－８８７－７２９５,2023-10-23 15:00:00 UTC
4875128486073,9314481467216,1430001027964,MODIFICATION,株式会社オストジャパングループ,サン調剤薬局,0040031,札幌市厚別区上野幌1条3丁目1番7号,011-896-3355,2023-10-23 15:00:00 UTC
4159990489607,2115787515579,5430005003628,ZC_IRYO,医療法人社団圭桃会,札幌おおぞらクリニック,0040031,札幌市厚別区上野幌1条3丁目1-7,011-896-7577,2023-10-23 15:00:00 UTC
6784725784855,8702487495945,1430001005219,ZC_IRYO,株式会社なの花北海道,なの花薬局　上野幌店,0040032,札幌市厚別区上野幌2条2丁目3番10号,011-896-1193,2023-10-23 15:00:00 UTC
5000955411283,3256002611884,5430005003702,ZC_IRYO,医療法人社団　アカシア会いたや内科消化器科,医療法人社団　アカシア会　いたや内科消化器科,0040033,札幌市厚別区上野幌3条3丁目2番1号,011-896-2828,2023-10-23 15:00:00 UTC
1877502475482,2388289156895,5430002027935,ZC_IRYO,有限会社　こもりく,中央通薬局,００４００３３,札幌市厚別区上野幌3条3丁目2番2号,011-891-8931,2023-10-23 15:00:00 UTC
6632791002093,3458150742602,6430005014665,ZC_IRYO,医療法人　和,医療法人　和　エンクル歯科クリニック,0040033,札幌市厚別区上野幌3条4丁目19番26号ホクノー上野幌ビル2階,011-892-0300,2023-10-23 15:00:00 UTC
5071600763000,2492870236336,4430005001715,ZC_IRYO,医療法人社団圭光会　いなむら皮膚科医院,医療法人社団　圭光会　いなむら皮膚科医院,0040033,札幌市厚別区上野幌3条4丁目9-14, 011-891-3401 ,2023-10-23 15:00:00 UTC
8126431958475,1339401744886,,ZC_IRYO,有限会社　クラーレ,ももたろう薬局,0040033,札幌市厚別区上野幌3条4,011-895-0505,2023-10-23 15:00:00 UTC
7145941377514,4546734827216,1430001005144,ZC_IRYO,株式会社　クライマー,クライマーおおやち薬局,0040041,札幌市厚別区大谷地東2丁目3番37号,011-801-1700,2023-10-23 15:00:00 UTC
6071322783546,8750969652989,9010001064753,ZC_IRYO,日本調剤　株式会社,日本調剤　大谷地薬局,0040041,札幌市厚別区大谷地東4丁目1番2号,011-893-1673,2023-10-23 15:00:00 UTC
8386688614377,4108096345946,6430005001928,ZC_IRYO,医療法人社団夏井坂内科クリニック,医療法人社団　夏井坂内科クリニック,0040041,札幌市厚別区大谷地東4丁目1番2号大谷地ターミナルメディカルビル,011-893-1678,2023-10-23 15:00:00 UTC
4084344724239,1751157128585,4430001023408,ZC_IRYO,株式会社　丸高三信堂,三信調剤薬局　大谷地店,0040041,札幌市厚別区大谷地東5丁目1番43号, 011-893-1193 ,2023-10-23 15:00:00 UTC
2726826786932,3223178375251,6430005001606,ZC_IRYO,医療法人社団　伊東皮フ科クリニック,医療法人社団　伊東皮フ科クリニック,００４００４１,札幌市厚別区大谷地東4丁目1番2号, 011-896-9112 ,2023-10-23 15:00:00 UTC
2554228595241,2657994402161,5430005001441,MODIFICATION,医療法人　大谷地共立眼科,医療法人　大谷地共立眼科,００４００４１,札幌市厚別区大谷地東5丁目1番38号, 011-892-7272 ,2023-10-23 15:00:00 UTC
6313477358651,9839868956726,4430005004899,ZC_IRYO,医療法人社団　たさき子ども相談診療室,医療法人社団　たさき子ども相談診療室,0040041,札幌市厚別区大谷地東4丁目2-20第2西村ビル1階,011-802-2888,2023-10-23 15:00:00 UTC
5683286715651,6778780096063,3430005001476,ZC_IRYO,医療法人　重仁会,医療法人　重仁会　大谷地病院,００４００４１,札幌市厚別区大谷地東5丁目7番10号,011-891-3737,2023-10-23 15:00:00 UTC
1107694066648,3132830392507,1180001080601,ZC_IRYO,株式会社北海道ケミカル,ケミカル薬局　大谷地店,００４００４１,札幌市厚別区大谷地東5丁目7番2号, 011-801-2201 ,2023-10-23 15:00:00 UTC
8959189149561,8703089685242,1120005005403,ZC_IRYO,医療法人　徳洲会,医療法人徳洲会　札幌徳洲会病院,0040041,札幌市厚別区大谷地東1丁目1番1号,011-890-1110,2023-10-23 15:00:00 UTC
8680458079408,1877901380393,6430005003742,ZC_IRYO,医療法人社団　おおやち耳鼻咽喉科クリニック,医療法人社団　おおやち耳鼻咽喉科クリニック,0040041,札幌市厚別区大谷地東2丁目3番35号,011-896-4187,2023-10-23 15:00:00 UTC
9280183158798,7692550267965,4430005003827,ZC_IRYO,医療法人社団　パークシティ歯科診療所,医療法人社団　パークシティ歯科診療所,0040041,札幌市厚別区大谷地東3丁目3番20号, 011-895-2612 ,2023-10-23 15:00:00 UTC
1315602225384,7584855891663,8430005004160,ZC_IRYO,医療法人社団　大谷地形成外科美容外科クリニック,大谷地形成外科美容外科クリニック,0040041,札幌市厚別区大谷地東5丁目1-43,011-891-3388,2023-10-23 15:00:00 UTC
8848028667281,9703700371477,4430001024158,ZC_IRYO,株式会社日本ケミカル,プラム薬局　大谷地店,００４００４１,札幌市厚別区大谷地東5丁目6番10号,011-827-3000,2023-10-23 15:00:00 UTC
6071322783546,7733179247789,9010001064753,ZC_IRYO,日本調剤株式会社,日本調剤　大谷地東薬局,0040041,札幌市厚別区大谷地東2丁目5番15号,011-398-5192,2023-10-23 15:00:00 UTC
2910426055901,7850786638916,1430005001528,ZC_IRYO,医療法人　豊和会,医療法人豊和会　新札幌豊和会病院,0040041,札幌市厚別区大谷地東2丁目5番12号,011-893-7000,2023-10-23 15:00:00 UTC
9723957783290,6830842942762,,ZC_IRYO,医療法人社団慈想歯会　アリスト歯科,医療法人社団慈想歯会　アリスト歯科,0040042,札幌市厚別区大谷地西3丁目2番26号, 011-895-8841 ,2023-10-23 15:00:00 UTC
2193720236094,1352013781685,2430005010305,MODIFICATION,医療法人社団　育悠会,新札幌こども発達クリニック,0040051,札幌市厚別区厚別中央1条6丁目3番1号,011-893-1511,2023-10-23 15:00:00 UTC
8114827907687,3289685878774,9430005004143,ZC_IRYO,社会医療法人交雄会メディカル,交雄会新さっぽろ病院,0040051,札幌市厚別区厚別中央1条6丁目2-5,０１１－８０１－１２１２,2023-10-23 15:00:00 UTC
,,,,.,医療法人社団　景珠会　新宮訪問看護ステーション,,兵庫県たつの市新宮町井野原５３１－２,0791-75-3626,2023-10-17 14:25:00 UTC
,,,,CCR,せんだメディカルクリニック訪問リハビリテーション,,熊本市中央区島崎1丁目32-1,096-356-8223,2023-10-17 14:25:00 UTC
7895608720652,8634898389450,7140001080112,ZC_KAIGO,MDR,悠友倶楽部・うぐいすの森,,川西市鶯の森町9-17,072-756-6541,2023-10-17 14:25:00 UTC
,,,,MRC,訪問看護ステーション欅,,福島県郡山市富田町字十郎内38-1,024-983-9006,2023-10-17 14:25:00 UTC
7533652129896,7436159440081,8140001099911,ZC_KAIGO,SAM,デイサービス　ル・クール,,兵庫県姫路市四郷町見野990,079-252-0690,2023-10-17 14:25:00 UTC
,,,,凪,訪問介護ステーションさざなみ,,兵庫県神戸市長田区大日丘町3丁目15番10号大日丘サービス付き高齢者向け住宅,078-646-2636,2023-10-17 14:25:00 UTC
5764085886553,3023261310363,9011001066574,ZC_KAIGO,志,デイサービスこころざし神楽坂,,東京都新宿区矢来町100, 03-6280-8322 ,2023-10-17 14:25:00 UTC
8639763981235,6489689743302,6050001013098,ZC_KAIGO,手,まるふく介護保険サービス,,下稲吉2632-24,0299⁃59⁃0029,2023-10-17 14:25:00 UTC
8639763981235,2243030582309,6050001013098,ZC_KAIGO,手,居宅介護支援事業所　まるふく介護保険サービス,,茨城県かすみがうら市下稲吉2632-24,0299-59-0029,2023-10-17 14:25:00 UTC
8639763981235,2243030582309,6050001013098,ZC_KAIGO,手,まるふく介護保険サービス,,茨城県かすみがうら市下稲吉2632-24,0299⁃59⁃0029,2023-10-17 14:25:00 UTC
,,,,桜,桜,,岐阜県美濃市小倉山1571番地3, 0575-31-3001 ,2023-10-17 14:25:00 UTC
,,,,樹,ヘルパーステーション樹,,北海道札幌市中央区南17条西9丁目2番36号,011-512-5045,2023-10-17 14:25:00 UTC
7599344652206,5576292476970,4470001014056,ZC_KAIGO,英,デイサービスセンターだん,,香川県丸亀市川西町北1222-3,0877-35-8286,2023-10-17 14:25:00 UTC
7599344652206,1603664509912,4470001014056,ZC_KAIGO,英,デイサービスセンターだん垂水,,香川県丸亀市垂水町2897-1,0877-35-8801,2023-10-17 14:25:00 UTC
,,,,虹,ＳＵＮ居宅介護支援センター,,徳島県板野郡板野町大寺字楠ノ本１２９番地２,088-679-8427,2023-10-17 14:25:00 UTC
,,,,貫,デイサービスゆう,,愛知県田原市東赤石四丁目20番地, 0531-36-6820 ,2023-10-17 14:25:00 UTC
,,,,Enak,デイサービス　だるま,,東京都文京区千駄木３－４２－１６芹沢ビル　2階,03-3823-7705,2023-10-17 14:25:00 UTC
9638677833012,7180021151304,,ZC_KAIGO,FLAT,FLATDAYSERVICE,,滋賀県大津市馬場二丁目12番62号,077-523-3601,2023-10-17 14:25:00 UTC
6001881029292,9602876034524,5011601026196,ZC_KAIGO,Mate,訪問介護ステーションケアビリティ,,仲町2-9-6406,048-767-8514,2023-10-17 14:25:00 UTC
9183431522922,5225247524147,9210005009866,ZC_KAIGO,THCS,支援センターよりどころ,,福井県三方上中郡若狭町井ノ口第26号5番地の19サンポートスリーム203号,0770⁃62⁃1828,2023-10-17 14:25:00 UTC
2381214173616,5933461045703,,ZC_KAIGO,aina,リハビリデイサービスmana,,熊本県八代市松江町283-1,０９６５－３７－８８８１,2023-10-17 14:25:00 UTC
3191147548935,4658958114212,2120101065060,ZC_KAIGO,move,株式会社move,,大阪府泉大津市旭町7-15エフォールナガイ411号,0725-90-5876,2023-10-17 14:25:00 UTC
3191147548935,4658958114212,2120101065060,ZC_KAIGO,move,株式会社move,,大阪府泉大津市旭町7-15エフォールナガイ411号,0725⁃90⁃5876,2023-10-17 14:25:00 UTC
8429319055048,1411976527950,5040001117231,ZC_KAIGO,Amour,訪問看護ステーションAmour,,生実町2503-5,043-308-8533,2023-10-17 14:25:00 UTC
6896474222534,7490972474452,6430001081767,ZC_KAIGO,C.S.E,看護ステーションあいりす,,北海道札幌市白石区北郷２条２丁目2-36105,011⁃827⁃7466,2023-10-17 14:25:00 UTC
4436182827400,5683024272990,3290801027607,MANUAL_COLLECTION,COCCO,ほっとステーション・わらび,,植木1825-1,0949-36-3462,2023-10-17 14:25:00 UTC
2459894159392,7345386779301,,MANUAL_COLLECTION,COLOR,ケアぷらす,,大阪府大阪市東住吉区公園南矢田3-24-2,06⁃6690⁃0095,2023-10-17 14:25:00 UTC
,,,,EXILE,EXILE,,福島県いわき市佐糠町東１丁目１２－４, 0246-84-5647 ,2023-10-17 14:25:00 UTC
1149942149937,6909474191499,2330001022636,ZC_KAIGO,Steki,訪問看護ステーションCruto大矢野,,大矢野町中4467-4,0964-57-1122,2023-10-17 14:25:00 UTC
2362312591509,9841118004244,7120001187009,ZC_KAIGO,Trees,株式会社Trees,,船戸町3-24芦屋クインテス206,0797⁃69⁃7669,2023-10-17 14:25:00 UTC
1921194267467,7307945804247,2490001009163,ZC_KAIGO,WEEKS,デイサービスセンター　ウィークリハ,,高知県高知市南はりまや町一丁目3番7号サンコート南はりまや1階,088⁃821⁃9322,2023-10-17 14:25:00 UTC
,,,,lixas,lixasケアプラン,,千代田四丁目15-14CSPNAGOYA205号,052-211-9519,2023-10-17 14:25:00 UTC
8981792324289,2592257558067,8100001006714,ZC_KAIGO,(株)i,お福星,,長野県上高井郡小布施町大字小布施627番地36,026-274-5115,2023-10-17 14:25:00 UTC
,,,,CARICO,多世代型通所事業所　里,,滋賀県近江八幡市小田町79-16,0748-26-1050,2023-10-17 14:25:00 UTC
5040213554961,2714550175068,9170001012878,ZC_KAIGO,COLORS,なないろ訪問看護ステーション,,和歌山県和歌山市布施屋５５７ー１７,073⁃463⁃0319,2023-10-17 14:25:00 UTC
3681563900128,2832318098089,,ZC_KAIGO,HOMARE,訪問看護ステーションReafみやま,,福岡県みやま市瀬高町下庄613-1建設会館ビル105,0944-85-7104,2023-10-17 14:25:00 UTC
8179295774650,5987355163902,7350002009667,ZC_KAIGO,MINORI,看護小規模多機能型居宅介護はなまる縁,,佐土原町上田島８１１３番地１,0985⁃77⁃8961,2023-10-17 14:25:00 UTC
,,,,REWARD,Ocean訪問看護ステーション,,和歌山県紀の川市貴志川町丸栖662番地,0736-60-3792,2023-10-17 14:25:00 UTC
6959789549880,6610006164461,,ZC_KAIGO,Rudolf,訪問介護ステーション　グリム伏見,,向島二ノ丸町87向島スタジオフラッツ1階C,０７５－７４８－６８２８,2023-10-17 14:25:00 UTC
1695898424933,9134859430563,6180303003569,ZC_KAIGO,SHIARA,訪問看護ｽﾃｰｼｮﾝﾌﾞﾙｰﾑ,,愛知県豊田市大林町10丁目20番地5Kスクエア102号室,0565-41-6767,2023-10-17 14:25:00 UTC
1226959716044,5445710113127,6190001013497,ZC_KAIGO,SHINEI,ブーケ,,員弁郡東員町穴太2578-7,0594-33-3007,2023-10-17 14:25:00 UTC
1226959716044,5445710113127,6190001013497,ZC_KAIGO,SHINEI,ブーケ,,員弁郡東員町穴太２５７８－７,0594-33-3007,2023-10-17 14:25:00 UTC
,,,,㈱AKY,ケアプランセンターフィールアットホーム泉南,,大阪府泉南市樽井2-22-13コンコルドビル２０１号室,072-468-7862,2023-10-17 14:25:00 UTC
3636772434861,7515887702527,6330001019595,ZC_KAIGO,一休,滑石デイサービスセンター　一休,,熊本県玉名市滑石2542-3, 0968-76-2700 ,2023-10-17 14:25:00 UTC
1111167435082,3772787017612,4170001012346,ZC_KAIGO,一時,ライフパートナー　ひよこ,,和歌山県田辺市天神崎35-30ｻﾝｳﾞｨﾚｯｼﾞ202号,0739-81-0945,2023-10-17 14:25:00 UTC
,,,,七輝,訪問介護事業所輝らり,,青森県青森市大字新城字平岡961番地1,017-752-0609,2023-10-17 14:25:00 UTC
,,,,三和,訪問介護ステーション和,,兵庫県尼崎市武庫元町1丁目20-1　2階,06-6423-8753,2023-10-17 14:25:00 UTC
,,,,仁平,居宅介護支援センター　くるみ,,埼玉県川口市坂下町3-17-11ホリシンビル　111号,０４８－４２０－９２０１,2023-10-17 14:25:00 UTC
4679598692504,8264098556517,7340001013407,ZC_KAIGO,信美,居宅介護支援事業所なでしこ国分,,鹿児島県霧島市国分福島1丁目23番40号,0995-73-6000,2023-10-17 14:25:00 UTC
,,,,僾大,僾（ほのか）居宅介護支援事業所,,宮崎県日南市吾田東4丁目2-27コーポ門川　102号室,０９８７－５５－６１３６,2023-10-17 14:25:00 UTC
,,,,充会,多摩平の森の病院,,東京都日野市多摩平3-1-17多摩平の森の病院,042-843-1777,2023-10-17 14:25:00 UTC
,,,,充会,多摩平の森の病院,,東京都日野市多摩平3-1-17多摩平の森の病院,042-843-1777,2023-10-17 14:25:00 UTC
,,,,充会,多摩平の森の病院,,東京都日野市多摩平3-1-17多摩平の森の病院,042-843-1777,2023-10-17 14:25:00 UTC
4385225860938,7129405360546,6000020352101,ZC_KAIGO,光市,ナイスケアまほろば,,山口県光市大字岩田2477番地, 0820-49-1111 ,2023-10-17 14:25:00 UTC
4385225860938,7129405360546,6000020352101,ZC_KAIGO,光市,ナイスケアまほろば,,山口県光市大字岩田2477番地,0820-49-1111,2023-10-17 14:25:00 UTC
,,,,創幸,ヘルパーステーション創幸,,熊本県熊本市中央区九品寺３丁目１７番２４号九品寺Ｍ・IIビル１階,096-375-5008,2023-10-17 14:25:00 UTC
,,,,創幸,デイサービスセンター創幸,,熊本県熊本市中央区九品寺３丁目１７番２４号九品寺Ｍ・IIビル１階,096-375-5008,2023-10-17 14:25:00 UTC
,,,,博愛,高齢者生活福祉センター　蓬莱苑,,島根県隠岐郡隠岐の島町布施642番地1,08512⁃7⁃4373,2023-10-17 14:25:00 UTC
3156574777424,9735085354573,1320001013158,ZC_KAIGO,友輪,デイサービスセンター春花,,大分県別府市大字鶴見1951番地の30はーとふるほーむ春花, 0977-21-0015 ,2023-10-17 14:25:00 UTC
,,,,名正,デイサービスむけいん,,鹿児島県霧島市国分府中59番地1むけいん,0995⁃73⁃3777,2023-10-17 14:25:00 UTC
4663323908561,2082073461724,7030001039474,ZC_KAIGO,和美,和美,,埼玉県草加市草加三丁目４番１号武蔵野ビル３０１,048-999-5048,2023-10-17 14:25:00 UTC
,,,,和風,佐賀市鬼丸町5-15,,鬼丸町5-15,0952-28-4034,2023-10-17 14:25:00 UTC
,,,,善成,デイサービス小葉音,,大字福富下分2852,0952-87-3777,2023-10-17 14:25:00 UTC
9664137369910,7417588734665,2330001014261,ZC_KAIGO,大環,居宅介護支援事業所なぎさ,,熊本県八代市袋町１番４５号いずみビル２階,0965-31-3107,2023-10-17 14:25:00 UTC
,,,,大谷,訪問看護リハビリステーションゆめみらい戸田,,埼玉県戸田市新曽1021番地フラワーハイツ302号室,０４８－４４６－７３３５,2023-10-17 14:25:00 UTC
7730512603348,7668642260767,5010701022774,ZC_KAIGO,学研,学研ココファン小峯ヘルパーセンター,,熊本市東区小峯3-1-10,096-365-2255,2023-10-17 14:25:00 UTC
7496389925290,6262050744564,2250001013049,ZC_KAIGO,巴屋,デイサービスもよん,,田布施町麻郷2932－13,0820-55-5501,2023-10-17 14:25:00 UTC
7654823719425,4247697736069,9330001017514,ZC_KAIGO,庭一,ほうもんかいごじぎょうしょいろどり,,熊本県熊本市西区中原町1280番地,080-4942-5075,2023-10-17 14:25:00 UTC
,,,,彩り,訪問介護ステーション　とうか,,徳島県徳島市北沖洲2丁目8-41パレスフェアリーⅡ　202,088-679-6028,2023-10-17 14:25:00 UTC
,,,,彩会,指定居宅支援事業れいじ～,,千葉県柏市加賀３－１９－９,04-7171-1149,2023-10-17 14:25:00 UTC
,,,,心晴,医療法人　心晴　菱刈中央医院　通所リハビリテーション楓,,鹿児島県伊佐市菱刈前目７９０－１,090-1517-1648,2023-10-17 14:25:00 UTC
7061497890123,6336119066120,1290005006707,ZC_KAIGO,悠雅,24時間看護介護サービス　輝,,福岡県太宰府市五条2-11-3,092-710-1412,2023-10-17 14:25:00 UTC
9558197300950,2832225036169,9180002063102,ZC_KAIGO,愛和,小規模多機能型介護事業所　サンライフハートネス,,米野木町追鳥４７番地１,0561-72-8461,2023-10-17 14:25:00 UTC
9558197300950,2832225036169,9180002063102,ZC_KAIGO,愛和,グループホーム　サンライフハートネス,,米野木町追鳥４７番地１,0561-72-8461,2023-10-17 14:25:00 UTC
1548241525985,9864242573316,2050001027275,ZC_KAIGO,愛幸,あい・ねもと薬局ケアプランセンター,,茨城県那珂市西木倉166-1,029⁃295⁃1021,2023-10-17 14:25:00 UTC
,,,,愛心,デイサービスせせらぎ,,静岡県伊豆市月ヶ瀬３３７番地の２,0558-85-0756,2023-10-17 14:25:00 UTC
9246492130400,5264139542877,2290005010294,ZC_KAIGO,拓く,ポレポレ居宅介護支援センター,,安武町武島４６８－２出会いの場ポレポレ, 0942-27-2039 ,2023-10-17 14:25:00 UTC
6512500599464,3922438811743,,ZC_KAIGO,敬愛,特別養護老人ホーム敬愛,,岡山県岡山市南区福田480－5,086-250-5777,2023-10-17 14:25:00 UTC
6512500599464,3922438811743,,MANUAL_COLLECTION,敬愛,特別養護老人ホーム敬愛,,岡山市南区福田480－5,086-250-5777,2023-10-17 14:25:00 UTC
7393617086209,3482122621217,6130003002446,ZC_KAIGO,日和,介護サービスセンターひより,,京都府京都市西京区下津林前泓町４０－３ル・プルミエール桂２階,075-394-0164,2023-10-17 14:25:00 UTC
,,,,旭会,そのだ訪問リハビリテーション,,兵庫県尼崎市東園田町2丁目48番地の8そのだ介護老人保健施設,06-6491-3911,2023-10-17 14:25:00 UTC
,,,,暖家,アムール三輪デイサービスセンターⅡ,,長野県長野市三輪９－３２－１８,026-217-1227,2023-10-17 14:25:00 UTC
,,,,暖家,アムール三輪デイサービスセンターⅠ,,長野県長野市三輪9-32-18,026-217-0253,2023-10-17 14:25:00 UTC
,,,,曙会,デイサービス　あけぼの,,和歌山県和歌山市和歌川町３番１号,073-444-3010,2023-10-17 14:25:00 UTC
,,,,曙会,訪問介護事業所　あけぼの,,和歌山県和歌山市和歌川町3番1号,073-444-2800,2023-10-17 14:25:00 UTC
3560502492990,5052776677423,4030001042398,ZC_KAIGO,東栄,半日型デイサービスリハ専さかえの杜,,埼玉県北足立郡伊奈町栄4-262,０４８－７９６－５６８３,2023-10-17 14:25:00 UTC
9188028032126,8999293158416,,ZC_KAIGO,松起,介護用品レンタル販売さくら,,奈良県北葛城郡上牧町桜ケ丘１－８－６松井ビル１－D,0745-47-8253,2023-10-17 14:25:00 UTC
9188028032126,8999293158416,,ZC_KAIGO,松起,介護用品レンタル販売さくら,,奈良県北葛城郡上牧町桜ケ丘１丁目８－６松井ビル１－D,０７４５－４７－８２５３,2023-10-17 14:25:00 UTC
,,,,柊会,グループホーム　あいむ,,香川県高松市国分寺町新名482-1,087-864-9500,2023-10-17 14:25:00 UTC
,,,,柊会,グループホームアイムの杜,,香川県高松市国分寺町新居1339番地3,087-864-9032,2023-10-17 14:25:00 UTC
3568196833592,6842783217594,8430005001793,ZC_KAIGO,栄会,介護老人保健施設　フォーシーズン南34条,,北海道札幌市南区南34条西10丁目3番35号, 011-581-1200 ,2023-10-17 14:25:00 UTC
3568196833592,4633080210898,8430005001793,ZC_KAIGO,栄会,介護老人保健施設　フォーシーズン山鼻,,北海道札幌市中央区南１７条西９丁目１-１３,011-561-1200,2023-10-17 14:25:00 UTC
3568196833592,4633080210898,8430005001793,ZC_KAIGO,栄会,介護老人保健施設　フォーシーズン山鼻,,北海道札幌市中央区南１７条西９丁目１-１３,011⁃561⁃1200,2023-10-17 14:25:00 UTC
3568196833592,6842783217594,8430005001793,ZC_KAIGO,栄会,介護老人保健施設　フォーシーズン南34条,,北海道札幌市南区南34条西10丁目3番35号,０１１－５８１－１２００,2023-10-17 14:25:00 UTC
9857887074404,7939366482007,6000020013455,ZC_KAIGO,森町,森町立特別養護老人ホームさくらの園,,北海道茅部郡森町字森川町278番地2,01374-2-0281,2023-10-17 14:25:00 UTC
1708597695380,5805683012688,2000020224618,ZC_KAIGO,森町,森町訪問看護ステーション,,周智郡森町草が谷387-1森町家庭医療センター　２階,0538-85-3862,2023-10-17 14:25:00 UTC
9857887074404,7939366482007,6000020013455,ZC_KAIGO,森町,森町立特別養護老人ホームさくらの園,,北海道茅部郡森町字森川町278番地2,01374-2-0281,2023-10-17 14:25:00 UTC
,,,,武徳,訪問介護ステーション　結,,荒尾９１９番地４, 0968-57-7382 ,2023-10-17 14:25:00 UTC
,,,,武徳,デイサービスセンター　いまる,,荒尾８４９番地,0968-57-8628,2023-10-17 14:25:00 UTC
,,,,水仙,水仙,,愛知県幸田町大字坂崎字稲熊野6-10,0564-62-6007,2023-10-17 14:25:00 UTC
,,,,沙羅,沙羅　居宅介護支援事業所,,東区戸島６丁目２２番３号エトワール南台２０５号,096-284-1620,2023-10-17 14:25:00 UTC
3210504145749,8378587417761,2000020014036,ZC_KAIGO,泊村,泊村指定居宅介護支援事業所,,北海道古宇郡泊村大字茅沼村５００番地の２,0135⁃65⁃2280,2023-10-17 14:25:00 UTC
,,,,甲龍,居宅介護支援事業所いすず,,宮崎県東臼杵郡門川町宮ケ原二丁目１０４番地コーポ宮ケ原１０１号,0982-63-3686,2023-10-17 14:25:00 UTC
,,,,知器,知器,,大阪市天王寺区玉造２－２２－５１１,06-6710-4032,2023-10-17 14:25:00 UTC
2851449956757,3443491074151,5060001025812,ZC_KAIGO,竹心,真心,,栃木県宇都宮市戸祭３丁目８番２１号,028⁃625⁃0505,2023-10-17 14:25:00 UTC
2851449956757,3443491074151,5060001025812,ZC_KAIGO,竹心,真心,,栃木県宇都宮市戸祭３丁目８番２１号,028⁃625⁃0505,2023-10-17 14:25:00 UTC
,,,,紫陽,介護老人保健施設　シンセーロ会所,,名古屋市北区会所町８６番,052-909-5111,2023-10-17 14:25:00 UTC
,,,,紫陽,介護老人保健施設　シンセーロ会所,,愛知県名古屋市北区会所町86番地,052-909-5111,2023-10-17 14:25:00 UTC
,,,,紫陽,介護老人保健施設　シンセーロ会所,,愛知県名古屋市北区会所町86番地,０５２－９０９－５１１１,2023-10-17 14:25:00 UTC
7088761756796,5962521853893,7190001028882,ZC_KAIGO,結び,訪問介護ステーション結び,,三重県四日市市日永西5丁目6-1,059-324-4331,2023-10-17 14:25:00 UTC
,,,,美山,介護相談室　椿,,大分県大分市舞鶴町1丁目7番2516号エイルマンション城址公園東,097-511-2249,2023-10-17 14:25:00 UTC
9739054950090,6608247247296,3200003005535,ZC_KAIGO,美心,訪問介護事業所　こころづくし,,岐阜県瑞穂市稲里721番地－106号, 058-329-2270 ,2023-10-17 14:25:00 UTC
,,,,美絆,ケアホーム木もれび,,滋賀県近江八幡市西生来町2402-17,０７４８－４１－０１２３,2023-10-17 14:25:00 UTC
,,,,美絆,居宅介護洗事業所はちまん,,滋賀県近江八幡市長田町1268番地1おさだﾌｧﾐﾘｰｸﾘﾆｯｸ2階,0748-34-7373,2023-10-17 14:25:00 UTC
6761098639268,1514214474462,9011405000063,ZC_KAIGO,翠会,北大泉訪問看護ステーション,,東京都練馬区大泉町2-17-1,03-3923-0223,2023-10-17 14:25:00 UTC
,,,,若葉,グループホーム　学園台,,石川県かほく市学園台5丁目66番地,０７６－２８１－３５１１,2023-10-17 14:25:00 UTC
,,,,英会,訪問介護　栄華の里,,児玉郡上里町七本木3317－5,0495-71-5661,2023-10-17 14:25:00 UTC
4692844055007,5062236539934,9340001014667,ZC_KAIGO,華響,デイサービス華蓮,,野里町３４５６－８, 0994-45-4501 ,2023-10-17 14:25:00 UTC
9922269852228,6974714238725,2000020352047,ZC_KAIGO,萩市,萩市国民健康保険弥富診療センター,,山口県萩市大字弥富下3995番地,08387-8-2311,2023-10-17 14:25:00 UTC
3946275971888,3919471122323,1010005004837,ZC_KAIGO,葵会,仙台・あおいホームケアサービス,,宮城県仙台市太白区鈎取２丁目28-1,022-243-7236,2023-10-17 14:25:00 UTC
,,,,薫会,医療法人薫会　菅又病院,,栃木県塩谷郡高根沢町大字花岡2351,028⁃676⁃0311,2023-10-17 14:25:00 UTC
,,,,薫会,医療法人薫会　菅又病院,,栃木県塩谷郡高根沢町大字花岡2351,028-676-0311,2023-10-17 14:25:00 UTC
,,,,藹々,特別養護老人ホーム　二本松いわしろ紀行,,福島県二本松市西勝田字杉内10番地特別養護老人ホーム　二本松いわしろ紀行,0243-24-5225,2023-10-17 14:25:00 UTC
,,,,藹々,特別養護老人ホーム　二本松いわしろ紀行,,福島県二本松市西勝田字杉内10番地,0243-24-5225,2023-10-17 14:25:00 UTC
9277129402795,6617631163333,1180003023285,ZC_KAIGO,虹色,デーサービス花ふぶき,,愛知県知多市南粕谷1丁目20番地の65,0569-43-7776,2023-10-17 14:25:00 UTC
,,,,訪夢,訪問看護ステーション　来夢,,宮崎県都城市山之口町冨吉2813-2,０８０－３９５６－５２２７,2023-10-17 14:25:00 UTC
3614249648655,3861743660074,6310001014607,ZC_KAIGO,輝橋,ﾊｰﾄｹｱｱｼｽﾄ　ききょう,,長崎県佐世保市木場田町9-16中村ビル２階,0956⁃80⁃4017,2023-10-17 14:25:00 UTC
9034818945456,2774164836275,9160005010482,ZC_KAIGO,道器,訪問看護ステーションつばめ,,滋賀県大津市粟津町2-65第2久下ビル　2階,077-511-9688,2023-10-17 14:25:00 UTC
5673191592860,6307113958250,,ZC_KAIGO,野村,デイサービスきらら,,高須町2-6-7,0566-45-6660,2023-10-17 14:25:00 UTC
,,,,金屋,デイサービスセンター　なごやか岡谷,,長野県岡谷市神明町1丁目4番10号,0266⁃75⁃5780,2023-10-17 14:25:00 UTC
5041914965792,1325117680048,4000020212059,ZC_KAIGO,関市,関市国民健康保険　津保川診療所,,岐阜県関市富之保１９５６番地１,0575-49-3016,2023-10-17 14:25:00 UTC
5041914965792,1984993541862,4000020212059,ZC_KAIGO,関市,岐阜県関市国民健康保険洞戸診療所,,岐阜県関市洞戸通元寺１７２番地２,0581-58-2201,2023-10-17 14:25:00 UTC
,,,,音彩,デイサービス　響,,徳島県徳島市国府町府中565-6,088-635-9770,2023-10-17 14:25:00 UTC
2862230634388,3909335973483,8130005012037,ZC_KAIGO,麗山,訪問介護事業所　潮音,,京都市右京区太秦安井松本町１－９, 075-811-6501 ,2023-10-17 14:25:00 UTC
,,,,黎明,グループホーム夢路,,熊本県玉名郡和水町前原90-1,0968⁃71⁃8558,2023-10-17 14:25:00 UTC
,,,,Ｈane,はぁねケアプランセンター,,兵庫県宝塚市中筋９－１１－３６メゾン・シュープリーム２０５号,0797-52-0807,2023-10-17 14:25:00 UTC
,,,,ASANUMA,ヘルパーステーション来夢,,長田２丁目３０番地３６号新里アパート101号室,098⁃960⁃4014,2023-10-17 14:25:00 UTC
3275038196058,3785630850920,6220001022296,ZC_KAIGO,Artrest,EST訪問看護ステーション,,石川県金沢市吉原町ハ66－1,０７６－２０１－８５７３,2023-10-17 14:25:00 UTC
,,,,Podemos,たかの訪問介護,,和歌山県西牟婁郡上富田町321-74,050-7111-4714,2023-10-17 14:25:00 UTC
4842741664715,8259239341798,8180001133550,MANUAL_COLLECTION,RASHIKS,リハビリテーション颯せと,,愛知県瀬戸市萩殿町3-39,0561-56-5111,2023-10-17 14:25:00 UTC
4842741664715,4917458256886,8180001133550,ZC_KAIGO,RASHIKS,らしくす訪問看護ステーション,,愛知県瀬戸市萩殿町3-39,0561-87-5015,2023-10-17 14:25:00 UTC
2033387527240,8838407778167,9350001011317,ZC_KAIGO,ⅮRＦ,デイサービスリオン　安久事業所,,宮崎県都城市安久町4657番地4,0986-47-4305,2023-10-17 14:25:00 UTC
8677410527198,3361108543681,8210001017023,ZC_KAIGO,㈱LIFE,㈱LIFE,,福井県福井市城東1丁目14-1,0776⁃50⁃3914,2023-10-17 14:25:00 UTC
8677410527198,3361108543681,8210001017023,ZC_KAIGO,㈱LIFE,㈱LIFE,,福井県福井市城東1丁目14-1,0776-50-3914,2023-10-17 14:25:00 UTC
6510551546721,7530601361213,7180001134707,ZC_KAIGO,㈱amby,ヘルパーステーションCarmia,,愛知県豊田市山之手9丁目83-１キャトルフィーユB105,0565-24-7780,2023-10-17 14:25:00 UTC
,,,,Forsight,和みリハビリディサービスセンター,,千葉県習志野市津田沼７－５－１５カーサコモダ１０２,047-409-7770,2023-10-17 14:25:00 UTC
4054243325865,1360217460365,6120001216189,ZC_KAIGO,LinkRing,LinkHope,,京都府京都市中京区西ノ京中保町8ハートランド久保207,075-755-1550,2023-10-17 14:25:00 UTC
,,,,Marvelix,デイサービスFAMILY小金井,,東京都小金井市中町1－7－28,０４２－３１６－４９６６,2023-10-17 14:25:00 UTC
5107996958738,2668439031152,9010501021320,ZC_KAIGO,RARECREW,いきいきらいふSPA墨田,,東京都墨田区八広1-31-12新井ビル１階, 03-3616-1177 ,2023-10-17 14:25:00 UTC
1568343233755,2682551827854,9180301030744,ZC_KAIGO,TONOMORI,サンセットヒル牛川,,牛川町乗小路３２番地２９４,0532-69-1201,2023-10-17 14:25:00 UTC
6311876310161,3931716227980,5120001101680,ZC_KAIGO,ケア21,たのしい家駒川中野,,大阪府大阪市東住吉区中野1丁目6番28号たのしい家駒川中野, 06-6702-3521 ,2023-10-17 14:25:00 UTC
9622243568845,5855201473724,6190001029345,ZC_KAIGO,㈱Alfam,あるふぁ訪問看護ST,,三重県四日市市楠町南五味塚160-4,０５９－３２７－５７１９,2023-10-17 14:25:00 UTC
9147015987584,9536261687603,4320001013163,ZC_KAIGO,Care-Labo,訪問介護ステーション　いごこち,,大分県大分市横塚一丁目３１１番,０９７－５０７－２３２５,2023-10-17 14:25:00 UTC
,,,,artoflife,かしまリハビリステーション,,山口県萩市大字唐樋町20-3,0838-21-7715,2023-10-17 14:25:00 UTC
,,,,あおば,あおば福祉用具サービス,,東京都中野区本町３丁目５番４号メゾンシルクロード１Ｆ,03-5358-8200,2023-10-17 14:25:00 UTC
6389102348947,6572934023301,8180001107422,ZC_KAIGO,いちろ,ケアプランセンターいちろ,,愛知県名古屋市守山区幸心三丁目１４０７番地グランシャリオ１０６,052⁃799⁃3717,2023-10-17 14:25:00 UTC
5425052250182,8836882715183,9000020393860,ZC_KAIGO,いの町,いの町立居宅介護支援事業所によど,,高知県吾川郡いの町１４８２－２仁淀清流苑１階,088-850-4358,2023-10-17 14:25:00 UTC
5425052250182,2382084354296,9000020393860,ZC_KAIGO,いの町,いの町立特別養護老人ホーム偕楽荘,,高知県吾川郡いの町1400番地すこやかセンター伊野2階,088⁃892⁃1086,2023-10-17 14:25:00 UTC
5425052250182,2501983728661,9000020393860,ZC_KAIGO,いの町,いの町立介護老人保健施設仁淀清流苑,,高知県吾川郡いの町1482-2, 088-893-3443 ,2023-10-17 14:25:00 UTC
5425052250182,1066413342186,9000020393860,ZC_KAIGO,いの町,いの町立国民健康保険仁淀病院,,高知県吾川郡いの町1369,088-893-1551,2023-10-17 14:25:00 UTC
5425052250182,2501983728661,9000020393860,ZC_KAIGO,いの町,いの町立介護老人保健施設仁淀清流苑,,高知県吾川郡いの町1482-2,088-893-3443,2023-10-17 14:25:00 UTC
5425052250182,2382084354296,9000020393860,ZC_KAIGO,いの町,いの町立特別養護老人ホーム偕楽荘,,高知県吾川郡いの町1400番地すこやかセンター伊野2階,088-892-1086,2023-10-17 14:25:00 UTC
5425052250182,2501983728661,9000020393860,ZC_KAIGO,いの町,いの町立介護老人保健施設仁淀清流苑,,高知県吾川郡いの町1482-2,088-893-3443,2023-10-17 14:25:00 UTC
5425052250182,5202032543347,9000020393860,ZC_KAIGO,いの町,いの町立訪問看護ステーション,,高知県吾川郡いの町1369番地,088-893-0220,2023-10-17 14:25:00 UTC
,,,,えがお,えがおヘルパー事業所,,愛知県豊川市国府町前崎7番地1,0533-87-8755,2023-10-17 14:25:00 UTC
9513226027414,1942027869481,5220005002015,ZC_KAIGO,こころ,小規模多機能型居宅介護事業所こころ　のだの里,,石川県金沢市野田2丁目２６１番地,076-255-7556,2023-10-17 14:25:00 UTC
1212521532490,7666987685680,3080402016996,ZC_KAIGO,こころ,こころのナースサポート,,愛知県海部郡大治町三本木西之川137-1,052⁃462⁃9466,2023-10-17 14:25:00 UTC
9513226027414,1942027869481,5220005002015,ZC_KAIGO,こころ,小規模特別養護老人ホームこころ　のだの里,,石川県金沢市野田２丁目２６１番地,076⁃255⁃7556,2023-10-17 14:25:00 UTC
,,,,しんわ,ケアプラン太子,,兵庫県揖保郡太子町福地103-3,079-289-5197,2023-10-17 14:25:00 UTC
,,,,すみれ,すみさん家,,名古屋市守山区元郷１丁目９１６,052-602-4922,2023-10-17 14:25:00 UTC
3631970327476,5598083412605,4190002018398,ZC_KAIGO,だいち,ナーシングホームもも鳥取,,三重県員弁郡東員町鳥取917-2,０５９４－８６－１１１０,2023-10-17 14:25:00 UTC
,,,,なな色,なないろ介護サービス,,宮崎県宮崎市天満2-2-6森アパート2-2,0985-77-6210,2023-10-17 14:25:00 UTC
,,,,のぞみ,介護老人保健施設リハビリセンターのぞみ,,徳島県吉野川市山川町祇園41-5,0883-42-6616,2023-10-17 14:25:00 UTC
,,,,のぞみ,介護老人保健施設リハビリセンターのぞみ,,徳島県吉野川市山川町祇園41-5, 0883-42-6616 ,2023-10-17 14:25:00 UTC
,,,,のぞみ,介護老人保健施設リハビリセンターのぞみ,,徳島県吉野川市山川町祇園41-5,0883-42-6616,2023-10-17 14:25:00 UTC
,,,,のぞみ,メディケアプランのぞみ,,徳島県吉野川市山川町祇園41-5,0883-42-6625,2023-10-17 14:25:00 UTC
,,,,のぞみ,ゆり形成内科整形おおの訪問リハビリテーション,,岐阜県揖斐郡大野町大野753番地141,0585-35-7722,2023-10-17 14:25:00 UTC
,,,,のぞみ,介護老人保健施設リハビリセンターのぞみ,,徳島県吉野川市山川町祇園41-5, 0883-42-6616 ,2023-10-17 14:25:00 UTC
,,,,のどか,特別養護老人ホーム神川苑,,長野県上田市蒼久保1181-6,0268-34-7689,2023-10-17 14:25:00 UTC
,,,,のどか,特別養護老人ホーム神川苑,,長野県上田市蒼久保1181-6,0268-34-7689,2023-10-17 14:25:00 UTC
2826597168061,6555922973242,8290805008672,ZC_KAIGO,はるか,桃園公園クリニック,,福岡県北九州市八幡東区桃園１－５－１, 093-671-1119 ,2023-10-17 14:25:00 UTC
3921829537372,9610013224514,3060005003956,ZC_KAIGO,ひなた,デイホームひなた,,栃木県那須塩原市東小屋４４番地７,0287⁃65⁃2914,2023-10-17 14:25:00 UTC
,,,,ひなた,訪問看護ステーションひなた,,姫路市御国野町御着２３７－１, 079-252-7778 ,2023-10-17 14:25:00 UTC
,,,,ほっぷ,訪問看護ステーション　ほっぷ,,京都府福知山市荒河新町82番地,0773-21-4389,2023-10-17 14:25:00 UTC
,,,,みとら,ヘルパーステーションみとら,,福岡県北九州市八幡西区永犬丸4丁目1番27ペロパラシオ204号,093-482-7747,2023-10-17 14:25:00 UTC
,,,,みらい,ケアプランみらい,,山梨県南都留郡山中湖村山中1433-1,0555-62-3323,2023-10-17 14:25:00 UTC
1849302410224,1742318646898,6140001073703,ZC_KAIGO,らしく,株式会社　らしく,,兵庫県尼崎市大庄中通1丁目101,06-6430-5815,2023-10-17 14:25:00 UTC
1260507930005,3837153167011,7100002034590,ZC_KAIGO,わが家,わが家,,長野県上水内郡飯綱町大字倉井２９０７－１グループホームわが家,026-257-1077,2023-10-17 14:25:00 UTC
,,,,わっく,デイサービスセンター平和の森,,宮崎市平和が丘西町34番1,0985⁃20⁃1109,2023-10-17 14:25:00 UTC
6762123366154,6140824980775,7120001201272,ZC_KAIGO,わらみ,のんのん,,大阪府大東市野崎1-9-5隅田マンション102号103号,072-800-8556,2023-10-17 14:25:00 UTC
7832306856482,8228341186662,,ZC_KAIGO,アース,デイサービスセンター神楽の守　怡土館,,福岡県糸島市篠原東3丁目6-31,０９２－３３１－２５６５,2023-10-17 14:25:00 UTC
8481647616315,8207627661489,9340005003922,ZC_KAIGO,クオラ,訪問看護・リハクオラｕ,,鹿児島県薩摩郡さつま町船木2311番地6,0996-52-1113,2023-10-17 14:25:00 UTC
8126359257955,7625341013053,3290801004110,ZC_KAIGO,シダー,ラ・ナシカ三保の松原,,三保61-1,054-337-2605,2023-10-17 14:25:00 UTC
4571359402947,9817992961500,9020001004171,ZC_KAIGO,ツクイ,ツクイ常総水海道,,茨城県常総市水海道諏訪町3366-1,０２９７－３０－９９７０,2023-10-17 14:25:00 UTC
,,,,ホープ,ヘルパーステーションホープ,,長野県岡谷市長地梨久保2-18-1スマートケアタウン株式会社,0266-78-7979,2023-10-17 14:25:00 UTC
,,,,ボンド,つぼみケア,,埼玉県さいたま市南区太田窪2957番地7, 048-711-8408 ,2023-10-17 14:25:00 UTC
2125627513844,1984584791283,8230005008751,ZC_KAIGO,ポエム,ふくふく居宅介護支援事業所,,富山市月岡町4丁目171-1,076-461-7645,2023-10-17 14:25:00 UTC
2125627513844,3761071864332,8230005008751,ZC_KAIGO,ポエム,デイサービスふくふく,,富山県富山市月岡町4丁目171-1,076-461-7645,2023-10-17 14:25:00 UTC
7659788084517,7717317394098,3030001087840,ZC_KAIGO,メグミ,デイサービスセンターメグミ神川,,埼玉県児玉郡神川町八日市216,0495-71-9920,2023-10-17 14:25:00 UTC
7776224484351,2505794040302,2260002022717,ZC_KAIGO,ライブ,かもりクリニックケアプランセンター,,福岡県福岡市東区舞松原1-13-8,０９２－６９２－２２４０,2023-10-17 14:25:00 UTC
8829553567978,8222363017689,2180001145130,ZC_KAIGO,リアン,訪問看護ステーション　リアン,,愛知県名古屋市中川区江松１丁目３０１番地,052-887-2882,2023-10-17 14:25:00 UTC
3824987706321,9699432803511,7120001118475,ZC_KAIGO,㈱一休,一休ケアセンター,,大阪府大阪市城東区今福東2丁目5番5号,06-6935-1930,2023-10-17 14:25:00 UTC
6614381617329,8509714229305,6180001052785,MANUAL_COLLECTION,㈱安里,東海橋苑グループホーム東起3号館,,東起町5-40-1,052-389-3560,2023-10-17 14:25:00 UTC
,,,,一善会,居宅介護支援事業所　赤煉瓦の郷,,滋賀県近江八幡市船木町59番地3,０７４８－３４－８８３０,2023-10-17 14:25:00 UTC
,,,,一善会,デイサービスセンター赤煉瓦の郷,,近江八幡市船木町59番地３,0748⁃34⁃7126,2023-10-17 14:25:00 UTC
,,,,一善会,短期入所生活介護　赤煉瓦の郷,,滋賀県近江八幡市船木町５９番地３,0748-34-7123,2023-10-17 14:25:00 UTC
,,,,一善会,特別養護老人ホーム　赤煉瓦の郷,,滋賀県近江八幡市船木町５９番地３,0748-34-7123,2023-10-17 14:25:00 UTC
,,,,一善会,地域密着型介護老人福祉施設　赤煉瓦の郷,,滋賀県近江八幡市船木町５９番地３,0748-34-7123,2023-10-17 14:25:00 UTC
7766422457944,1686051359696,6350005005375,ZC_KAIGO,一夢庵,デイサービス笑夢,,宮崎県日向市比良町２丁目９６番地,0982-57-4177,2023-10-17 14:25:00 UTC
,,,,一宇会,デイサービスセンター　日野の家,,岐阜県岐阜市日野東２丁目１２番１４号ラ・メゾンＢ棟1Ｆ,058⁃240⁃7177,2023-10-17 14:25:00 UTC
1606005655494,9934452843113,3000020232033,ZC_KAIGO,一宮市,一宮市立木曽川市民病院,,愛知県一宮市木曽川町黒田字北野黒１６５番地,0586-86-2173,2023-10-17 14:25:00 UTC
3966164092218,8554493775826,4080105001808,ZC_KAIGO,一就会,グループホーム湯と里,,伊豆の国市長岡953-1,055-948-0927,2023-10-17 14:25:00 UTC
,,,,一誠会,タキカワ整形外科クリニック,,八町通五丁目１４番地１,0532-55-5111,2023-10-17 14:25:00 UTC
1883857053476,1036823646562,3180305002332,ZC_KAIGO,一誠会,タキカワ整形外科クリニック,,愛知県豊橋市八町通五丁目14-1,０５３２－５５－５１１１,2023-10-17 14:25:00 UTC
,,,,一輝会,訪問看護ステーションみさき,,神戸市兵庫区磯之町１番１号ケインズリカービル２階,078-652-8130,2023-10-17 14:25:00 UTC
9864795333113,6938660110770,4000020032093,ZC_KAIGO,一関市,グループホームやまばと,,岩手県一関市藤沢町藤沢字町裏５６番地,0191-63-5310,2023-10-17 14:25:00 UTC
9864795333113,6647250110448,4000020032093,ZC_KAIGO,一関市,ふじさわ居宅介護支援事業所,,岩手県一関市藤沢町藤沢字町裏52番地2,0191-63-2021,2023-10-17 14:25:00 UTC
9864795333113,9558351075277,4000020032093,ZC_KAIGO,一関市,ふじさわ訪問看護ステーション,,岩手県一関市藤沢町藤沢字町裏52番地2,０１９１－６３－５２１３,2023-10-17 14:25:00 UTC
9864795333113,6907197044865,4000020032093,ZC_KAIGO,一関市,特別養護老人ホーム光栄荘,,岩手県一関市藤沢町藤沢字町裏55番地, 0191-63-3115 ,2023-10-17 14:25:00 UTC
9864795333113,4979636643101,4000020032093,ZC_KAIGO,一関市,老健ふじさわ,,岩手県一関市藤沢町藤沢字町裏５２番地２,0191-63-2010,2023-10-17 14:25:00 UTC
9864795333113,4979636643101,4000020032093,ZC_KAIGO,一関市,老健ふじさわ,,岩手県一関市藤沢町藤沢字町裏５２番地２,0191-63-2010,2023-10-17 14:25:00 UTC
9864795333113,6907197044865,4000020032093,ZC_KAIGO,一関市,特別養護老人ホーム光栄荘短期入所生活介護事業所,,岩手県一関市藤沢町藤沢字町裏55番地,0191-63-3115,2023-10-17 14:25:00 UTC
9864795333113,2791069016364,4000020032093,ZC_KAIGO,一関市,一関市国民健康保険室根診療所,,岩手県一関市室根町折壁字八幡沖１１７, 0191-64-2127 ,2023-10-17 14:25:00 UTC
9864795333113,1159344636761,4000020032093,ZC_KAIGO,一関市,ふじさわデイサービスセンター,,岩手県一関市藤沢町藤沢字町裏55番地,0191-63-4267,2023-10-17 14:25:00 UTC
9864795333113,4979636643101,4000020032093,ZC_KAIGO,一関市,老健ふじさわ,,岩手県一関市藤沢町藤沢字町裏５２番地２,0191-63-2010,2023-10-17 14:25:00 UTC
8248663899438,7625700602019,4000020172022,ZC_KAIGO,七尾市,公立能登総合病院　訪問看護ステーション,,石川県七尾市藤橋町ア部6番地4,0767-52-8775,2023-10-17 14:25:00 UTC
6171425003198,9955128619771,5013105001089,ZC_KAIGO,七日会,杜の園むらやまデイサービスセンター,,東京都武蔵村山市三ツ藤1-80-61Ｆ,042-520-0611,2023-10-17 14:25:00 UTC
,,,,三光会,老人デイサービスセンター燦燦館東なかつ,,大分県中津市大字上如水字野田1825番10,0979⁃26⁃2212,2023-10-17 14:25:00 UTC
,,,,三光会,老人デイサービスセンター燦燦館中央,,大分県中津市中央町１丁目３－５４,0979-33-7002,2023-10-17 14:25:00 UTC
,,,,三和会,特別養護老人ホームあじさい苑ユニット型,,千葉県市原市新堀947-3, 0436-36-1533 ,2023-10-17 14:25:00 UTC
,,,,三和会,ふれあいホームたかだ,,栃木県河内郡上三川町上三川2269－6,0285-37-8196,2023-10-17 14:25:00 UTC
,,,,三和会,ショートステイサービスあじさい苑ユニット型,,千葉県市原市新堀947-3,0436-36-1533,2023-10-17 14:25:00 UTC
,,,,三善会,アメニティつしま指定居宅介護支援事業所,,愛知県津島市古川町2丁目56番地,0567-28-8828,2023-10-17 14:25:00 UTC
,,,,三善会,老人保健施設　第一アメニティつしま,,愛知県津島市東柳原町3丁目47-1,0567-24-0112,2023-10-17 14:25:00 UTC
,,,,三善会,老人保健施設　第一アメニティつしま,,愛知県津島市東柳原町3丁目47-1,0567-24-0112,2023-10-17 14:25:00 UTC
,,,,三善会,老人保健施設　第一アメニティつしま,,愛知県津島市東柳原町3丁目47-1,0567-24-0112,2023-10-17 14:25:00 UTC
,,,,三善会,津島中央病院指定居宅介護支援事業所,,津島市葉苅町綿掛63番地,0567-23-3200,2023-10-17 14:25:00 UTC
,,,,三州会,介護老人保健施設ひまわり,,真砂本町3番81号介護老人保健施設ひまわり,099-285-2211,2023-10-17 14:25:00 UTC
,,,,三愛会,リリ・ピアサ,,京都府綾部市井倉町東12番地1,0773-43-3339,2023-10-17 14:25:00 UTC
,,,,三愛会,ふらむはぁと訪問看護・リハビリねっと綾部,,京都府綾部市井倉町東12番地1,0773-42-3955,2023-10-17 14:25:00 UTC
,,,,三愛会,ふらむはぁとリハマネジメント綾部,,京都府綾部市井倉町東12番地の1,0773-42-3955,2023-10-17 14:25:00 UTC
,,,,三愛会,ふらむはぁと訪問看護リハビリねっと小浜,,福井県小浜市遠敷7丁目301AYATTO,0770⁃56⁃1099,2023-10-17 14:25:00 UTC
,,,,三慶会,介護老人保健施設　びわの葉,,埼玉県さいたま市西区宝来1348-1,048-623-1102,2023-10-17 14:25:00 UTC
,,,,三才堂,医療法人三才堂　内山医院デイケアセンター,,愛知県新城市平井字新栄2－1, 0536-22-3939 ,2023-10-17 14:25:00 UTC
4922666857322,5096640347324,6140005005041,ZC_KAIGO,三桂会,小規模特養まんてん加古川,,加古川市西神吉町大国１１６－１, 079-431-8821 ,2023-10-17 14:25:00 UTC
6990420079117,1888368894609,5000020142107,ZC_KAIGO,三浦市,三浦市立病院,,神奈川県三浦市岬陽町４番３３号,046-882-2111,2023-10-17 14:25:00 UTC
4613370147277,9634595753113,5013105000818,ZC_KAIGO,三秀会,医療法人社団三秀会　羽村三慶病院,,東京都羽村市羽字武蔵野4207,042-570-1181,2023-10-17 14:25:00 UTC
6970926910942,5800408616221,3000020012220,ZC_KAIGO,三笠市,市立三笠総合病院訪問看護ステーションゆうゆう,,北海道三笠市宮本町４８９番地１市立三笠総合病院,01267-2-3131,2023-10-17 14:25:00 UTC
,,,,三笠苑,三笠訪問看護ステーション,,青森県弘前市堀越柳元２９３,0172-29-5512,2023-10-17 14:25:00 UTC
,,,,三良会,デイサービスセンター　あおいうみ,,青森県青森市安方1丁目103-2,017-721-1111,2023-10-17 14:25:00 UTC
8940566808538,5316161234767,1430005011782,ZC_KAIGO,三草会,もえれのお家篠路,,札幌市北区篠路1条2丁目1－7リハケアセンター篠路, 011-299-1145 ,2023-10-17 14:25:00 UTC
6053049414925,9311987958655,7000020372081,ZC_KAIGO,三豊市,三豊市立西香川病院　小規模デイサービスセンター「うちん家」,,香川県三豊市高瀬町下麻1281番地1,0875-74-6265,2023-10-17 14:25:00 UTC
6053049414925,9667852379770,7000020372081,ZC_KAIGO,三豊市,三豊市立西香川病院,,香川県三豊市高瀬町比地中２９８６番地３,0875-72-5121,2023-10-17 14:25:00 UTC
6053049414925,9667852379770,7000020372081,ZC_KAIGO,三豊市,三豊市立西香川病院,,香川県三豊市高瀬町比地中２９８６番地３,0875-72-5121,2023-10-17 14:25:00 UTC
6053049414925,7513526257897,7000020372081,ZC_KAIGO,三豊市,三豊市財田町デイサービスセンター,,香川県三豊市財田町財田上２１４１番地,0875-67-0120,2023-10-17 14:25:00 UTC
6053049414925,5431291860693,7000020372081,ZC_KAIGO,三豊市,三豊市立永康病院訪問看護ステーション,,香川県三豊市詫間町詫間1303番地5,0875-23-6061,2023-10-17 14:25:00 UTC
6053049414925,9667852379770,7000020372081,ZC_KAIGO,三豊市,三豊市立西香川病院居宅介護支援事業所,,香川県三豊市高瀬町比地中２９８６－３,0875-72-5121,2023-10-17 14:25:00 UTC
,,,,三輪会,指定訪問介護事業所山手,,茨城県土浦市国分町7-6,029-835-3111,2023-10-17 14:25:00 UTC
6707095385490,3332341776554,6060002022790,ZC_KAIGO,三鈴堂,三鈴堂　那須事業所,,栃木県那須郡那須町寺子乙2562-24,0287⁃71⁃1270,2023-10-17 14:25:00 UTC
6707095385490,3332341776554,6060002022790,ZC_KAIGO,三鈴堂,三鈴堂　那須事業所,,栃木県那須郡那須町大字寺子乙2562-24,0287-71-1270,2023-10-17 14:25:00 UTC
7152523352592,2479729475269,8000020132047,ZC_KAIGO,三鷹市,三鷹市高齢者センターけやき苑,,東京都三鷹市深大寺2丁目29番13号,0422-34-5440,2023-10-17 14:25:00 UTC
7152523352592,2479729475269,8000020132047,ZC_KAIGO,三鷹市,三鷹市高齢者センターけやき苑,,東京都三鷹市深大寺2丁目29番13号,0422⁃34⁃5440,2023-10-17 14:25:00 UTC
2928183782387,4954767487058,2000020383562,ZC_KAIGO,上島町,上島町定居宅介護支援事業所,,愛媛県越智郡上島町生名６２１－１,0897-74-0921,2023-10-17 14:25:00 UTC
2928183782387,6786211891346,2000020383562,ZC_KAIGO,上島町,上島町老人短期入所施設,,愛媛県越智郡上島町生名1268番地1,0897-76-2250,2023-10-17 14:25:00 UTC
2928183782387,9624168288553,2000020383562,ZC_KAIGO,上島町,上島町特別養護老人ホーム　海光園,,愛媛県越智郡上島町生名1268番地1,0897-76-2250,2023-10-17 14:25:00 UTC
2928183782387,4493329212013,2000020383562,ZC_KAIGO,上島町,上島町魚島デイサービスセンター,,愛媛県越智郡上島町魚島一番耕地1367番地2,0897-74-1120,2023-10-17 14:25:00 UTC
3965377463529,1867753488288,8000020014575,MANUAL_COLLECTION,上川町,上川町立介護医療院つつじ苑,,北海道上川郡上川町花園町175番地,01658-2-1231,2023-10-17 14:25:00 UTC
3965377463529,7323568458757,8000020014575,ZC_KAIGO,上川町,上川町立介護老人保健施設つつじ苑,,北海道上川郡上川町花園町１７５番地,01658⁃2⁃1231,2023-10-17 14:25:00 UTC
3965377463529,7323568458757,8000020014575,ZC_KAIGO,上川町,上川町立介護老人保健施設つつじ苑,,北海道上川郡上川町花園町１７５番地,01658-2-1231,2023-10-17 14:25:00 UTC
7632305528782,1260869769288,4000020163228,ZC_KAIGO,上市町,かみいち居宅介護支援事業所,,富山県中新川郡上市町法音寺51　かみいち総合病院敷地内在宅医療連携館, 076-472-5705 ,2023-10-17 14:25:00 UTC
6245210666599,1273779907414,2000020202037,ZC_KAIGO,上田市,上田市武石診療所,,上田市下武石７７１－１,0268-85-3308,2023-10-17 14:25:00 UTC
1746317291721,7589155490799,9000020152226,ZC_KAIGO,上越市,センター病院訪問看護ステーション,,新潟県上越市南高田町6番9号,025-523-2131,2023-10-17 14:25:00 UTC
1746317291721,7624320828614,9000020152226,ZC_KAIGO,上越市,上越地域医療センター病院,,新潟県上越市南高田町６番９号,025-523-2131,2023-10-17 14:25:00 UTC
1746317291721,1321133001704,9000020152226,ZC_KAIGO,上越市,センター病院居宅介護支援事業所,,新潟県上越市南高田町6番9号,025-522-7270,2023-10-17 14:25:00 UTC
8859347345289,5698967912481,6000020284815,ZC_KAIGO,上郡町,上郡町訪問看護ステーション,,兵庫県赤穂郡上郡町大持278番地上郡町役場　第2庁舎　1階,0791-52-2400,2023-10-17 14:25:00 UTC
1650140479266,9180657719444,1000020212202,ZC_KAIGO,下呂市,下呂市立小坂診療所,,岐阜県下呂市小坂町大島１９６５番地,0576-62-2212,2023-10-17 14:25:00 UTC
1650140479266,9180657719444,1000020212202,ZC_KAIGO,下呂市,下呂市立小坂診療所,,岐阜県下呂市小坂町大島1965番地,0576⁃62⁃2212,2023-10-17 14:25:00 UTC
1650140479266,2965130969038,1000020212202,ZC_KAIGO,下呂市,下呂市立小坂老人保健施設,,岐阜県下呂市小坂町大島１９６３番地,0576⁃62⁃2212,2023-10-17 14:25:00 UTC
1650140479266,4139098879386,1000020212202,ZC_KAIGO,下呂市,下呂市立金山病院,,岐阜県下呂市金山町金山973番地6,0576-32-2121,2023-10-17 14:25:00 UTC
1650140479266,9180657719444,1000020212202,ZC_KAIGO,下呂市,下呂市立小坂診療所,,岐阜県下呂市小坂町大島１９６５番地,0576-62-2212,2023-10-17 14:25:00 UTC
1650140479266,2965130969038,1000020212202,ZC_KAIGO,下呂市,下呂市立小坂老人保健施設,,岐阜県下呂市小坂町大島１９６３番地,0576-62-2212,2023-10-17 14:25:00 UTC
8523804524652,1969125196522,9000020014681,ZC_KAIGO,下川町,下川町立デイサービスセンター,,北海道上川郡下川町西町３５２番地,01655-4-3965,2023-10-17 14:25:00 UTC
8523804524652,9732634380614,9000020014681,ZC_KAIGO,下川町,町立下川病院,,北海道上川郡下川町西町３６番地,01655⁃4⁃2039,2023-10-17 14:25:00 UTC
8523804524652,2699701924950,9000020014681,ZC_KAIGO,下川町,下川町立特別養護老人ホームあけぼの園,,北海道上川郡下川町西町３５２番地,01655-4-3857,2023-10-17 14:25:00 UTC
8523804524652,1969125196522,9000020014681,ZC_KAIGO,下川町,下川町立デイサービスセンター居宅介護支援事業所,,北海道上川郡下川町西町352番地, 01655-4-3965 ,2023-10-17 14:25:00 UTC
8523804524652,9093597530079,9000020014681,ZC_KAIGO,下川町,下川町立短期入所生活介護事業所,,北海道上川郡下川町西町３５２番地,01655-4-3857,2023-10-17 14:25:00 UTC
6126042931553,7935562740007,4000020352012,ZC_KAIGO,下関市,下関市立豊田中央病院,,山口県下関市豊田町大字矢田３６５番地１,083-766-1012,2023-10-17 14:25:00 UTC
6126042931553,7935562740007,4000020352012,ZC_KAIGO,下関市,下関市立豊田中央病院,,山口県下関市豊田町大字矢田３６５番地１,083-766-1012,2023-10-17 14:25:00 UTC
6126042931553,7935562740007,4000020352012,ZC_KAIGO,下関市,下関市立豊田中央病院,,山口県下関市豊田町大字矢田３６５番地１,０８３－７６６－１０１２,2023-10-17 14:25:00 UTC
,,,,不動会,ユニット型特別養護老人ホーム　一本松荘,,熊本県山鹿市鹿本町津袋450,0968⁃46⁃2524,2023-10-17 14:25:00 UTC
,,,,不動会,ユニット型特別養護老人ホーム　一本松荘ショートステイ,,熊本県山鹿市鹿本町津袋450,0968-46-2524,2023-10-17 14:25:00 UTC
,,,,不動会,通所介護　よかとこデイ,,熊本県山鹿市山鹿３９,０９６８－４４－１２２８,2023-10-17 14:25:00 UTC
,,,,不動会,特別養護老人ホーム　一本松荘,,熊本県山鹿市鹿本町津袋４５０,0968-46-2524,2023-10-17 14:25:00 UTC
,,,,不動会,特別養護老人ホーム　一本松荘ショートステイ,,熊本県山鹿市鹿本町津袋４５０,0968-46-2524,2023-10-17 14:25:00 UTC
,,,,世光会,せいこうかいほうもんかいごすてーしょん,,鹿児島県指宿市東方353番地メゾン・ド・さくら1階,0993-22-1588,2023-10-17 14:25:00 UTC
,,,,中央会,グループホーム　ゆうけあ相河,,石川県金沢市西泉6丁目134番地,076-245-1167,2023-10-17 14:25:00 UTC
2023623701662,2622533520034,8000020131024,ZC_KAIGO,中央区,中央区立介護老人保健施設リハポート明石,,東京都中央区明石町1-6,03-3545-9911,2023-10-17 14:25:00 UTC
2023623701662,2622533520034,8000020131024,ZC_KAIGO,中央区,中央区立介護老人保健施設リハポート明石,,東京都中央区明石町1-6,03-3545-9911,2023-10-17 14:25:00 UTC
2023623701662,2622533520034,8000020131024,ZC_KAIGO,中央区,中央区立介護老人保健施設リハポート明石,,東京都中央区明石町1-6,03⁃3545⁃9911,2023-10-17 14:25:00 UTC
2023623701662,2622533520034,8000020131024,ZC_KAIGO,中央区,中央区立介護老人保健施設リハポート明石,,東京都中央区明石町1番6号,０３－３５４５－９９１１,2023-10-17 14:25:00 UTC
9619745347926,4607086484138,3170005001981,ZC_KAIGO,中庸会,特別養護老人ホーム　天美苑,,海南市七山964番地1,073-486-0114,2023-10-17 14:25:00 UTC
,,,,中沢会,デイサービスセンター萬葉の杜,,群馬県前橋市下大島町538-9,027-225-7008,2023-10-17 14:25:00 UTC
,,,,中沢会,訪問介護ステーション萬葉の杜,,群馬県前橋市下大島町538-9,027-225-7009,2023-10-17 14:25:00 UTC
2728898115811,1618581314025,9000020304280,ZC_KAIGO,串本町,くしもと町立病院介護医療院,,和歌山県東牟婁郡串本町サンゴ台691-7, 0735-62-7111 ,2023-10-17 14:25:00 UTC
2728898115811,6824689004687,9000020304280,ZC_KAIGO,串本町,くしもと町立病院,,和歌山県東牟婁郡串本町サンゴ台691番地7,0735-62-7111,2023-10-17 14:25:00 UTC
3270745546966,8828702808898,4000020452076,ZC_KAIGO,串間市,串間市民病院　居宅介護支援事業所,,宮崎県串間市大字西方7917番地串間市民病院内,0987-72-1234,2023-10-17 14:25:00 UTC
1541073218435,6465728423397,3000020282235,ZC_KAIGO,丹波市,丹波市青垣訪問看護ステーション,,兵庫県丹波市青垣町沢野115番地,0795-80-5200,2023-10-17 14:25:00 UTC
1541073218435,6123538930828,3000020282235,ZC_KAIGO,丹波市,丹波市国民健康保険青垣診療所,,兵庫県丹波市青垣町沢野114番地,0795-87-0109,2023-10-17 14:25:00 UTC
3995351145054,5553900208619,2060005004897,ZC_KAIGO,丹緑会,在宅介護支援センター栗林荘,,栃木県小山市塚崎463－1,0285-27-1582,2023-10-17 14:25:00 UTC
3995351145054,5895499206293,2060005004897,MANUAL_COLLECTION,丹緑会,デイサービスセンター栗林荘,,栃木県小山市塚崎　463-1,0285-27-1582,2023-10-17 14:25:00 UTC
7118153192156,1795194787424,5011805001375,ZC_KAIGO,久光会,久光クリニック,,東京都足立区六町2-6-24, 03-5831-0502 ,2023-10-17 14:25:00 UTC
,,,,久寿会,ヘルパーステーションすずらん,,大分県速見郡日出町2100番1,0977-75-6310,2023-10-17 14:25:00 UTC
6156825090989,7842897637182,8320005004452,ZC_KAIGO,久寿会,グループホームすずらん,,大分県速見郡日出町大字藤原1691番地1,0977-73-1052,2023-10-17 14:25:00 UTC
1453443526127,2610269038709,2090005006263,ZC_KAIGO,久晴会,医療法人　甲斐リハビリテーションクリニック　通所リハビリにじ,,山梨県甲斐市西八幡3990, 055-278-1412 ,2023-10-17 14:25:00 UTC
1453443526127,4360967654246,2090005006263,ZC_KAIGO,久晴会,甲斐リハビリテーションクリニック訪問リハビリテーションにじ,,山梨県甲斐市西八幡3990,055-278-1412,2023-10-17 14:25:00 UTC
9943579928068,6990797928703,,ZC_KAIGO,久楽会,萬生苑,,金沢市利屋町は64番地1,076-257-8111,2023-10-17 14:25:00 UTC
,,,,久楽会,ファミリーケア城南,,金沢市城南1-21-21, 076-232-8221 ,2023-10-17 14:25:00 UTC
,,,,久楽会,ファミリーケア城南,,石川県金沢市城南1丁目21番21号,076-232-8221,2023-10-17 14:25:00 UTC
9943579928068,6990797928703,,ZC_KAIGO,久楽会,萬生苑,,金沢市利屋町は64番地１, 076-257-8111 ,2023-10-17 14:25:00 UTC
,,,,久盛会,小規模多機能ホーム秋田高城,,東京都町田市根岸2丁目３２番地１６号,042-791-1232,2023-10-17 14:25:00 UTC
,,,,乙部町,乙部町立特別養護老人ホームおとべ荘,,北海道爾志郡乙部町字元和200番地の1,0139-62-3827,2023-10-17 14:25:00 UTC
,,,,乙部町,乙部町立特別養護老人ホームおとべ荘,,北海道爾志郡乙部町字元和200番地の1,0139-62-3827,2023-10-17 14:25:00 UTC
5805770737123,9142979699531,1000020013641,ZC_KAIGO,乙部町,乙部町デイサービスセンター,,北海道爾志郡乙部町字緑町７０４番地の１０ケアセンターおとべ,0139⁃62⁃4032,2023-10-17 14:25:00 UTC
5805770737123,6492175467845,1000020013641,ZC_KAIGO,乙部町,乙部町国民健康保険病院,,北海道爾志郡乙部町字緑町704番地1,0139⁃62⁃2331,2023-10-17 14:25:00 UTC
2381562409091,4910111095789,9000020242101,ZC_KAIGO,亀山市,亀山市立医療センター訪問看護ステーション,,三重県亀山市亀田町466番地１,0595-83-1966,2023-10-17 14:25:00 UTC
,,,,亀泉会,特別養護老人ホーム寿敬園(ユニット型),,愛知県稲沢市平和町観音堂東海塚26番地, 0567-46-1175 ,2023-10-17 14:25:00 UTC
,,,,亀泉会,特別養護老人ホーム寿敬園(ユニット型),,愛知県稲沢市平和町観音堂東海塚26番地,0567-46-1175,2023-10-17 14:25:00 UTC
2295514445986,4327546445509,8000020032131,ZC_KAIGO,二戸市,二戸市国民健康保険浄法寺診療所,,岩手県二戸市浄法寺町小池6番地1,0195-38-2021,2023-10-17 14:25:00 UTC
,,,,五光会,医療法人五光会　桃の光,,福島県福島市笹谷字中田１－８, 024-555-1032 ,2023-10-17 14:25:00 UTC
6734336538085,9256834930818,1000020292079,ZC_KAIGO,五條市,西吉野・大塔居宅介護支援事業所,,奈良県五條市西吉野町城戸122番地の１五條市役所西吉野支所内,0747-33-0062,2023-10-17 14:25:00 UTC
6216892396138,5778755837084,4000020332071,ZC_KAIGO,井原市,井原市立井原市民病院,,岡山県井原市井原町１１８６番地,０８６６－６２－１１３３,2023-10-17 14:25:00 UTC
6216892396138,5778755837084,4000020332071,ZC_KAIGO,井原市,井原市立井原市民病院,,岡山県井原市井原町1186番地,0866-62-1133,2023-10-17 14:25:00 UTC
6216892396138,5778755837084,4000020332071,ZC_KAIGO,井原市,井原市立井原市民病院,,岡山県井原市井原町1186番地, 0866-62-1133 ,2023-10-17 14:25:00 UTC
5855913133861,5416826409812,3130001046729,ZC_KAIGO,京乃詩,介護・支援センターなでしこ,,京都府京都市西京区松室吾田神町204エクセル吾田神B-105,075-394-3166,2023-10-17 14:25:00 UTC
5832668298948,4602535211068,3000020013994,ZC_KAIGO,京極町,ひまわりクリニックきょうごく,,北海道虻田郡京極町字京極３１６番地,０１３６－４２－２１６１,2023-10-17 14:25:00 UTC
3595303264677,2926999712577,7060005003829,ZC_KAIGO,京福会,特別養護老人ホーム寿山荘ブランチさきたま,,栃木県那須塩原市埼玉3-17,0287-60-0061,2023-10-17 14:25:00 UTC
3595303264677,6129626001100,7060005003829,ZC_KAIGO,京福会,特別養護老人ホーム　寿山荘ブランチさきたま,,栃木県那須塩原市埼玉3-17,０２８７－６０－００６１,2023-10-17 14:25:00 UTC
9063728847146,8732193613306,2000020261009,ZC_KAIGO,京都市,京都市ヘルパー室,,京都府京都市南区西九条南田町９番地,075⁃606⁃2330,2023-10-17 14:25:00 UTC
,,,,人昭会,小規模多機能型居宅介護　玲音,,庄内町庄内原838番地8,097-582-2121,2023-10-17 14:25:00 UTC
,,,,仁寿会,東洋病院,,徳島市北島田町1丁目160-2,088⁃632⁃7700,2023-10-17 14:25:00 UTC
,,,,仁寿会,グループホーム千寿園,,徳島市北島田町1丁目126番地6,088-632-7778,2023-10-17 14:25:00 UTC
,,,,仁寿会,東洋病院,,徳島県徳島市北島田町1丁目160番地2,０８８－６３２－７７７７,2023-10-17 14:25:00 UTC
,,,,仁寿会,居宅介護支援事業所　アクシス,,岐阜県多治見市小名田町西ヶ洞１－６４８タジミ第一病院　４階,0572-21-3435,2023-10-17 14:25:00 UTC
,,,,仁寿会,医療法人　仁寿会　介護老人保健施設　アルマ・マータ,,岐阜県多治見市小名田町西ヶ洞71-1,0572-24-6787,2023-10-17 14:25:00 UTC
,,,,仁心会,医療法人仁心会　グループホームあっぷる,,宇部市昭和町１丁目９ー３,0836-35-7691,2023-10-17 14:25:00 UTC
,,,,仁愛会,デイサービスセンター　フローレ川合,,岐阜県可児市川合793-1,0574-60-2600,2023-10-17 14:25:00 UTC
,,,,仁愛会,特別養護老人ホームフローレ川合,,岐阜県可児市川合793-1特別養護老人ホームフローレ川合,0574-60-2600,2023-10-17 14:25:00 UTC
,,,,仁愛会,ヘルパーステーションらくだ,,沖縄県浦添市伊祖4-10-2ライフピア友　201号, 098-870-1026 ,2023-10-17 14:25:00 UTC
,,,,仁愛会,ショートステイ　フローレ川合,,岐阜県可児市川合７９３－１,0574-60-2600,2023-10-17 14:25:00 UTC
,,,,仁新会,グループホームそよ風,,高知県吾川郡いの町2274番地1,088-893-0888,2023-10-17 14:25:00 UTC
,,,,仁新会,小規模多機能型居宅介護青空,,高知県吾川郡いの町3611番地5,088-821-7554,2023-10-17 14:25:00 UTC
,,,,仁栄会,緑ヶ丘介護医療院,,埼玉県所沢市狭山ヶ丘1-3009,04-2948-8181,2023-10-17 14:25:00 UTC
,,,,仁泉会,訪問看護ステーションえがおみょう,,青森県八戸市大字妙字分枝３８番地３,０１７８－３０－１５０１,2023-10-17 14:25:00 UTC
,,,,仁泉会,グループホーム　にこにこ館,,青森県十和田市大字相坂字高清水１２６９,0176⁃22⁃0067,2023-10-17 14:25:00 UTC
,,,,仁泉会,介護老人保健施設ハートランド,,青森県十和田市大字相坂字高清水78-450,0176-25-1005,2023-10-17 14:25:00 UTC
,,,,仁泉会,居宅介護支援事業所　介護老人保健施設しんごう,,青森県三戸郡新郷村大字戸来字金ヶ沢森ノ下24, 0178-78-3181 ,2023-10-17 14:25:00 UTC
,,,,仁泉会,グループホーム妙水苑,,青森県八戸市大字妙字分枝４３,0178⁃30⁃2778,2023-10-17 14:25:00 UTC
,,,,仁泉会,グループホームしろいし,,宮城県白石市城北町１－３９,０２２４－２２－２３３０,2023-10-17 14:25:00 UTC
,,,,仁泉会,介護老人保健施設ハートランド,,青森県十和田市大字相坂字高清水78－450,０１７６－２５－２５９０,2023-10-17 14:25:00 UTC
,,,,仁泉会,介護老人保健施設ハートランド,,十和田市大字相坂字高清水78-450,0176-25-0122,2023-10-17 14:25:00 UTC
,,,,仁泉会,ヘルパーステーションかわらまち,,青森県三戸郡五戸町字川原町西裏5-80,0178-61-1060,2023-10-17 14:25:00 UTC
,,,,仁泉会,医療法人仁泉会池浦訪問看護ステーション,,愛知県安城市池浦町丸田302番地5, 0566-72-5885 ,2023-10-17 14:25:00 UTC
,,,,仁泉会,デイサービスセンターにこにこプラザみさわ,,青森県三沢市松園町3丁目2番1号,0176⁃51⁃8844,2023-10-17 14:25:00 UTC
,,,,仁泉会,グループホームはしかみ苑,,青森県三戸郡階上町蒼前西７丁目９－４０７,0178-80-1818,2023-10-17 14:25:00 UTC
,,,,仁泉会,医療法人仁泉会　デイサービスセンターしんごう,,青森県三戸郡新郷村大字戸来字金ヶ沢坂ノ下17-1,0178-61-7570,2023-10-17 14:25:00 UTC
,,,,仁泉会,訪問看護ステーションえがおみょう,,八戸市大字妙字分枝３８番地３,0178⁃30⁃1313,2023-10-17 14:25:00 UTC
,,,,仁泉会,訪問看護ステーションえがお,,青森県十和田市穂並町6-27,0176-23-3369,2023-10-17 14:25:00 UTC
,,,,仁泉会,デイサービスセンターにこにこプラザ五戸,,青森県三戸郡五戸町字川原町西裏5-80, 0178-61-1060 ,2023-10-17 14:25:00 UTC
,,,,仁泉会,居宅介護支援事業所えがお,,青森県十和田市穂並町6-27,0176-21-3355,2023-10-17 14:25:00 UTC
,,,,仁泉会,グループホーム　あさみず,,宮城県登米市中田町浅水字上川面65-1,0220-35-3151,2023-10-17 14:25:00 UTC
,,,,仁泉会,医療法人仁泉会　池浦ケアプラン,,愛知県安城市池浦町丸田302番地5,0566-72-5885,2023-10-17 14:25:00 UTC
,,,,仁泉会,在宅介護支援センターハートランド　居宅介護支援事業所,,青森県十和田市大字相坂字高清水７８－４５０,0176-23-2005,2023-10-17 14:25:00 UTC
,,,,仁泉会,グループホームしんまち,,宮城県亘理郡亘理町字新町41-9,0223-32-8507,2023-10-17 14:25:00 UTC
,,,,仁泉会,訪問看護ステーションえがおみょう,,八戸市大字妙字分枝３１,０１７８－３０－１３１７,2023-10-17 14:25:00 UTC
,,,,仁泉会,介護老人保健施設ハートランド,,十和田市大字相坂字高清水78-450,０１７６－２５－０１２２,2023-10-17 14:25:00 UTC
,,,,仁泉会,妙水苑デイサービスセンター,,青森県八戸市大字妙字分枝３９－１,0178-30-1556,2023-10-17 14:25:00 UTC
,,,,仁照会,デイサービスみなみが丘,,高知市春野町南ヶ丘2丁目９－４,０８８－８４２－８３６２,2023-10-17 14:25:00 UTC
7484868369727,6954384384037,7122005000923,ZC_KAIGO,仁風会,社会福祉法人仁風会ケアプランセンター吉野のあかり,,吉野郡大淀町比曽107番6,0746-34-5500,2023-10-17 14:25:00 UTC
7484868369727,2779770036429,7122005000923,ZC_KAIGO,仁風会,社会福祉法人仁風会デイサービスセンター吉野のあかり,,吉野郡大淀町比曽107番6,0746-34-5600,2023-10-17 14:25:00 UTC
7406145421835,2245646151425,3000020013706,ZC_KAIGO,今金町,今金町介護老人保健施設,,北海道瀬棚郡今金町字今金１７－２,0137-82-2780,2023-10-17 14:25:00 UTC
7406145421835,2245646151425,3000020013706,ZC_KAIGO,今金町,今金町介護老人保健施設,,北海道瀬棚郡今金町字今金１７－２,0137-82-2780,2023-10-17 14:25:00 UTC
7406145421835,2245646151425,3000020013706,ZC_KAIGO,今金町,今金町介護老人保健施設,,北海道瀬棚郡今金町字今金１７－２,0137-82-2780,2023-10-17 14:25:00 UTC
6688122241025,1038532377391,3000020052159,ZC_KAIGO,仙北市,仙北市介護老人保健施設にしき園,,秋田県仙北市西木町門屋字屋敷田100番地,0187-47-3211,2023-10-17 14:25:00 UTC
6688122241025,1038532377391,3000020052159,ZC_KAIGO,仙北市,仙北市介護老人保健施設にしき園,,秋田県仙北市西木町門屋字屋敷田100番地, 0187-47-3211 ,2023-10-17 14:25:00 UTC
,,,,代医会,早尾園通所介護事業所,,熊本県八代郡氷川町早尾132,0965-62-3838,2023-10-17 14:25:00 UTC
,,,,代医会,早尾園短期入所生活介護事業所,,熊本県八代郡氷川町早尾132特別養護老人ホーム　早尾園,０９６５－６２－３８３８,2023-10-17 14:25:00 UTC
,,,,代医会,特別養護老人ホーム早尾園,,熊本県八代郡氷川町早尾132,0965⁃62⁃3838,2023-10-17 14:25:00 UTC
,,,,代医会,早尾園訪問介護事業所,,熊本県八代郡氷川町早尾132,0965-62-3838,2023-10-17 14:25:00 UTC
3134320442193,3648217414814,5000020264636,ZC_KAIGO,伊根町,伊根町訪問看護ステーション,,京都府与謝郡伊根町字日出646番地伊根町総合保健施設　2F,0772-32-3051,2023-10-17 14:25:00 UTC
1115249271221,1039583197005,6000020242161,ZC_KAIGO,伊賀市,伊賀市立上野総合市民病院　訪問看護ステーション,,伊賀市四十九町８３１番地,0595-24-1111,2023-10-17 14:25:00 UTC
2176944533565,6578116560737,9000020202096,ZC_KAIGO,伊那市,伊那市国保長藤診療所,,伊那市高遠町長藤１７５５番地１,０２６５－９４－２００１,2023-10-17 14:25:00 UTC
2176944533565,3734727623399,9000020202096,ZC_KAIGO,伊那市,伊那市国保美和診療所,,長野県伊那市長谷非持566番地,0265-98-2017,2023-10-17 14:25:00 UTC
2176944533565,6459877592059,9000020202096,ZC_KAIGO,伊那市,伊那市国保美和診療所,,伊那市長谷非持564,0265-98-2017,2023-10-17 14:25:00 UTC
,,,,伯医会,特別養護老人ホーム　伯寿の郷,,島根県安来市伯太町安田1705番地,0854-37-1600,2023-10-17 14:25:00 UTC
,,,,伯鳳会,デイサービスセンター藤の家,,兵庫県明石市二見町西二見字中池の下653-3,078-943-7773,2023-10-17 14:25:00 UTC
,,,,伸和会,医療法人伸和会介護老人保健施設東海園,,宮崎県延岡市川島町1080番地5,0982-30-1661,2023-10-17 14:25:00 UTC
2994993256971,2747150632120,2000020202177,ZC_KAIGO,佐久市,訪問看護ステーションあさま,,長野県佐久市岩村田１８６２-１,0267-67-7213,2023-10-17 14:25:00 UTC
2994993256971,7978749040696,2000020202177,ZC_KAIGO,佐久市,佐久市立国保浅間総合病院,,長野県佐久市岩村田１８６２-１,0267-67-2295,2023-10-17 14:25:00 UTC
2994993256971,7978749040696,2000020202177,ZC_KAIGO,佐久市,佐久市立国保浅間総合病院　指定居宅介護支援事業所,,長野県佐久市岩村田１８６２-１,０２６７－６７－６６１６,2023-10-17 14:25:00 UTC
2994993256971,7978749040696,2000020202177,ZC_KAIGO,佐久市,佐久市立国保浅間総合病院,,佐久市岩村田１８６２-１,0267⁃67⁃2295,2023-10-17 14:25:00 UTC
6567775396991,1933159228481,9000020394025,ZC_KAIGO,佐川町,介護老人保健施設　希望,,高知県高岡郡佐川町甲１６８７番地,０８８９－２２－１２０７,2023-10-17 14:25:00 UTC
6567775396991,1933159228481,9000020394025,ZC_KAIGO,佐川町,介護老人保健施設　希望,,高知県高岡郡佐川町甲１６８７番地,0889-22-1207,2023-10-17 14:25:00 UTC
6567775396991,8200628208361,9000020394025,ZC_KAIGO,佐川町,佐川町デイサービスセンター　斗賀野荘,,高知県高岡郡佐川町中組５０－１,0889-22-1822,2023-10-17 14:25:00 UTC
6567775396991,6579667965515,9000020394025,ZC_KAIGO,佐川町,佐川町立高北国民健康保険病院,,高岡郡佐川町甲１６８７番地,0889-22-1166,2023-10-17 14:25:00 UTC
6567775396991,3138721346052,9000020394025,ZC_KAIGO,佐川町,佐川町　デイケアセンター　さくら荘,,高知県高岡郡佐川町甲１６８８－１,0889-22-0101,2023-10-17 14:25:00 UTC
6567775396991,6579667965515,9000020394025,ZC_KAIGO,佐川町,佐川町立高北国民健康保険病院,,高知県高岡郡佐川町甲１６８７番地高北病院２Ｆ,0889-22-1166,2023-10-17 14:25:00 UTC
4706987695262,3441904960650,9000020152242,ZC_KAIGO,佐渡市,佐渡市介護老人保健施設　すこやか両津,,新潟県佐渡市春日1137番地4,0259-23-5171,2023-10-17 14:25:00 UTC
4706987695262,9989262120566,9000020152242,ZC_KAIGO,佐渡市,特別養護老人ホーム歌代の里,,佐渡市浜田140番地1,0259⁃23⁃5151,2023-10-17 14:25:00 UTC
4706987695262,8629168273517,9000020152242,ZC_KAIGO,佐渡市,佐渡市立両津病院,,佐渡市浜田１７７番地１,０２５９－２３－５１１１,2023-10-17 14:25:00 UTC
4706987695262,3441904960650,9000020152242,ZC_KAIGO,佐渡市,佐渡市介護老人保健施設　すこやか両津,,新潟県佐渡市春日１１３７番地４,0259⁃23⁃5171,2023-10-17 14:25:00 UTC
4706987695262,3441904960650,9000020152242,ZC_KAIGO,佐渡市,佐渡市介護老人保健施設　すこやか両津,,佐渡市春日1137番地４,0259-23-5171,2023-10-17 14:25:00 UTC
4706987695262,8629168273517,9000020152242,ZC_KAIGO,佐渡市,佐渡市立両津病院,,佐渡市浜田177番地１,0259-23-5111,2023-10-17 14:25:00 UTC
4706987695262,3441904960650,9000020152242,ZC_KAIGO,佐渡市,佐渡市介護老人保健施設　すこやか両津,,新潟県佐渡市春日１１３７番地４,０２５９－２３－５１７１,2023-10-17 14:25:00 UTC
4706987695262,3441904960650,9000020152242,ZC_KAIGO,佐渡市,佐渡市介護老人保健施設　すこやか両津,,新潟県佐渡市春日１１３７番地４,0259-23-5171,2023-10-17 14:25:00 UTC
4706987695262,9989262120566,9000020152242,MANUAL_COLLECTION,佐渡市,特別養護老人ホーム歌代の里,,佐渡市浜田140番地1,0259-23-5151,2023-10-17 14:25:00 UTC
2156711106825,9379762186538,8220005002763,ZC_KAIGO,佛子園,B'sWAJIMAデイサービスセンター,,石川県輪島市河井町2部210番地,０７６８－２３－４８９５,2023-10-17 14:25:00 UTC
2890599434585,8721435060299,6340005001383,ZC_KAIGO,佳成会,ケアガーデンてらやま,,鹿児島市吉野町１０８７７番地１８,099-295-5005,2023-10-17 14:25:00 UTC
2890599434585,4602289009251,6340005001383,ZC_KAIGO,佳成会,ケアガーデンてらやま,,吉野町１０８７７番地１８,099-295-5005,2023-10-17 14:25:00 UTC
2890599434585,5020131686144,6340005001383,ZC_KAIGO,佳成会,グループホームてらやま,,鹿児島市吉野町６５８１番地２,０９９－２４３－８８１１,2023-10-17 14:25:00 UTC
2890599434585,6010264966524,6340005001383,ZC_KAIGO,佳成会,ケアガーデンてらやまデイサービスセンター,,鹿児島市吉野町１０８７７番地１８, 099-295-5005 ,2023-10-17 14:25:00 UTC
2890599434585,8721435060299,6340005001383,ZC_KAIGO,佳成会,ケアガーデンてらやま（ユニット型）,,鹿児島県鹿児島市吉野町１０８７７番地１８,099⁃295⁃5005,2023-10-17 14:25:00 UTC
,,,,佳美会,むらたクリニックデイケアセンター,,さいたま市西区内野本郷450-1,048-780-2745,2023-10-17 14:25:00 UTC
4679598692504,7409663089294,7340001013407,ZC_KAIGO,信　美,デイサービスセンターなでしこ国分,,鹿児島県霧島市国分福島1丁目23番40号なでしこ国分,0995⁃73⁃6000,2023-10-17 14:25:00 UTC
9453998703423,4366695779965,3320005003236,ZC_KAIGO,信和会,訪問看護ステーションみらい,,大分県宇佐市大字出光165番地の１,0978-37-2626,2023-10-17 14:25:00 UTC
9154184310993,1633398682174,9000020205834,ZC_KAIGO,信濃町,信越病院,,長野県上水内郡信濃町大字柏原３８０,026-255-3100,2023-10-17 14:25:00 UTC
9154184310993,1633398682174,9000020205834,ZC_KAIGO,信濃町,信越病院,,長野県上水内郡信濃町大字柏原３８０,026-255-3100,2023-10-17 14:25:00 UTC
9154184310993,1633398682174,9000020205834,ZC_KAIGO,信濃町,信越病院,,長野県上水内郡信濃町大字柏原３８０,026-255-3100,2023-10-17 14:25:00 UTC
9154184310993,1633398682174,9000020205834,ZC_KAIGO,信濃町,信越病院,,長野県上水内郡信濃町大字柏原３８０,026-255-3100,2023-10-17 14:25:00 UTC
,,,,修和会,ケアマネ事業所　笑顔の家,,栃木県日光市塩野室町1504-23,0288-32-7356,2023-10-17 14:25:00 UTC
,,,,修和会,塩野室ハウス,,塩野室町１５０４－２０,０２８８－２６－８７７０,2023-10-17 14:25:00 UTC
2107527809046,5617680229872,7040005003070,ZC_KAIGO,修央会,船橋笑寿苑デイサービスセンター,,千葉県船橋市大穴北4－25－15船橋笑寿苑,047-410-8414,2023-10-17 14:25:00 UTC
,,,,修志会,りあん訪問看護ステーション,,埼玉県越谷市千間台西1-8-7IKビル303,048-972-6386,2023-10-17 14:25:00 UTC
8250971080356,6124648019731,6122005001922,ZC_KAIGO,修智会,北川整形外科クリニック　通所リハビリテーション,,大阪府八尾市山本町南１－１０－１１,072-923-8143,2023-10-17 14:25:00 UTC
,,,,倣襄会,あゆみの家,,京都府亀岡市篠町篠下中筋44番地5,0771-23-1655,2023-10-17 14:25:00 UTC
,,,,倣襄会,地域密着型特別養護老人ホームあゆみ,,京都府亀岡市篠町篠下中筋43番地3地域密着型特別養護老人ホームあゆみ,0771⁃21⁃2200,2023-10-17 14:25:00 UTC
,,,,倣襄会,小規模多機能型居宅介護あゆみの家,,京都府亀岡市篠町篠下中筋44－5,0771-23-1655,2023-10-17 14:25:00 UTC
,,,,倫照会,学園木花デイサービスセンター,,宮崎県宮崎市鏡洲560番地,0985-55-3211,2023-10-17 14:25:00 UTC
2661828935861,4274244079427,3013105001090,ZC_KAIGO,倭林会,成蹊園,,東京都青梅市今井1丁目521番地の1,0428-32-7220,2023-10-17 14:25:00 UTC
2661828935861,7310995681060,3013105001090,ZC_KAIGO,倭林会,成蹊園,,東京都青梅市今井1丁目521番地の1,0428-32-7220,2023-10-17 14:25:00 UTC
8650600119606,5555433156400,3320005005868,ZC_KAIGO,偕倖社,特別養護老人ホーム　悠々居,,大分県竹田市大字三宅1763番地1,0974-63-3201,2023-10-17 14:25:00 UTC
8650600119606,6769343171448,3320005005868,ZC_KAIGO,偕倖社,「悠々居」グループホーム,,大分県竹田市大字三宅1693番地1,0974-63-9670,2023-10-17 14:25:00 UTC
8650600119606,1671839385053,3320005005868,ZC_KAIGO,偕倖社,悠々居ショートステイ,,大分県竹田市三宅1763番地1,０９７４－６３－３２０１,2023-10-17 14:25:00 UTC
8650600119606,1202865754217,3320005005868,ZC_KAIGO,偕倖社,悠々居ヘルパーステーション,,大分県竹田市大字三宅1763番地1,0974-63-3224,2023-10-17 14:25:00 UTC
8650600119606,3137537878979,3320005005868,ZC_KAIGO,偕倖社,悠々居ケアプランセンター,,大分県竹田市大字三宅1763番地1,0974-63-3797,2023-10-17 14:25:00 UTC
8650600119606,5794545721051,3320005005868,ZC_KAIGO,偕倖社,悠々居デイサービスセンター,,大分県竹田市大字三宅1763番地1,0974-63-3200,2023-10-17 14:25:00 UTC
7941080597387,9543109231569,,ZC_KAIGO,偕行会,偕行会城西病院　訪問リハビリテーション,,名古屋市中村区北畑町4丁目1番地,052-485-3777,2023-10-17 14:25:00 UTC
,,,,偕行会,介護付有料老ホーム　のぞみ,,城屋敷町三丁目４１番地,052-419-0314,2023-10-17 14:25:00 UTC
,,,,偕行会,小規模多機能型居宅介護のぞみ,,城屋敷町三丁目４１番地,052⁃419⁃0317,2023-10-17 14:25:00 UTC
2066324737029,5760718569112,1310005002884,ZC_KAIGO,健世会,ケアハウス　ガーデンハイツはいき,,長崎県佐世保市桑木場町159番地,0956⁃30⁃8633,2023-10-17 14:25:00 UTC
2355874325801,5866723939517,3140005017279,ZC_KAIGO,健仁会,弥栄の園訪問介護事業所,,兵庫県加西市北条町西高室595-11サ－ビス付き高齢者向け住宅弥栄の園,0790-23-7770,2023-10-17 14:25:00 UTC
8514969308995,7827707908142,1340005003715,ZC_KAIGO,健仁会,市来内科介護医療院,,鹿児島県いちき串木野市大里3869-6,0996-36-5000,2023-10-17 14:25:00 UTC
,,,,健伸会,デイサービス　五つの実,,大分県竹田市大字会々2576番地1,0974⁃63⁃9611,2023-10-17 14:25:00 UTC
,,,,健伸会,ケアホーム五つの実,,竹田市会々2576番地1,０９７４－６３－９６１１,2023-10-17 14:25:00 UTC
,,,,健和会,健和会病院在宅総合支援センター,,飯田市鼎中平１９３６,0265-23-3268,2023-10-17 14:25:00 UTC
,,,,健和会,大手町リハビリテーション病院,,福岡県北九州市小倉北区大手町１４－１８, 093-592-1267 ,2023-10-17 14:25:00 UTC
,,,,健山会,介護老人保健施設　歩　訪問リハビリテーション,,福島県田村市船引町船引字砂子田42,0247-82-6788,2023-10-17 14:25:00 UTC
8221552771113,8158863071263,4250005004827,MANUAL_COLLECTION,健幸会,かねた訪問看護ステーション,,山口県萩市大字吉田町1番地, 0838-21-4700 ,2023-10-17 14:25:00 UTC
,,,,健康会,霧島記念病院,,国分福島一丁目5番19号,0995-47-3100,2023-10-17 14:25:00 UTC
1781285453693,9560072452198,2130005009278,ZC_KAIGO,健心会,デイサービスセンター香琳,,京都府京田辺市河原神谷７－１,0774-63-6118,2023-10-17 14:25:00 UTC
,,,,健心会,訪問看護ステーション　ふじの風,,佐賀県佐賀市富士町小副川272,0952-64-2231,2023-10-17 14:25:00 UTC
,,,,健成会,デイサービスセンターゆりかご,,鹿児島市伊敷5丁目17番1号シニアハウスはぴねす1階,099-229-2755,2023-10-17 14:25:00 UTC
,,,,健樹会,横山医院,,東京都北区中十条2-22-16,03-5963-5085,2023-10-17 14:25:00 UTC
,,,,健生会,介護老人保健施設アルテンハイム会地の郷,,長野県下伊那郡阿智村駒場１２４－１,0265-43-4848,2023-10-17 14:25:00 UTC
,,,,健生会,介護医療院　橋上医院,,長野県下伊那郡阿智村駒場359番地1,0265-43-2118,2023-10-17 14:25:00 UTC
,,,,健生会,土庫病院　訪問看護ステーションそよかぜ,,奈良県大和高田市日之出町17-22,0745-23-5914,2023-10-17 14:25:00 UTC
,,,,健生会,健生会　訪問介護事業所,,鹿児島県日置市伊集院町下谷口1942番地, 099-273-2135 ,2023-10-17 14:25:00 UTC
,,,,健生会,介護老人保健施設アルテンハイム会地の郷,,長野県下伊那郡阿智村駒場１２４－１,0265-43-4848,2023-10-17 14:25:00 UTC
,,,,健生会,介護老人保健施設アルテンハイム会地の郷,,長野県下伊那郡阿智村駒場１２４－１,０２６５－４３－４８４８,2023-10-17 14:25:00 UTC
,,,,健生会,健生会アルテンハイム会地の郷指定居宅介護支援事業所,,長野県下伊那郡阿智村駒場１２４－１,０２６５－４３－４８４８,2023-10-17 14:25:00 UTC
,,,,健生会,ももの家,,奈良県大和高田市日之出町１７－２２,0745⁃21⁃1180,2023-10-17 14:25:00 UTC
,,,,健甦会,小美玉敬愛の杜,,中台148,0299-56-5181,2023-10-17 14:25:00 UTC
,,,,健甦会,小美玉敬愛の杜,,茨城県小美玉市中台148,０２９９－５６－５１８１,2023-10-17 14:25:00 UTC
,,,,健甦会,訪問リハビリテーション事業所　小美玉敬愛の杜,,茨城県小美玉市中台148,0299-56-5181,2023-10-17 14:25:00 UTC
4209742068985,7566475745742,4050005005226,ZC_KAIGO,健誠会,永福南社会福祉ガーデン,,東京都杉並区永福1-7-6, 03-6379-3011 ,2023-10-17 14:25:00 UTC
,,,,健誠会,高針台整形外科クリニック,,高針台2丁目103-4高針台整形外科クリニック,052-709-2233,2023-10-17 14:25:00 UTC
1019711645210,5138451457421,8180005005325,ZC_KAIGO,健進会,こうの整形外科介護プランセンター,,名古屋市緑区浦里２丁目１７４番地,052-891-8140,2023-10-17 14:25:00 UTC
8121310276991,5950864346403,3180001054082,ZC_KAIGO,健遊館,健遊館銭湯ふくのゆ,,東京都台東区千束２－３４－６富久乃湯ビル1階, 03-5808-0035 ,2023-10-17 14:25:00 UTC
,,,,健風会,デイサービスセンター花みずき,,宮崎県小林市大字真方242番地,0984-25-0655,2023-10-17 14:25:00 UTC
6046274765841,7440630927995,7000020332119,ZC_KAIGO,備前市,備前さつき苑指定居宅介護支援事業所,,岡山県備前市伊部２２３１－１,0869-63-9300,2023-10-17 14:25:00 UTC
6046274765841,7856010902022,7000020332119,ZC_KAIGO,備前市,備前市国民健康保険市立吉永病院,,岡山県備前市吉永町吉永中563－4,0869⁃84⁃2120,2023-10-17 14:25:00 UTC
6046274765841,5623852036220,7000020332119,ZC_KAIGO,備前市,備前市介護老人保健施設備前さつき苑,,岡山県備前市伊部２２３１－１,0869-63-9300,2023-10-17 14:25:00 UTC
6046274765841,7856010902022,7000020332119,ZC_KAIGO,備前市,備前市国民健康保険市立吉永病院,,岡山県備前市吉永町吉永中563-4,0869⁃84⁃2120,2023-10-17 14:25:00 UTC
6046274765841,1164063939292,7000020332119,ZC_KAIGO,備前市,備前市訪問看護ステーション,,岡山県備前市伊部2231-1,0869-63-9302,2023-10-17 14:25:00 UTC
6046274765841,5623852036220,7000020332119,ZC_KAIGO,備前市,備前市介護老人保健施設備前さつき苑,,岡山県備前市伊部２２３１－１,0869-63-9300,2023-10-17 14:25:00 UTC
6046274765841,5623852036220,7000020332119,ZC_KAIGO,備前市,備前市介護老人保健施設備前さつき苑,,岡山県備前市伊部２２３１－１, 0869-63-9300 ,2023-10-17 14:25:00 UTC
,,,,優仁会,介護老人保健施設　サンライズ留萌,,留萌市東雲町２丁目, 0164-43-1195 ,2023-10-17 14:25:00 UTC
,,,,優仁会,介護老人保健施設　サンライズ留萌,,留萌市東雲町２丁目,０１６４－４３－１１９５,2023-10-17 14:25:00 UTC
8456265409209,4189847162140,6080105002374,ZC_KAIGO,優輪会,リゾートハウスサワディー,,大平字大久保2233-3,055-955-9261,2023-10-17 14:25:00 UTC
6513409193324,3923056230080,2030005009734,ZC_KAIGO,元気村,国見ナーシングホーム翔裕園,,宮城県仙台市青葉区国見6丁目84番1号,022⁃718⁃5261,2023-10-17 14:25:00 UTC
6513409193324,3923056230080,2030005009734,ZC_KAIGO,元気村,国見ナーシングホーム翔裕園,,宮城県仙台市青葉区国見6丁目84番1号,022⁃718⁃5261,2023-10-17 14:25:00 UTC
6513409193324,3923056230080,2030005009734,ZC_KAIGO,元気村,国見ナーシングホーム翔裕園,,宮城県仙台市青葉区国見6-84-1, 022-718-5421 ,2023-10-17 14:25:00 UTC
6513409193324,3923056230080,2030005009734,ZC_KAIGO,元気村,国見ナーシングホーム翔裕園,,宮城県仙台市青葉区国見6丁目84番1号,022-718-5261,2023-10-17 14:25:00 UTC
6513409193324,3923056230080,2030005009734,ZC_KAIGO,元気村,国見ナーシングホーム翔裕園,,宮城県仙台市青葉区国見6丁目84番地1号,022-718-5261,2023-10-17 14:25:00 UTC
,,,,元湧会,あいさんさん,,高知県四万十市駅前町９－１６,0880-35-2000,2023-10-17 14:25:00 UTC
,,,,光仁会,春日部定期巡回・随時対応型訪問介護看護ひまわりケアセンター,,春日部市下蛭田125-1春日部厚生クリニック内,048-760-0121,2023-10-17 14:25:00 UTC
6077907426373,7879029411026,,MANUAL_COLLECTION,光潤会,医療法人　光潤会　グル－プホ－ム　ゆうらく,,茨城県下妻市江　2443番地1,0296⁃30⁃1400,2023-10-17 14:25:00 UTC
,,,,光照園,北区立堀船高齢者在宅サービスセンター,,東京都北区堀船2-25-2都営アパート101号,03-3927-7557,2023-10-17 14:25:00 UTC
,,,,光照園,北区立堀船高齢者在宅サービスセンター,,東京都北区堀船2-25-2都営アパート101,03⁃3927⁃7557,2023-10-17 14:25:00 UTC
,,,,光秀会,養老整形外科クリニック　訪問看護,,岐阜県養老郡養老町大跡534番地,０５８４－３４－３９４６,2023-10-17 14:25:00 UTC
,,,,光総会,ぐるーぷほーむ　やすらぎ,,天草市五和町御領6447番地,0969-32-1055,2023-10-17 14:25:00 UTC
